id,station_name,city,county,state,latitude,longitude,ev_level2_evse_num,ev_dc_fast_num,ev_network
33179,LADWP - Lincoln Heights District,Los Angeles,,CA,34.081998,-118.21713,79,0,Non-Networked
33179,LADWP - Lincoln Heights District,Los Angeles,,CA,34.081998,-118.21713,79,0,Non-Networked
33179,LADWP - Lincoln Heights District,Los Angeles,,CA,34.081998,-118.21713,79,0,Non-Networked
33179,LADWP - Lincoln Heights District,Los Angeles,,CA,34.081998,-118.21713,79,0,Non-Networked
33179,LADWP - Lincoln Heights District,Los Angeles,,CA,34.081998,-118.21713,79,0,Non-Networked
33179,LADWP - Lincoln Heights District,Los Angeles,,CA,34.081998,-118.21713,79,0,Non-Networked
33179,LADWP - Lincoln Heights District,Los Angeles,,CA,34.081998,-118.21713,79,0,Non-Networked
33179,LADWP - Lincoln Heights District,Los Angeles,,CA,34.081998,-118.21713,79,0,Non-Networked
33179,LADWP - Lincoln Heights District,Los Angeles,,CA,34.081998,-118.21713,79,0,Non-Networked
33179,LADWP - Lincoln Heights District,Los Angeles,,CA,34.081998,-118.21713,79,0,Non-Networked
33179,LADWP - Lincoln Heights District,Los Angeles,,CA,34.081998,-118.21713,79,0,Non-Networked
33179,LADWP - Lincoln Heights District,Los Angeles,,CA,34.081998,-118.21713,79,0,Non-Networked
33179,LADWP - Lincoln Heights District,Los Angeles,,CA,34.081998,-118.21713,79,0,Non-Networked
33179,LADWP - Lincoln Heights District,Los Angeles,,CA,34.081998,-118.21713,79,0,Non-Networked
33179,LADWP - Lincoln Heights District,Los Angeles,,CA,34.081998,-118.21713,79,0,Non-Networked
33179,LADWP - Lincoln Heights District,Los Angeles,,CA,34.081998,-118.21713,79,0,Non-Networked
33179,LADWP - Lincoln Heights District,Los Angeles,,CA,34.081998,-118.21713,79,0,Non-Networked
33179,LADWP - Lincoln Heights District,Los Angeles,,CA,34.081998,-118.21713,79,0,Non-Networked
33179,LADWP - Lincoln Heights District,Los Angeles,,CA,34.081998,-118.21713,79,0,Non-Networked
33179,LADWP - Lincoln Heights District,Los Angeles,,CA,34.081998,-118.21713,79,0,Non-Networked
33179,LADWP - Lincoln Heights District,Los Angeles,,CA,34.081998,-118.21713,79,0,Non-Networked
33179,LADWP - Lincoln Heights District,Los Angeles,,CA,34.081998,-118.21713,79,0,Non-Networked
33179,LADWP - Lincoln Heights District,Los Angeles,,CA,34.081998,-118.21713,79,0,Non-Networked
33179,LADWP - Lincoln Heights District,Los Angeles,,CA,34.081998,-118.21713,79,0,Non-Networked
33179,LADWP - Lincoln Heights District,Los Angeles,,CA,34.081998,-118.21713,79,0,Non-Networked
33179,LADWP - Lincoln Heights District,Los Angeles,,CA,34.081998,-118.21713,79,0,Non-Networked
33179,LADWP - Lincoln Heights District,Los Angeles,,CA,34.081998,-118.21713,79,0,Non-Networked
33179,LADWP - Lincoln Heights District,Los Angeles,,CA,34.081998,-118.21713,79,0,Non-Networked
33179,LADWP - Lincoln Heights District,Los Angeles,,CA,34.081998,-118.21713,79,0,Non-Networked
33179,LADWP - Lincoln Heights District,Los Angeles,,CA,34.081998,-118.21713,79,0,Non-Networked
33179,LADWP - Lincoln Heights District,Los Angeles,,CA,34.081998,-118.21713,79,0,Non-Networked
33179,LADWP - Lincoln Heights District,Los Angeles,,CA,34.081998,-118.21713,79,0,Non-Networked
33179,LADWP - Lincoln Heights District,Los Angeles,,CA,34.081998,-118.21713,79,0,Non-Networked
33179,LADWP - Lincoln Heights District,Los Angeles,,CA,34.081998,-118.21713,79,0,Non-Networked
33179,LADWP - Lincoln Heights District,Los Angeles,,CA,34.081998,-118.21713,79,0,Non-Networked
33179,LADWP - Lincoln Heights District,Los Angeles,,CA,34.081998,-118.21713,79,0,Non-Networked
33179,LADWP - Lincoln Heights District,Los Angeles,,CA,34.081998,-118.21713,79,0,Non-Networked
33179,LADWP - Lincoln Heights District,Los Angeles,,CA,34.081998,-118.21713,79,0,Non-Networked
33179,LADWP - Lincoln Heights District,Los Angeles,,CA,34.081998,-118.21713,79,0,Non-Networked
33179,LADWP - Lincoln Heights District,Los Angeles,,CA,34.081998,-118.21713,79,0,Non-Networked
33179,LADWP - Lincoln Heights District,Los Angeles,,CA,34.081998,-118.21713,79,0,Non-Networked
33179,LADWP - Lincoln Heights District,Los Angeles,,CA,34.081998,-118.21713,79,0,Non-Networked
33179,LADWP - Lincoln Heights District,Los Angeles,,CA,34.081998,-118.21713,79,0,Non-Networked
33179,LADWP - Lincoln Heights District,Los Angeles,,CA,34.081998,-118.21713,79,0,Non-Networked
33179,LADWP - Lincoln Heights District,Los Angeles,,CA,34.081998,-118.21713,79,0,Non-Networked
33179,LADWP - Lincoln Heights District,Los Angeles,,CA,34.081998,-118.21713,79,0,Non-Networked
33179,LADWP - Lincoln Heights District,Los Angeles,,CA,34.081998,-118.21713,79,0,Non-Networked
33179,LADWP - Lincoln Heights District,Los Angeles,,CA,34.081998,-118.21713,79,0,Non-Networked
33179,LADWP - Lincoln Heights District,Los Angeles,,CA,34.081998,-118.21713,79,0,Non-Networked
33179,LADWP - Lincoln Heights District,Los Angeles,,CA,34.081998,-118.21713,79,0,Non-Networked
33179,LADWP - Lincoln Heights District,Los Angeles,,CA,34.081998,-118.21713,79,0,Non-Networked
33179,LADWP - Lincoln Heights District,Los Angeles,,CA,34.081998,-118.21713,79,0,Non-Networked
33179,LADWP - Lincoln Heights District,Los Angeles,,CA,34.081998,-118.21713,79,0,Non-Networked
33179,LADWP - Lincoln Heights District,Los Angeles,,CA,34.081998,-118.21713,79,0,Non-Networked
33179,LADWP - Lincoln Heights District,Los Angeles,,CA,34.081998,-118.21713,79,0,Non-Networked
33179,LADWP - Lincoln Heights District,Los Angeles,,CA,34.081998,-118.21713,79,0,Non-Networked
33179,LADWP - Lincoln Heights District,Los Angeles,,CA,34.081998,-118.21713,79,0,Non-Networked
33179,LADWP - Lincoln Heights District,Los Angeles,,CA,34.081998,-118.21713,79,0,Non-Networked
33179,LADWP - Lincoln Heights District,Los Angeles,,CA,34.081998,-118.21713,79,0,Non-Networked
33179,LADWP - Lincoln Heights District,Los Angeles,,CA,34.081998,-118.21713,79,0,Non-Networked
33179,LADWP - Lincoln Heights District,Los Angeles,,CA,34.081998,-118.21713,79,0,Non-Networked
33179,LADWP - Lincoln Heights District,Los Angeles,,CA,34.081998,-118.21713,79,0,Non-Networked
33179,LADWP - Lincoln Heights District,Los Angeles,,CA,34.081998,-118.21713,79,0,Non-Networked
33179,LADWP - Lincoln Heights District,Los Angeles,,CA,34.081998,-118.21713,79,0,Non-Networked
33179,LADWP - Lincoln Heights District,Los Angeles,,CA,34.081998,-118.21713,79,0,Non-Networked
33179,LADWP - Lincoln Heights District,Los Angeles,,CA,34.081998,-118.21713,79,0,Non-Networked
33179,LADWP - Lincoln Heights District,Los Angeles,,CA,34.081998,-118.21713,79,0,Non-Networked
33179,LADWP - Lincoln Heights District,Los Angeles,,CA,34.081998,-118.21713,79,0,Non-Networked
33179,LADWP - Lincoln Heights District,Los Angeles,,CA,34.081998,-118.21713,79,0,Non-Networked
33179,LADWP - Lincoln Heights District,Los Angeles,,CA,34.081998,-118.21713,79,0,Non-Networked
33179,LADWP - Lincoln Heights District,Los Angeles,,CA,34.081998,-118.21713,79,0,Non-Networked
33179,LADWP - Lincoln Heights District,Los Angeles,,CA,34.081998,-118.21713,79,0,Non-Networked
33179,LADWP - Lincoln Heights District,Los Angeles,,CA,34.081998,-118.21713,79,0,Non-Networked
33179,LADWP - Lincoln Heights District,Los Angeles,,CA,34.081998,-118.21713,79,0,Non-Networked
33179,LADWP - Lincoln Heights District,Los Angeles,,CA,34.081998,-118.21713,79,0,Non-Networked
33179,LADWP - Lincoln Heights District,Los Angeles,,CA,34.081998,-118.21713,79,0,Non-Networked
33179,LADWP - Lincoln Heights District,Los Angeles,,CA,34.081998,-118.21713,79,0,Non-Networked
33179,LADWP - Lincoln Heights District,Los Angeles,,CA,34.081998,-118.21713,79,0,Non-Networked
33179,LADWP - Lincoln Heights District,Los Angeles,,CA,34.081998,-118.21713,79,0,Non-Networked
33179,LADWP - Lincoln Heights District,Los Angeles,,CA,34.081998,-118.21713,79,0,Non-Networked
33179,LADWP - Lincoln Heights District,Los Angeles,,CA,34.081998,-118.21713,79,0,Non-Networked
33179,LADWP - Lincoln Heights District,Los Angeles,,CA,34.081998,-118.21713,79,0,Non-Networked
33179,LADWP - Lincoln Heights District,Los Angeles,,CA,34.081998,-118.21713,79,0,Non-Networked
33179,LADWP - Lincoln Heights District,Los Angeles,,CA,34.081998,-118.21713,79,0,Non-Networked
33179,LADWP - Lincoln Heights District,Los Angeles,,CA,34.081998,-118.21713,79,0,Non-Networked
33179,LADWP - Lincoln Heights District,Los Angeles,,CA,34.081998,-118.21713,79,0,Non-Networked
33179,LADWP - Lincoln Heights District,Los Angeles,,CA,34.081998,-118.21713,79,0,Non-Networked
33179,LADWP - Lincoln Heights District,Los Angeles,,CA,34.081998,-118.21713,79,0,Non-Networked
33179,LADWP - Lincoln Heights District,Los Angeles,,CA,34.081998,-118.21713,79,0,Non-Networked
33179,LADWP - Lincoln Heights District,Los Angeles,,CA,34.081998,-118.21713,79,0,Non-Networked
33179,LADWP - Lincoln Heights District,Los Angeles,,CA,34.081998,-118.21713,79,0,Non-Networked
33179,LADWP - Lincoln Heights District,Los Angeles,,CA,34.081998,-118.21713,79,0,Non-Networked
33179,LADWP - Lincoln Heights District,Los Angeles,,CA,34.081998,-118.21713,79,0,Non-Networked
33179,LADWP - Lincoln Heights District,Los Angeles,,CA,34.081998,-118.21713,79,0,Non-Networked
33179,LADWP - Lincoln Heights District,Los Angeles,,CA,34.081998,-118.21713,79,0,Non-Networked
33179,LADWP - Lincoln Heights District,Los Angeles,,CA,34.081998,-118.21713,79,0,Non-Networked
33179,LADWP - Lincoln Heights District,Los Angeles,,CA,34.081998,-118.21713,79,0,Non-Networked
33179,LADWP - Lincoln Heights District,Los Angeles,,CA,34.081998,-118.21713,79,0,Non-Networked
33179,LADWP - Lincoln Heights District,Los Angeles,,CA,34.081998,-118.21713,79,0,Non-Networked
1589,LADWP - Palmetto Center,Los Angeles,,CA,34.039736,-118.236065,27,0,Non-Networked
1589,LADWP - Palmetto Center,Los Angeles,,CA,34.039736,-118.236065,27,0,Non-Networked
1589,LADWP - Palmetto Center,Los Angeles,,CA,34.039736,-118.236065,27,0,Non-Networked
1589,LADWP - Palmetto Center,Los Angeles,,CA,34.039736,-118.236065,27,0,Non-Networked
1589,LADWP - Palmetto Center,Los Angeles,,CA,34.039736,-118.236065,27,0,Non-Networked
1589,LADWP - Palmetto Center,Los Angeles,,CA,34.039736,-118.236065,27,0,Non-Networked
1589,LADWP - Palmetto Center,Los Angeles,,CA,34.039736,-118.236065,27,0,Non-Networked
1589,LADWP - Palmetto Center,Los Angeles,,CA,34.039736,-118.236065,27,0,Non-Networked
1589,LADWP - Palmetto Center,Los Angeles,,CA,34.039736,-118.236065,27,0,Non-Networked
1589,LADWP - Palmetto Center,Los Angeles,,CA,34.039736,-118.236065,27,0,Non-Networked
1589,LADWP - Palmetto Center,Los Angeles,,CA,34.039736,-118.236065,27,0,Non-Networked
1589,LADWP - Palmetto Center,Los Angeles,,CA,34.039736,-118.236065,27,0,Non-Networked
1589,LADWP - Palmetto Center,Los Angeles,,CA,34.039736,-118.236065,27,0,Non-Networked
1589,LADWP - Palmetto Center,Los Angeles,,CA,34.039736,-118.236065,27,0,Non-Networked
1589,LADWP - Palmetto Center,Los Angeles,,CA,34.039736,-118.236065,27,0,Non-Networked
1589,LADWP - Palmetto Center,Los Angeles,,CA,34.039736,-118.236065,27,0,Non-Networked
1589,LADWP - Palmetto Center,Los Angeles,,CA,34.039736,-118.236065,27,0,Non-Networked
1589,LADWP - Palmetto Center,Los Angeles,,CA,34.039736,-118.236065,27,0,Non-Networked
1589,LADWP - Palmetto Center,Los Angeles,,CA,34.039736,-118.236065,27,0,Non-Networked
1589,LADWP - Palmetto Center,Los Angeles,,CA,34.039736,-118.236065,27,0,Non-Networked
1589,LADWP - Palmetto Center,Los Angeles,,CA,34.039736,-118.236065,27,0,Non-Networked
1589,LADWP - Palmetto Center,Los Angeles,,CA,34.039736,-118.236065,27,0,Non-Networked
1589,LADWP - Palmetto Center,Los Angeles,,CA,34.039736,-118.236065,27,0,Non-Networked
1589,LADWP - Palmetto Center,Los Angeles,,CA,34.039736,-118.236065,27,0,Non-Networked
1589,LADWP - Palmetto Center,Los Angeles,,CA,34.039736,-118.236065,27,0,Non-Networked
1589,LADWP - Palmetto Center,Los Angeles,,CA,34.039736,-118.236065,27,0,Non-Networked
1589,LADWP - Palmetto Center,Los Angeles,,CA,34.039736,-118.236065,27,0,Non-Networked
1589,LADWP - Palmetto Center,Los Angeles,,CA,34.039736,-118.236065,27,0,Non-Networked
1589,LADWP - Palmetto Center,Los Angeles,,CA,34.039736,-118.236065,27,0,Non-Networked
1589,LADWP - Palmetto Center,Los Angeles,,CA,34.039736,-118.236065,27,0,Non-Networked
1589,LADWP - Palmetto Center,Los Angeles,,CA,34.039736,-118.236065,27,0,Non-Networked
1589,LADWP - Palmetto Center,Los Angeles,,CA,34.039736,-118.236065,27,0,Non-Networked
1589,LADWP - Palmetto Center,Los Angeles,,CA,34.039736,-118.236065,27,0,Non-Networked
1589,LADWP - Palmetto Center,Los Angeles,,CA,34.039736,-118.236065,27,0,Non-Networked
1589,LADWP - Palmetto Center,Los Angeles,,CA,34.039736,-118.236065,27,0,Non-Networked
1589,LADWP - Palmetto Center,Los Angeles,,CA,34.039736,-118.236065,27,0,Non-Networked
1589,LADWP - Palmetto Center,Los Angeles,,CA,34.039736,-118.236065,27,0,Non-Networked
1589,LADWP - Palmetto Center,Los Angeles,,CA,34.039736,-118.236065,27,0,Non-Networked
1589,LADWP - Palmetto Center,Los Angeles,,CA,34.039736,-118.236065,27,0,Non-Networked
1589,LADWP - Palmetto Center,Los Angeles,,CA,34.039736,-118.236065,27,0,Non-Networked
1589,LADWP - Palmetto Center,Los Angeles,,CA,34.039736,-118.236065,27,0,Non-Networked
1589,LADWP - Palmetto Center,Los Angeles,,CA,34.039736,-118.236065,27,0,Non-Networked
1589,LADWP - Palmetto Center,Los Angeles,,CA,34.039736,-118.236065,27,0,Non-Networked
1589,LADWP - Palmetto Center,Los Angeles,,CA,34.039736,-118.236065,27,0,Non-Networked
1589,LADWP - Palmetto Center,Los Angeles,,CA,34.039736,-118.236065,27,0,Non-Networked
1589,LADWP - Palmetto Center,Los Angeles,,CA,34.039736,-118.236065,27,0,Non-Networked
1589,LADWP - Palmetto Center,Los Angeles,,CA,34.039736,-118.236065,27,0,Non-Networked
1589,LADWP - Palmetto Center,Los Angeles,,CA,34.039736,-118.236065,27,0,Non-Networked
1589,LADWP - Palmetto Center,Los Angeles,,CA,34.039736,-118.236065,27,0,Non-Networked
1589,LADWP - Palmetto Center,Los Angeles,,CA,34.039736,-118.236065,27,0,Non-Networked
1589,LADWP - Palmetto Center,Los Angeles,,CA,34.039736,-118.236065,27,0,Non-Networked
1589,LADWP - Palmetto Center,Los Angeles,,CA,34.039736,-118.236065,27,0,Non-Networked
1589,LADWP - Palmetto Center,Los Angeles,,CA,34.039736,-118.236065,27,0,Non-Networked
1589,LADWP - Palmetto Center,Los Angeles,,CA,34.039736,-118.236065,27,0,Non-Networked
1589,LADWP - Palmetto Center,Los Angeles,,CA,34.039736,-118.236065,27,0,Non-Networked
1589,LADWP - Palmetto Center,Los Angeles,,CA,34.039736,-118.236065,27,0,Non-Networked
1589,LADWP - Palmetto Center,Los Angeles,,CA,34.039736,-118.236065,27,0,Non-Networked
1589,LADWP - Palmetto Center,Los Angeles,,CA,34.039736,-118.236065,27,0,Non-Networked
1589,LADWP - Palmetto Center,Los Angeles,,CA,34.039736,-118.236065,27,0,Non-Networked
1589,LADWP - Palmetto Center,Los Angeles,,CA,34.039736,-118.236065,27,0,Non-Networked
1589,LADWP - Palmetto Center,Los Angeles,,CA,34.039736,-118.236065,27,0,Non-Networked
1589,LADWP - Palmetto Center,Los Angeles,,CA,34.039736,-118.236065,27,0,Non-Networked
1589,LADWP - Palmetto Center,Los Angeles,,CA,34.039736,-118.236065,27,0,Non-Networked
1589,LADWP - Palmetto Center,Los Angeles,,CA,34.039736,-118.236065,27,0,Non-Networked
1589,LADWP - Palmetto Center,Los Angeles,,CA,34.039736,-118.236065,27,0,Non-Networked
1589,LADWP - Palmetto Center,Los Angeles,,CA,34.039736,-118.236065,27,0,Non-Networked
1589,LADWP - Palmetto Center,Los Angeles,,CA,34.039736,-118.236065,27,0,Non-Networked
1589,LADWP - Palmetto Center,Los Angeles,,CA,34.039736,-118.236065,27,0,Non-Networked
1589,LADWP - Palmetto Center,Los Angeles,,CA,34.039736,-118.236065,27,0,Non-Networked
1589,LADWP - Palmetto Center,Los Angeles,,CA,34.039736,-118.236065,27,0,Non-Networked
1589,LADWP - Palmetto Center,Los Angeles,,CA,34.039736,-118.236065,27,0,Non-Networked
1589,LADWP - Palmetto Center,Los Angeles,,CA,34.039736,-118.236065,27,0,Non-Networked
1589,LADWP - Palmetto Center,Los Angeles,,CA,34.039736,-118.236065,27,0,Non-Networked
1589,LADWP - Palmetto Center,Los Angeles,,CA,34.039736,-118.236065,27,0,Non-Networked
1589,LADWP - Palmetto Center,Los Angeles,,CA,34.039736,-118.236065,27,0,Non-Networked
1589,LADWP - Palmetto Center,Los Angeles,,CA,34.039736,-118.236065,27,0,Non-Networked
1589,LADWP - Palmetto Center,Los Angeles,,CA,34.039736,-118.236065,27,0,Non-Networked
1589,LADWP - Palmetto Center,Los Angeles,,CA,34.039736,-118.236065,27,0,Non-Networked
1589,LADWP - Palmetto Center,Los Angeles,,CA,34.039736,-118.236065,27,0,Non-Networked
1589,LADWP - Palmetto Center,Los Angeles,,CA,34.039736,-118.236065,27,0,Non-Networked
1589,LADWP - Palmetto Center,Los Angeles,,CA,34.039736,-118.236065,27,0,Non-Networked
1589,LADWP - Palmetto Center,Los Angeles,,CA,34.039736,-118.236065,27,0,Non-Networked
1589,LADWP - Palmetto Center,Los Angeles,,CA,34.039736,-118.236065,27,0,Non-Networked
1589,LADWP - Palmetto Center,Los Angeles,,CA,34.039736,-118.236065,27,0,Non-Networked
1589,LADWP - Palmetto Center,Los Angeles,,CA,34.039736,-118.236065,27,0,Non-Networked
1589,LADWP - Palmetto Center,Los Angeles,,CA,34.039736,-118.236065,27,0,Non-Networked
1589,LADWP - Palmetto Center,Los Angeles,,CA,34.039736,-118.236065,27,0,Non-Networked
1589,LADWP - Palmetto Center,Los Angeles,,CA,34.039736,-118.236065,27,0,Non-Networked
1589,LADWP - Palmetto Center,Los Angeles,,CA,34.039736,-118.236065,27,0,Non-Networked
1589,LADWP - Palmetto Center,Los Angeles,,CA,34.039736,-118.236065,27,0,Non-Networked
1589,LADWP - Palmetto Center,Los Angeles,,CA,34.039736,-118.236065,27,0,Non-Networked
1589,LADWP - Palmetto Center,Los Angeles,,CA,34.039736,-118.236065,27,0,Non-Networked
1589,LADWP - Palmetto Center,Los Angeles,,CA,34.039736,-118.236065,27,0,Non-Networked
1589,LADWP - Palmetto Center,Los Angeles,,CA,34.039736,-118.236065,27,0,Non-Networked
1589,LADWP - Palmetto Center,Los Angeles,,CA,34.039736,-118.236065,27,0,Non-Networked
1589,LADWP - Palmetto Center,Los Angeles,,CA,34.039736,-118.236065,27,0,Non-Networked
1589,LADWP - Palmetto Center,Los Angeles,,CA,34.039736,-118.236065,27,0,Non-Networked
1589,LADWP - Palmetto Center,Los Angeles,,CA,34.039736,-118.236065,27,0,Non-Networked
1589,LADWP - Palmetto Center,Los Angeles,,CA,34.039736,-118.236065,27,0,Non-Networked
6505,City of Pasadena - Holly Street Garage,Pasadena,,CA,34.14762,-118.147111,26,0,Non-Networked
6505,City of Pasadena - Holly Street Garage,Pasadena,,CA,34.14762,-118.147111,26,0,Non-Networked
6505,City of Pasadena - Holly Street Garage,Pasadena,,CA,34.14762,-118.147111,26,0,Non-Networked
6505,City of Pasadena - Holly Street Garage,Pasadena,,CA,34.14762,-118.147111,26,0,Non-Networked
6505,City of Pasadena - Holly Street Garage,Pasadena,,CA,34.14762,-118.147111,26,0,Non-Networked
6505,City of Pasadena - Holly Street Garage,Pasadena,,CA,34.14762,-118.147111,26,0,Non-Networked
6505,City of Pasadena - Holly Street Garage,Pasadena,,CA,34.14762,-118.147111,26,0,Non-Networked
6505,City of Pasadena - Holly Street Garage,Pasadena,,CA,34.14762,-118.147111,26,0,Non-Networked
6505,City of Pasadena - Holly Street Garage,Pasadena,,CA,34.14762,-118.147111,26,0,Non-Networked
6505,City of Pasadena - Holly Street Garage,Pasadena,,CA,34.14762,-118.147111,26,0,Non-Networked
6505,City of Pasadena - Holly Street Garage,Pasadena,,CA,34.14762,-118.147111,26,0,Non-Networked
6505,City of Pasadena - Holly Street Garage,Pasadena,,CA,34.14762,-118.147111,26,0,Non-Networked
6505,City of Pasadena - Holly Street Garage,Pasadena,,CA,34.14762,-118.147111,26,0,Non-Networked
6505,City of Pasadena - Holly Street Garage,Pasadena,,CA,34.14762,-118.147111,26,0,Non-Networked
6505,City of Pasadena - Holly Street Garage,Pasadena,,CA,34.14762,-118.147111,26,0,Non-Networked
6505,City of Pasadena - Holly Street Garage,Pasadena,,CA,34.14762,-118.147111,26,0,Non-Networked
6505,City of Pasadena - Holly Street Garage,Pasadena,,CA,34.14762,-118.147111,26,0,Non-Networked
6505,City of Pasadena - Holly Street Garage,Pasadena,,CA,34.14762,-118.147111,26,0,Non-Networked
6505,City of Pasadena - Holly Street Garage,Pasadena,,CA,34.14762,-118.147111,26,0,Non-Networked
6505,City of Pasadena - Holly Street Garage,Pasadena,,CA,34.14762,-118.147111,26,0,Non-Networked
6505,City of Pasadena - Holly Street Garage,Pasadena,,CA,34.14762,-118.147111,26,0,Non-Networked
6505,City of Pasadena - Holly Street Garage,Pasadena,,CA,34.14762,-118.147111,26,0,Non-Networked
6505,City of Pasadena - Holly Street Garage,Pasadena,,CA,34.14762,-118.147111,26,0,Non-Networked
6505,City of Pasadena - Holly Street Garage,Pasadena,,CA,34.14762,-118.147111,26,0,Non-Networked
6505,City of Pasadena - Holly Street Garage,Pasadena,,CA,34.14762,-118.147111,26,0,Non-Networked
6505,City of Pasadena - Holly Street Garage,Pasadena,,CA,34.14762,-118.147111,26,0,Non-Networked
6505,City of Pasadena - Holly Street Garage,Pasadena,,CA,34.14762,-118.147111,26,0,Non-Networked
6505,City of Pasadena - Holly Street Garage,Pasadena,,CA,34.14762,-118.147111,26,0,Non-Networked
6505,City of Pasadena - Holly Street Garage,Pasadena,,CA,34.14762,-118.147111,26,0,Non-Networked
6505,City of Pasadena - Holly Street Garage,Pasadena,,CA,34.14762,-118.147111,26,0,Non-Networked
6505,City of Pasadena - Holly Street Garage,Pasadena,,CA,34.14762,-118.147111,26,0,Non-Networked
6505,City of Pasadena - Holly Street Garage,Pasadena,,CA,34.14762,-118.147111,26,0,Non-Networked
6505,City of Pasadena - Holly Street Garage,Pasadena,,CA,34.14762,-118.147111,26,0,Non-Networked
6505,City of Pasadena - Holly Street Garage,Pasadena,,CA,34.14762,-118.147111,26,0,Non-Networked
6505,City of Pasadena - Holly Street Garage,Pasadena,,CA,34.14762,-118.147111,26,0,Non-Networked
6505,City of Pasadena - Holly Street Garage,Pasadena,,CA,34.14762,-118.147111,26,0,Non-Networked
6505,City of Pasadena - Holly Street Garage,Pasadena,,CA,34.14762,-118.147111,26,0,Non-Networked
6505,City of Pasadena - Holly Street Garage,Pasadena,,CA,34.14762,-118.147111,26,0,Non-Networked
6505,City of Pasadena - Holly Street Garage,Pasadena,,CA,34.14762,-118.147111,26,0,Non-Networked
6505,City of Pasadena - Holly Street Garage,Pasadena,,CA,34.14762,-118.147111,26,0,Non-Networked
6505,City of Pasadena - Holly Street Garage,Pasadena,,CA,34.14762,-118.147111,26,0,Non-Networked
6505,City of Pasadena - Holly Street Garage,Pasadena,,CA,34.14762,-118.147111,26,0,Non-Networked
6505,City of Pasadena - Holly Street Garage,Pasadena,,CA,34.14762,-118.147111,26,0,Non-Networked
6505,City of Pasadena - Holly Street Garage,Pasadena,,CA,34.14762,-118.147111,26,0,Non-Networked
6505,City of Pasadena - Holly Street Garage,Pasadena,,CA,34.14762,-118.147111,26,0,Non-Networked
6505,City of Pasadena - Holly Street Garage,Pasadena,,CA,34.14762,-118.147111,26,0,Non-Networked
6505,City of Pasadena - Holly Street Garage,Pasadena,,CA,34.14762,-118.147111,26,0,Non-Networked
6505,City of Pasadena - Holly Street Garage,Pasadena,,CA,34.14762,-118.147111,26,0,Non-Networked
6505,City of Pasadena - Holly Street Garage,Pasadena,,CA,34.14762,-118.147111,26,0,Non-Networked
6505,City of Pasadena - Holly Street Garage,Pasadena,,CA,34.14762,-118.147111,26,0,Non-Networked
6505,City of Pasadena - Holly Street Garage,Pasadena,,CA,34.14762,-118.147111,26,0,Non-Networked
6505,City of Pasadena - Holly Street Garage,Pasadena,,CA,34.14762,-118.147111,26,0,Non-Networked
6505,City of Pasadena - Holly Street Garage,Pasadena,,CA,34.14762,-118.147111,26,0,Non-Networked
6505,City of Pasadena - Holly Street Garage,Pasadena,,CA,34.14762,-118.147111,26,0,Non-Networked
6505,City of Pasadena - Holly Street Garage,Pasadena,,CA,34.14762,-118.147111,26,0,Non-Networked
6505,City of Pasadena - Holly Street Garage,Pasadena,,CA,34.14762,-118.147111,26,0,Non-Networked
6505,City of Pasadena - Holly Street Garage,Pasadena,,CA,34.14762,-118.147111,26,0,Non-Networked
6505,City of Pasadena - Holly Street Garage,Pasadena,,CA,34.14762,-118.147111,26,0,Non-Networked
6505,City of Pasadena - Holly Street Garage,Pasadena,,CA,34.14762,-118.147111,26,0,Non-Networked
6505,City of Pasadena - Holly Street Garage,Pasadena,,CA,34.14762,-118.147111,26,0,Non-Networked
6505,City of Pasadena - Holly Street Garage,Pasadena,,CA,34.14762,-118.147111,26,0,Non-Networked
6505,City of Pasadena - Holly Street Garage,Pasadena,,CA,34.14762,-118.147111,26,0,Non-Networked
6505,City of Pasadena - Holly Street Garage,Pasadena,,CA,34.14762,-118.147111,26,0,Non-Networked
6505,City of Pasadena - Holly Street Garage,Pasadena,,CA,34.14762,-118.147111,26,0,Non-Networked
6505,City of Pasadena - Holly Street Garage,Pasadena,,CA,34.14762,-118.147111,26,0,Non-Networked
6505,City of Pasadena - Holly Street Garage,Pasadena,,CA,34.14762,-118.147111,26,0,Non-Networked
6505,City of Pasadena - Holly Street Garage,Pasadena,,CA,34.14762,-118.147111,26,0,Non-Networked
6505,City of Pasadena - Holly Street Garage,Pasadena,,CA,34.14762,-118.147111,26,0,Non-Networked
6505,City of Pasadena - Holly Street Garage,Pasadena,,CA,34.14762,-118.147111,26,0,Non-Networked
6505,City of Pasadena - Holly Street Garage,Pasadena,,CA,34.14762,-118.147111,26,0,Non-Networked
6505,City of Pasadena - Holly Street Garage,Pasadena,,CA,34.14762,-118.147111,26,0,Non-Networked
6505,City of Pasadena - Holly Street Garage,Pasadena,,CA,34.14762,-118.147111,26,0,Non-Networked
6505,City of Pasadena - Holly Street Garage,Pasadena,,CA,34.14762,-118.147111,26,0,Non-Networked
6505,City of Pasadena - Holly Street Garage,Pasadena,,CA,34.14762,-118.147111,26,0,Non-Networked
6505,City of Pasadena - Holly Street Garage,Pasadena,,CA,34.14762,-118.147111,26,0,Non-Networked
6505,City of Pasadena - Holly Street Garage,Pasadena,,CA,34.14762,-118.147111,26,0,Non-Networked
6505,City of Pasadena - Holly Street Garage,Pasadena,,CA,34.14762,-118.147111,26,0,Non-Networked
6505,City of Pasadena - Holly Street Garage,Pasadena,,CA,34.14762,-118.147111,26,0,Non-Networked
6505,City of Pasadena - Holly Street Garage,Pasadena,,CA,34.14762,-118.147111,26,0,Non-Networked
6505,City of Pasadena - Holly Street Garage,Pasadena,,CA,34.14762,-118.147111,26,0,Non-Networked
6505,City of Pasadena - Holly Street Garage,Pasadena,,CA,34.14762,-118.147111,26,0,Non-Networked
6505,City of Pasadena - Holly Street Garage,Pasadena,,CA,34.14762,-118.147111,26,0,Non-Networked
6505,City of Pasadena - Holly Street Garage,Pasadena,,CA,34.14762,-118.147111,26,0,Non-Networked
6505,City of Pasadena - Holly Street Garage,Pasadena,,CA,34.14762,-118.147111,26,0,Non-Networked
6505,City of Pasadena - Holly Street Garage,Pasadena,,CA,34.14762,-118.147111,26,0,Non-Networked
6505,City of Pasadena - Holly Street Garage,Pasadena,,CA,34.14762,-118.147111,26,0,Non-Networked
6505,City of Pasadena - Holly Street Garage,Pasadena,,CA,34.14762,-118.147111,26,0,Non-Networked
6505,City of Pasadena - Holly Street Garage,Pasadena,,CA,34.14762,-118.147111,26,0,Non-Networked
6505,City of Pasadena - Holly Street Garage,Pasadena,,CA,34.14762,-118.147111,26,0,Non-Networked
6505,City of Pasadena - Holly Street Garage,Pasadena,,CA,34.14762,-118.147111,26,0,Non-Networked
6505,City of Pasadena - Holly Street Garage,Pasadena,,CA,34.14762,-118.147111,26,0,Non-Networked
6505,City of Pasadena - Holly Street Garage,Pasadena,,CA,34.14762,-118.147111,26,0,Non-Networked
6505,City of Pasadena - Holly Street Garage,Pasadena,,CA,34.14762,-118.147111,26,0,Non-Networked
6505,City of Pasadena - Holly Street Garage,Pasadena,,CA,34.14762,-118.147111,26,0,Non-Networked
6505,City of Pasadena - Holly Street Garage,Pasadena,,CA,34.14762,-118.147111,26,0,Non-Networked
6505,City of Pasadena - Holly Street Garage,Pasadena,,CA,34.14762,-118.147111,26,0,Non-Networked
6505,City of Pasadena - Holly Street Garage,Pasadena,,CA,34.14762,-118.147111,26,0,Non-Networked
6505,City of Pasadena - Holly Street Garage,Pasadena,,CA,34.14762,-118.147111,26,0,Non-Networked
6505,City of Pasadena - Holly Street Garage,Pasadena,,CA,34.14762,-118.147111,26,0,Non-Networked
21609,LADWP - Scattergood Generating Facility,Playa Del Rey,,CA,33.917593,-118.425334,21,0,Non-Networked
21609,LADWP - Scattergood Generating Facility,Playa Del Rey,,CA,33.917593,-118.425334,21,0,Non-Networked
21609,LADWP - Scattergood Generating Facility,Playa Del Rey,,CA,33.917593,-118.425334,21,0,Non-Networked
21609,LADWP - Scattergood Generating Facility,Playa Del Rey,,CA,33.917593,-118.425334,21,0,Non-Networked
21609,LADWP - Scattergood Generating Facility,Playa Del Rey,,CA,33.917593,-118.425334,21,0,Non-Networked
21609,LADWP - Scattergood Generating Facility,Playa Del Rey,,CA,33.917593,-118.425334,21,0,Non-Networked
21609,LADWP - Scattergood Generating Facility,Playa Del Rey,,CA,33.917593,-118.425334,21,0,Non-Networked
21609,LADWP - Scattergood Generating Facility,Playa Del Rey,,CA,33.917593,-118.425334,21,0,Non-Networked
21609,LADWP - Scattergood Generating Facility,Playa Del Rey,,CA,33.917593,-118.425334,21,0,Non-Networked
21609,LADWP - Scattergood Generating Facility,Playa Del Rey,,CA,33.917593,-118.425334,21,0,Non-Networked
21609,LADWP - Scattergood Generating Facility,Playa Del Rey,,CA,33.917593,-118.425334,21,0,Non-Networked
21609,LADWP - Scattergood Generating Facility,Playa Del Rey,,CA,33.917593,-118.425334,21,0,Non-Networked
21609,LADWP - Scattergood Generating Facility,Playa Del Rey,,CA,33.917593,-118.425334,21,0,Non-Networked
21609,LADWP - Scattergood Generating Facility,Playa Del Rey,,CA,33.917593,-118.425334,21,0,Non-Networked
21609,LADWP - Scattergood Generating Facility,Playa Del Rey,,CA,33.917593,-118.425334,21,0,Non-Networked
21609,LADWP - Scattergood Generating Facility,Playa Del Rey,,CA,33.917593,-118.425334,21,0,Non-Networked
21609,LADWP - Scattergood Generating Facility,Playa Del Rey,,CA,33.917593,-118.425334,21,0,Non-Networked
21609,LADWP - Scattergood Generating Facility,Playa Del Rey,,CA,33.917593,-118.425334,21,0,Non-Networked
21609,LADWP - Scattergood Generating Facility,Playa Del Rey,,CA,33.917593,-118.425334,21,0,Non-Networked
21609,LADWP - Scattergood Generating Facility,Playa Del Rey,,CA,33.917593,-118.425334,21,0,Non-Networked
21609,LADWP - Scattergood Generating Facility,Playa Del Rey,,CA,33.917593,-118.425334,21,0,Non-Networked
21609,LADWP - Scattergood Generating Facility,Playa Del Rey,,CA,33.917593,-118.425334,21,0,Non-Networked
21609,LADWP - Scattergood Generating Facility,Playa Del Rey,,CA,33.917593,-118.425334,21,0,Non-Networked
21609,LADWP - Scattergood Generating Facility,Playa Del Rey,,CA,33.917593,-118.425334,21,0,Non-Networked
21609,LADWP - Scattergood Generating Facility,Playa Del Rey,,CA,33.917593,-118.425334,21,0,Non-Networked
21609,LADWP - Scattergood Generating Facility,Playa Del Rey,,CA,33.917593,-118.425334,21,0,Non-Networked
21609,LADWP - Scattergood Generating Facility,Playa Del Rey,,CA,33.917593,-118.425334,21,0,Non-Networked
21609,LADWP - Scattergood Generating Facility,Playa Del Rey,,CA,33.917593,-118.425334,21,0,Non-Networked
21609,LADWP - Scattergood Generating Facility,Playa Del Rey,,CA,33.917593,-118.425334,21,0,Non-Networked
21609,LADWP - Scattergood Generating Facility,Playa Del Rey,,CA,33.917593,-118.425334,21,0,Non-Networked
21609,LADWP - Scattergood Generating Facility,Playa Del Rey,,CA,33.917593,-118.425334,21,0,Non-Networked
21609,LADWP - Scattergood Generating Facility,Playa Del Rey,,CA,33.917593,-118.425334,21,0,Non-Networked
21609,LADWP - Scattergood Generating Facility,Playa Del Rey,,CA,33.917593,-118.425334,21,0,Non-Networked
21609,LADWP - Scattergood Generating Facility,Playa Del Rey,,CA,33.917593,-118.425334,21,0,Non-Networked
21609,LADWP - Scattergood Generating Facility,Playa Del Rey,,CA,33.917593,-118.425334,21,0,Non-Networked
21609,LADWP - Scattergood Generating Facility,Playa Del Rey,,CA,33.917593,-118.425334,21,0,Non-Networked
21609,LADWP - Scattergood Generating Facility,Playa Del Rey,,CA,33.917593,-118.425334,21,0,Non-Networked
21609,LADWP - Scattergood Generating Facility,Playa Del Rey,,CA,33.917593,-118.425334,21,0,Non-Networked
21609,LADWP - Scattergood Generating Facility,Playa Del Rey,,CA,33.917593,-118.425334,21,0,Non-Networked
21609,LADWP - Scattergood Generating Facility,Playa Del Rey,,CA,33.917593,-118.425334,21,0,Non-Networked
21609,LADWP - Scattergood Generating Facility,Playa Del Rey,,CA,33.917593,-118.425334,21,0,Non-Networked
21609,LADWP - Scattergood Generating Facility,Playa Del Rey,,CA,33.917593,-118.425334,21,0,Non-Networked
21609,LADWP - Scattergood Generating Facility,Playa Del Rey,,CA,33.917593,-118.425334,21,0,Non-Networked
21609,LADWP - Scattergood Generating Facility,Playa Del Rey,,CA,33.917593,-118.425334,21,0,Non-Networked
21609,LADWP - Scattergood Generating Facility,Playa Del Rey,,CA,33.917593,-118.425334,21,0,Non-Networked
21609,LADWP - Scattergood Generating Facility,Playa Del Rey,,CA,33.917593,-118.425334,21,0,Non-Networked
21609,LADWP - Scattergood Generating Facility,Playa Del Rey,,CA,33.917593,-118.425334,21,0,Non-Networked
21609,LADWP - Scattergood Generating Facility,Playa Del Rey,,CA,33.917593,-118.425334,21,0,Non-Networked
21609,LADWP - Scattergood Generating Facility,Playa Del Rey,,CA,33.917593,-118.425334,21,0,Non-Networked
21609,LADWP - Scattergood Generating Facility,Playa Del Rey,,CA,33.917593,-118.425334,21,0,Non-Networked
21609,LADWP - Scattergood Generating Facility,Playa Del Rey,,CA,33.917593,-118.425334,21,0,Non-Networked
21609,LADWP - Scattergood Generating Facility,Playa Del Rey,,CA,33.917593,-118.425334,21,0,Non-Networked
21609,LADWP - Scattergood Generating Facility,Playa Del Rey,,CA,33.917593,-118.425334,21,0,Non-Networked
21609,LADWP - Scattergood Generating Facility,Playa Del Rey,,CA,33.917593,-118.425334,21,0,Non-Networked
21609,LADWP - Scattergood Generating Facility,Playa Del Rey,,CA,33.917593,-118.425334,21,0,Non-Networked
21609,LADWP - Scattergood Generating Facility,Playa Del Rey,,CA,33.917593,-118.425334,21,0,Non-Networked
21609,LADWP - Scattergood Generating Facility,Playa Del Rey,,CA,33.917593,-118.425334,21,0,Non-Networked
21609,LADWP - Scattergood Generating Facility,Playa Del Rey,,CA,33.917593,-118.425334,21,0,Non-Networked
21609,LADWP - Scattergood Generating Facility,Playa Del Rey,,CA,33.917593,-118.425334,21,0,Non-Networked
21609,LADWP - Scattergood Generating Facility,Playa Del Rey,,CA,33.917593,-118.425334,21,0,Non-Networked
21609,LADWP - Scattergood Generating Facility,Playa Del Rey,,CA,33.917593,-118.425334,21,0,Non-Networked
21609,LADWP - Scattergood Generating Facility,Playa Del Rey,,CA,33.917593,-118.425334,21,0,Non-Networked
21609,LADWP - Scattergood Generating Facility,Playa Del Rey,,CA,33.917593,-118.425334,21,0,Non-Networked
21609,LADWP - Scattergood Generating Facility,Playa Del Rey,,CA,33.917593,-118.425334,21,0,Non-Networked
21609,LADWP - Scattergood Generating Facility,Playa Del Rey,,CA,33.917593,-118.425334,21,0,Non-Networked
21609,LADWP - Scattergood Generating Facility,Playa Del Rey,,CA,33.917593,-118.425334,21,0,Non-Networked
21609,LADWP - Scattergood Generating Facility,Playa Del Rey,,CA,33.917593,-118.425334,21,0,Non-Networked
21609,LADWP - Scattergood Generating Facility,Playa Del Rey,,CA,33.917593,-118.425334,21,0,Non-Networked
21609,LADWP - Scattergood Generating Facility,Playa Del Rey,,CA,33.917593,-118.425334,21,0,Non-Networked
21609,LADWP - Scattergood Generating Facility,Playa Del Rey,,CA,33.917593,-118.425334,21,0,Non-Networked
21609,LADWP - Scattergood Generating Facility,Playa Del Rey,,CA,33.917593,-118.425334,21,0,Non-Networked
21609,LADWP - Scattergood Generating Facility,Playa Del Rey,,CA,33.917593,-118.425334,21,0,Non-Networked
21609,LADWP - Scattergood Generating Facility,Playa Del Rey,,CA,33.917593,-118.425334,21,0,Non-Networked
21609,LADWP - Scattergood Generating Facility,Playa Del Rey,,CA,33.917593,-118.425334,21,0,Non-Networked
21609,LADWP - Scattergood Generating Facility,Playa Del Rey,,CA,33.917593,-118.425334,21,0,Non-Networked
21609,LADWP - Scattergood Generating Facility,Playa Del Rey,,CA,33.917593,-118.425334,21,0,Non-Networked
21609,LADWP - Scattergood Generating Facility,Playa Del Rey,,CA,33.917593,-118.425334,21,0,Non-Networked
21609,LADWP - Scattergood Generating Facility,Playa Del Rey,,CA,33.917593,-118.425334,21,0,Non-Networked
21609,LADWP - Scattergood Generating Facility,Playa Del Rey,,CA,33.917593,-118.425334,21,0,Non-Networked
21609,LADWP - Scattergood Generating Facility,Playa Del Rey,,CA,33.917593,-118.425334,21,0,Non-Networked
21609,LADWP - Scattergood Generating Facility,Playa Del Rey,,CA,33.917593,-118.425334,21,0,Non-Networked
21609,LADWP - Scattergood Generating Facility,Playa Del Rey,,CA,33.917593,-118.425334,21,0,Non-Networked
21609,LADWP - Scattergood Generating Facility,Playa Del Rey,,CA,33.917593,-118.425334,21,0,Non-Networked
21609,LADWP - Scattergood Generating Facility,Playa Del Rey,,CA,33.917593,-118.425334,21,0,Non-Networked
21609,LADWP - Scattergood Generating Facility,Playa Del Rey,,CA,33.917593,-118.425334,21,0,Non-Networked
21609,LADWP - Scattergood Generating Facility,Playa Del Rey,,CA,33.917593,-118.425334,21,0,Non-Networked
21609,LADWP - Scattergood Generating Facility,Playa Del Rey,,CA,33.917593,-118.425334,21,0,Non-Networked
21609,LADWP - Scattergood Generating Facility,Playa Del Rey,,CA,33.917593,-118.425334,21,0,Non-Networked
21609,LADWP - Scattergood Generating Facility,Playa Del Rey,,CA,33.917593,-118.425334,21,0,Non-Networked
21609,LADWP - Scattergood Generating Facility,Playa Del Rey,,CA,33.917593,-118.425334,21,0,Non-Networked
21609,LADWP - Scattergood Generating Facility,Playa Del Rey,,CA,33.917593,-118.425334,21,0,Non-Networked
21609,LADWP - Scattergood Generating Facility,Playa Del Rey,,CA,33.917593,-118.425334,21,0,Non-Networked
21609,LADWP - Scattergood Generating Facility,Playa Del Rey,,CA,33.917593,-118.425334,21,0,Non-Networked
21609,LADWP - Scattergood Generating Facility,Playa Del Rey,,CA,33.917593,-118.425334,21,0,Non-Networked
21609,LADWP - Scattergood Generating Facility,Playa Del Rey,,CA,33.917593,-118.425334,21,0,Non-Networked
21609,LADWP - Scattergood Generating Facility,Playa Del Rey,,CA,33.917593,-118.425334,21,0,Non-Networked
21609,LADWP - Scattergood Generating Facility,Playa Del Rey,,CA,33.917593,-118.425334,21,0,Non-Networked
21609,LADWP - Scattergood Generating Facility,Playa Del Rey,,CA,33.917593,-118.425334,21,0,Non-Networked
21609,LADWP - Scattergood Generating Facility,Playa Del Rey,,CA,33.917593,-118.425334,21,0,Non-Networked
7184,Los Angeles International Airport (LAX) - Lot 6,Los Angeles,,CA,33.94325,-118.403342,20,0,Non-Networked
28007,Los Angeles International Airport (LAX) - Lot 1,Los Angeles,,CA,33.944761,-118.399767,20,0,Non-Networked
28007,Los Angeles International Airport (LAX) - Lot 1,Los Angeles,,CA,33.944761,-118.399767,20,0,Non-Networked
28007,Los Angeles International Airport (LAX) - Lot 1,Los Angeles,,CA,33.944761,-118.399767,20,0,Non-Networked
7184,Los Angeles International Airport (LAX) - Lot 6,Los Angeles,,CA,33.94325,-118.403342,20,0,Non-Networked
7184,Los Angeles International Airport (LAX) - Lot 6,Los Angeles,,CA,33.94325,-118.403342,20,0,Non-Networked
28007,Los Angeles International Airport (LAX) - Lot 1,Los Angeles,,CA,33.944761,-118.399767,20,0,Non-Networked
28007,Los Angeles International Airport (LAX) - Lot 1,Los Angeles,,CA,33.944761,-118.399767,20,0,Non-Networked
7184,Los Angeles International Airport (LAX) - Lot 6,Los Angeles,,CA,33.94325,-118.403342,20,0,Non-Networked
28007,Los Angeles International Airport (LAX) - Lot 1,Los Angeles,,CA,33.944761,-118.399767,20,0,Non-Networked
28007,Los Angeles International Airport (LAX) - Lot 1,Los Angeles,,CA,33.944761,-118.399767,20,0,Non-Networked
7184,Los Angeles International Airport (LAX) - Lot 6,Los Angeles,,CA,33.94325,-118.403342,20,0,Non-Networked
28007,Los Angeles International Airport (LAX) - Lot 1,Los Angeles,,CA,33.944761,-118.399767,20,0,Non-Networked
7184,Los Angeles International Airport (LAX) - Lot 6,Los Angeles,,CA,33.94325,-118.403342,20,0,Non-Networked
7184,Los Angeles International Airport (LAX) - Lot 6,Los Angeles,,CA,33.94325,-118.403342,20,0,Non-Networked
28007,Los Angeles International Airport (LAX) - Lot 1,Los Angeles,,CA,33.944761,-118.399767,20,0,Non-Networked
7184,Los Angeles International Airport (LAX) - Lot 6,Los Angeles,,CA,33.94325,-118.403342,20,0,Non-Networked
28007,Los Angeles International Airport (LAX) - Lot 1,Los Angeles,,CA,33.944761,-118.399767,20,0,Non-Networked
7184,Los Angeles International Airport (LAX) - Lot 6,Los Angeles,,CA,33.94325,-118.403342,20,0,Non-Networked
28007,Los Angeles International Airport (LAX) - Lot 1,Los Angeles,,CA,33.944761,-118.399767,20,0,Non-Networked
7184,Los Angeles International Airport (LAX) - Lot 6,Los Angeles,,CA,33.94325,-118.403342,20,0,Non-Networked
28007,Los Angeles International Airport (LAX) - Lot 1,Los Angeles,,CA,33.944761,-118.399767,20,0,Non-Networked
7184,Los Angeles International Airport (LAX) - Lot 6,Los Angeles,,CA,33.94325,-118.403342,20,0,Non-Networked
28007,Los Angeles International Airport (LAX) - Lot 1,Los Angeles,,CA,33.944761,-118.399767,20,0,Non-Networked
7184,Los Angeles International Airport (LAX) - Lot 6,Los Angeles,,CA,33.94325,-118.403342,20,0,Non-Networked
7184,Los Angeles International Airport (LAX) - Lot 6,Los Angeles,,CA,33.94325,-118.403342,20,0,Non-Networked
28007,Los Angeles International Airport (LAX) - Lot 1,Los Angeles,,CA,33.944761,-118.399767,20,0,Non-Networked
28007,Los Angeles International Airport (LAX) - Lot 1,Los Angeles,,CA,33.944761,-118.399767,20,0,Non-Networked
7184,Los Angeles International Airport (LAX) - Lot 6,Los Angeles,,CA,33.94325,-118.403342,20,0,Non-Networked
28007,Los Angeles International Airport (LAX) - Lot 1,Los Angeles,,CA,33.944761,-118.399767,20,0,Non-Networked
28007,Los Angeles International Airport (LAX) - Lot 1,Los Angeles,,CA,33.944761,-118.399767,20,0,Non-Networked
7184,Los Angeles International Airport (LAX) - Lot 6,Los Angeles,,CA,33.94325,-118.403342,20,0,Non-Networked
7184,Los Angeles International Airport (LAX) - Lot 6,Los Angeles,,CA,33.94325,-118.403342,20,0,Non-Networked
28007,Los Angeles International Airport (LAX) - Lot 1,Los Angeles,,CA,33.944761,-118.399767,20,0,Non-Networked
7184,Los Angeles International Airport (LAX) - Lot 6,Los Angeles,,CA,33.94325,-118.403342,20,0,Non-Networked
7184,Los Angeles International Airport (LAX) - Lot 6,Los Angeles,,CA,33.94325,-118.403342,20,0,Non-Networked
28007,Los Angeles International Airport (LAX) - Lot 1,Los Angeles,,CA,33.944761,-118.399767,20,0,Non-Networked
28007,Los Angeles International Airport (LAX) - Lot 1,Los Angeles,,CA,33.944761,-118.399767,20,0,Non-Networked
7184,Los Angeles International Airport (LAX) - Lot 6,Los Angeles,,CA,33.94325,-118.403342,20,0,Non-Networked
28007,Los Angeles International Airport (LAX) - Lot 1,Los Angeles,,CA,33.944761,-118.399767,20,0,Non-Networked
7184,Los Angeles International Airport (LAX) - Lot 6,Los Angeles,,CA,33.94325,-118.403342,20,0,Non-Networked
28007,Los Angeles International Airport (LAX) - Lot 1,Los Angeles,,CA,33.944761,-118.399767,20,0,Non-Networked
7184,Los Angeles International Airport (LAX) - Lot 6,Los Angeles,,CA,33.94325,-118.403342,20,0,Non-Networked
28007,Los Angeles International Airport (LAX) - Lot 1,Los Angeles,,CA,33.944761,-118.399767,20,0,Non-Networked
7184,Los Angeles International Airport (LAX) - Lot 6,Los Angeles,,CA,33.94325,-118.403342,20,0,Non-Networked
28007,Los Angeles International Airport (LAX) - Lot 1,Los Angeles,,CA,33.944761,-118.399767,20,0,Non-Networked
7184,Los Angeles International Airport (LAX) - Lot 6,Los Angeles,,CA,33.94325,-118.403342,20,0,Non-Networked
28007,Los Angeles International Airport (LAX) - Lot 1,Los Angeles,,CA,33.944761,-118.399767,20,0,Non-Networked
7184,Los Angeles International Airport (LAX) - Lot 6,Los Angeles,,CA,33.94325,-118.403342,20,0,Non-Networked
28007,Los Angeles International Airport (LAX) - Lot 1,Los Angeles,,CA,33.944761,-118.399767,20,0,Non-Networked
7184,Los Angeles International Airport (LAX) - Lot 6,Los Angeles,,CA,33.94325,-118.403342,20,0,Non-Networked
28007,Los Angeles International Airport (LAX) - Lot 1,Los Angeles,,CA,33.944761,-118.399767,20,0,Non-Networked
7184,Los Angeles International Airport (LAX) - Lot 6,Los Angeles,,CA,33.94325,-118.403342,20,0,Non-Networked
28007,Los Angeles International Airport (LAX) - Lot 1,Los Angeles,,CA,33.944761,-118.399767,20,0,Non-Networked
28007,Los Angeles International Airport (LAX) - Lot 1,Los Angeles,,CA,33.944761,-118.399767,20,0,Non-Networked
7184,Los Angeles International Airport (LAX) - Lot 6,Los Angeles,,CA,33.94325,-118.403342,20,0,Non-Networked
7184,Los Angeles International Airport (LAX) - Lot 6,Los Angeles,,CA,33.94325,-118.403342,20,0,Non-Networked
28007,Los Angeles International Airport (LAX) - Lot 1,Los Angeles,,CA,33.944761,-118.399767,20,0,Non-Networked
7184,Los Angeles International Airport (LAX) - Lot 6,Los Angeles,,CA,33.94325,-118.403342,20,0,Non-Networked
28007,Los Angeles International Airport (LAX) - Lot 1,Los Angeles,,CA,33.944761,-118.399767,20,0,Non-Networked
7184,Los Angeles International Airport (LAX) - Lot 6,Los Angeles,,CA,33.94325,-118.403342,20,0,Non-Networked
28007,Los Angeles International Airport (LAX) - Lot 1,Los Angeles,,CA,33.944761,-118.399767,20,0,Non-Networked
28007,Los Angeles International Airport (LAX) - Lot 1,Los Angeles,,CA,33.944761,-118.399767,20,0,Non-Networked
7184,Los Angeles International Airport (LAX) - Lot 6,Los Angeles,,CA,33.94325,-118.403342,20,0,Non-Networked
28007,Los Angeles International Airport (LAX) - Lot 1,Los Angeles,,CA,33.944761,-118.399767,20,0,Non-Networked
7184,Los Angeles International Airport (LAX) - Lot 6,Los Angeles,,CA,33.94325,-118.403342,20,0,Non-Networked
7184,Los Angeles International Airport (LAX) - Lot 6,Los Angeles,,CA,33.94325,-118.403342,20,0,Non-Networked
7184,Los Angeles International Airport (LAX) - Lot 6,Los Angeles,,CA,33.94325,-118.403342,20,0,Non-Networked
7184,Los Angeles International Airport (LAX) - Lot 6,Los Angeles,,CA,33.94325,-118.403342,20,0,Non-Networked
28007,Los Angeles International Airport (LAX) - Lot 1,Los Angeles,,CA,33.944761,-118.399767,20,0,Non-Networked
28007,Los Angeles International Airport (LAX) - Lot 1,Los Angeles,,CA,33.944761,-118.399767,20,0,Non-Networked
28007,Los Angeles International Airport (LAX) - Lot 1,Los Angeles,,CA,33.944761,-118.399767,20,0,Non-Networked
7184,Los Angeles International Airport (LAX) - Lot 6,Los Angeles,,CA,33.94325,-118.403342,20,0,Non-Networked
28007,Los Angeles International Airport (LAX) - Lot 1,Los Angeles,,CA,33.944761,-118.399767,20,0,Non-Networked
28007,Los Angeles International Airport (LAX) - Lot 1,Los Angeles,,CA,33.944761,-118.399767,20,0,Non-Networked
7184,Los Angeles International Airport (LAX) - Lot 6,Los Angeles,,CA,33.94325,-118.403342,20,0,Non-Networked
7184,Los Angeles International Airport (LAX) - Lot 6,Los Angeles,,CA,33.94325,-118.403342,20,0,Non-Networked
28007,Los Angeles International Airport (LAX) - Lot 1,Los Angeles,,CA,33.944761,-118.399767,20,0,Non-Networked
7184,Los Angeles International Airport (LAX) - Lot 6,Los Angeles,,CA,33.94325,-118.403342,20,0,Non-Networked
28007,Los Angeles International Airport (LAX) - Lot 1,Los Angeles,,CA,33.944761,-118.399767,20,0,Non-Networked
7184,Los Angeles International Airport (LAX) - Lot 6,Los Angeles,,CA,33.94325,-118.403342,20,0,Non-Networked
28007,Los Angeles International Airport (LAX) - Lot 1,Los Angeles,,CA,33.944761,-118.399767,20,0,Non-Networked
7184,Los Angeles International Airport (LAX) - Lot 6,Los Angeles,,CA,33.94325,-118.403342,20,0,Non-Networked
7184,Los Angeles International Airport (LAX) - Lot 6,Los Angeles,,CA,33.94325,-118.403342,20,0,Non-Networked
7184,Los Angeles International Airport (LAX) - Lot 6,Los Angeles,,CA,33.94325,-118.403342,20,0,Non-Networked
28007,Los Angeles International Airport (LAX) - Lot 1,Los Angeles,,CA,33.944761,-118.399767,20,0,Non-Networked
7184,Los Angeles International Airport (LAX) - Lot 6,Los Angeles,,CA,33.94325,-118.403342,20,0,Non-Networked
28007,Los Angeles International Airport (LAX) - Lot 1,Los Angeles,,CA,33.944761,-118.399767,20,0,Non-Networked
28007,Los Angeles International Airport (LAX) - Lot 1,Los Angeles,,CA,33.944761,-118.399767,20,0,Non-Networked
7184,Los Angeles International Airport (LAX) - Lot 6,Los Angeles,,CA,33.94325,-118.403342,20,0,Non-Networked
7184,Los Angeles International Airport (LAX) - Lot 6,Los Angeles,,CA,33.94325,-118.403342,20,0,Non-Networked
28007,Los Angeles International Airport (LAX) - Lot 1,Los Angeles,,CA,33.944761,-118.399767,20,0,Non-Networked
7184,Los Angeles International Airport (LAX) - Lot 6,Los Angeles,,CA,33.94325,-118.403342,20,0,Non-Networked
28007,Los Angeles International Airport (LAX) - Lot 1,Los Angeles,,CA,33.944761,-118.399767,20,0,Non-Networked
7184,Los Angeles International Airport (LAX) - Lot 6,Los Angeles,,CA,33.94325,-118.403342,20,0,Non-Networked
7184,Los Angeles International Airport (LAX) - Lot 6,Los Angeles,,CA,33.94325,-118.403342,20,0,Non-Networked
28007,Los Angeles International Airport (LAX) - Lot 1,Los Angeles,,CA,33.944761,-118.399767,20,0,Non-Networked
7184,Los Angeles International Airport (LAX) - Lot 6,Los Angeles,,CA,33.94325,-118.403342,20,0,Non-Networked
28007,Los Angeles International Airport (LAX) - Lot 1,Los Angeles,,CA,33.944761,-118.399767,20,0,Non-Networked
7184,Los Angeles International Airport (LAX) - Lot 6,Los Angeles,,CA,33.94325,-118.403342,20,0,Non-Networked
7184,Los Angeles International Airport (LAX) - Lot 6,Los Angeles,,CA,33.94325,-118.403342,20,0,Non-Networked
28007,Los Angeles International Airport (LAX) - Lot 1,Los Angeles,,CA,33.944761,-118.399767,20,0,Non-Networked
7184,Los Angeles International Airport (LAX) - Lot 6,Los Angeles,,CA,33.94325,-118.403342,20,0,Non-Networked
7184,Los Angeles International Airport (LAX) - Lot 6,Los Angeles,,CA,33.94325,-118.403342,20,0,Non-Networked
7184,Los Angeles International Airport (LAX) - Lot 6,Los Angeles,,CA,33.94325,-118.403342,20,0,Non-Networked
7184,Los Angeles International Airport (LAX) - Lot 6,Los Angeles,,CA,33.94325,-118.403342,20,0,Non-Networked
28007,Los Angeles International Airport (LAX) - Lot 1,Los Angeles,,CA,33.944761,-118.399767,20,0,Non-Networked
7184,Los Angeles International Airport (LAX) - Lot 6,Los Angeles,,CA,33.94325,-118.403342,20,0,Non-Networked
28007,Los Angeles International Airport (LAX) - Lot 1,Los Angeles,,CA,33.944761,-118.399767,20,0,Non-Networked
7184,Los Angeles International Airport (LAX) - Lot 6,Los Angeles,,CA,33.94325,-118.403342,20,0,Non-Networked
28007,Los Angeles International Airport (LAX) - Lot 1,Los Angeles,,CA,33.944761,-118.399767,20,0,Non-Networked
7184,Los Angeles International Airport (LAX) - Lot 6,Los Angeles,,CA,33.94325,-118.403342,20,0,Non-Networked
28007,Los Angeles International Airport (LAX) - Lot 1,Los Angeles,,CA,33.944761,-118.399767,20,0,Non-Networked
7184,Los Angeles International Airport (LAX) - Lot 6,Los Angeles,,CA,33.94325,-118.403342,20,0,Non-Networked
28007,Los Angeles International Airport (LAX) - Lot 1,Los Angeles,,CA,33.944761,-118.399767,20,0,Non-Networked
7184,Los Angeles International Airport (LAX) - Lot 6,Los Angeles,,CA,33.94325,-118.403342,20,0,Non-Networked
28007,Los Angeles International Airport (LAX) - Lot 1,Los Angeles,,CA,33.944761,-118.399767,20,0,Non-Networked
28007,Los Angeles International Airport (LAX) - Lot 1,Los Angeles,,CA,33.944761,-118.399767,20,0,Non-Networked
7184,Los Angeles International Airport (LAX) - Lot 6,Los Angeles,,CA,33.94325,-118.403342,20,0,Non-Networked
28007,Los Angeles International Airport (LAX) - Lot 1,Los Angeles,,CA,33.944761,-118.399767,20,0,Non-Networked
7184,Los Angeles International Airport (LAX) - Lot 6,Los Angeles,,CA,33.94325,-118.403342,20,0,Non-Networked
28007,Los Angeles International Airport (LAX) - Lot 1,Los Angeles,,CA,33.944761,-118.399767,20,0,Non-Networked
28007,Los Angeles International Airport (LAX) - Lot 1,Los Angeles,,CA,33.944761,-118.399767,20,0,Non-Networked
28007,Los Angeles International Airport (LAX) - Lot 1,Los Angeles,,CA,33.944761,-118.399767,20,0,Non-Networked
7184,Los Angeles International Airport (LAX) - Lot 6,Los Angeles,,CA,33.94325,-118.403342,20,0,Non-Networked
28007,Los Angeles International Airport (LAX) - Lot 1,Los Angeles,,CA,33.944761,-118.399767,20,0,Non-Networked
28007,Los Angeles International Airport (LAX) - Lot 1,Los Angeles,,CA,33.944761,-118.399767,20,0,Non-Networked
7184,Los Angeles International Airport (LAX) - Lot 6,Los Angeles,,CA,33.94325,-118.403342,20,0,Non-Networked
28007,Los Angeles International Airport (LAX) - Lot 1,Los Angeles,,CA,33.944761,-118.399767,20,0,Non-Networked
28007,Los Angeles International Airport (LAX) - Lot 1,Los Angeles,,CA,33.944761,-118.399767,20,0,Non-Networked
7184,Los Angeles International Airport (LAX) - Lot 6,Los Angeles,,CA,33.94325,-118.403342,20,0,Non-Networked
28007,Los Angeles International Airport (LAX) - Lot 1,Los Angeles,,CA,33.944761,-118.399767,20,0,Non-Networked
28007,Los Angeles International Airport (LAX) - Lot 1,Los Angeles,,CA,33.944761,-118.399767,20,0,Non-Networked
7184,Los Angeles International Airport (LAX) - Lot 6,Los Angeles,,CA,33.94325,-118.403342,20,0,Non-Networked
28007,Los Angeles International Airport (LAX) - Lot 1,Los Angeles,,CA,33.944761,-118.399767,20,0,Non-Networked
28007,Los Angeles International Airport (LAX) - Lot 1,Los Angeles,,CA,33.944761,-118.399767,20,0,Non-Networked
7184,Los Angeles International Airport (LAX) - Lot 6,Los Angeles,,CA,33.94325,-118.403342,20,0,Non-Networked
28007,Los Angeles International Airport (LAX) - Lot 1,Los Angeles,,CA,33.944761,-118.399767,20,0,Non-Networked
7184,Los Angeles International Airport (LAX) - Lot 6,Los Angeles,,CA,33.94325,-118.403342,20,0,Non-Networked
28007,Los Angeles International Airport (LAX) - Lot 1,Los Angeles,,CA,33.944761,-118.399767,20,0,Non-Networked
28007,Los Angeles International Airport (LAX) - Lot 1,Los Angeles,,CA,33.944761,-118.399767,20,0,Non-Networked
28007,Los Angeles International Airport (LAX) - Lot 1,Los Angeles,,CA,33.944761,-118.399767,20,0,Non-Networked
7184,Los Angeles International Airport (LAX) - Lot 6,Los Angeles,,CA,33.94325,-118.403342,20,0,Non-Networked
28007,Los Angeles International Airport (LAX) - Lot 1,Los Angeles,,CA,33.944761,-118.399767,20,0,Non-Networked
28007,Los Angeles International Airport (LAX) - Lot 1,Los Angeles,,CA,33.944761,-118.399767,20,0,Non-Networked
7184,Los Angeles International Airport (LAX) - Lot 6,Los Angeles,,CA,33.94325,-118.403342,20,0,Non-Networked
28007,Los Angeles International Airport (LAX) - Lot 1,Los Angeles,,CA,33.944761,-118.399767,20,0,Non-Networked
7184,Los Angeles International Airport (LAX) - Lot 6,Los Angeles,,CA,33.94325,-118.403342,20,0,Non-Networked
28007,Los Angeles International Airport (LAX) - Lot 1,Los Angeles,,CA,33.944761,-118.399767,20,0,Non-Networked
7184,Los Angeles International Airport (LAX) - Lot 6,Los Angeles,,CA,33.94325,-118.403342,20,0,Non-Networked
28007,Los Angeles International Airport (LAX) - Lot 1,Los Angeles,,CA,33.944761,-118.399767,20,0,Non-Networked
7184,Los Angeles International Airport (LAX) - Lot 6,Los Angeles,,CA,33.94325,-118.403342,20,0,Non-Networked
28007,Los Angeles International Airport (LAX) - Lot 1,Los Angeles,,CA,33.944761,-118.399767,20,0,Non-Networked
7184,Los Angeles International Airport (LAX) - Lot 6,Los Angeles,,CA,33.94325,-118.403342,20,0,Non-Networked
7184,Los Angeles International Airport (LAX) - Lot 6,Los Angeles,,CA,33.94325,-118.403342,20,0,Non-Networked
7184,Los Angeles International Airport (LAX) - Lot 6,Los Angeles,,CA,33.94325,-118.403342,20,0,Non-Networked
7184,Los Angeles International Airport (LAX) - Lot 6,Los Angeles,,CA,33.94325,-118.403342,20,0,Non-Networked
28007,Los Angeles International Airport (LAX) - Lot 1,Los Angeles,,CA,33.944761,-118.399767,20,0,Non-Networked
7184,Los Angeles International Airport (LAX) - Lot 6,Los Angeles,,CA,33.94325,-118.403342,20,0,Non-Networked
28007,Los Angeles International Airport (LAX) - Lot 1,Los Angeles,,CA,33.944761,-118.399767,20,0,Non-Networked
7184,Los Angeles International Airport (LAX) - Lot 6,Los Angeles,,CA,33.94325,-118.403342,20,0,Non-Networked
28007,Los Angeles International Airport (LAX) - Lot 1,Los Angeles,,CA,33.944761,-118.399767,20,0,Non-Networked
7184,Los Angeles International Airport (LAX) - Lot 6,Los Angeles,,CA,33.94325,-118.403342,20,0,Non-Networked
28007,Los Angeles International Airport (LAX) - Lot 1,Los Angeles,,CA,33.944761,-118.399767,20,0,Non-Networked
7184,Los Angeles International Airport (LAX) - Lot 6,Los Angeles,,CA,33.94325,-118.403342,20,0,Non-Networked
7184,Los Angeles International Airport (LAX) - Lot 6,Los Angeles,,CA,33.94325,-118.403342,20,0,Non-Networked
28007,Los Angeles International Airport (LAX) - Lot 1,Los Angeles,,CA,33.944761,-118.399767,20,0,Non-Networked
7184,Los Angeles International Airport (LAX) - Lot 6,Los Angeles,,CA,33.94325,-118.403342,20,0,Non-Networked
28007,Los Angeles International Airport (LAX) - Lot 1,Los Angeles,,CA,33.944761,-118.399767,20,0,Non-Networked
7184,Los Angeles International Airport (LAX) - Lot 6,Los Angeles,,CA,33.94325,-118.403342,20,0,Non-Networked
28007,Los Angeles International Airport (LAX) - Lot 1,Los Angeles,,CA,33.944761,-118.399767,20,0,Non-Networked
7184,Los Angeles International Airport (LAX) - Lot 6,Los Angeles,,CA,33.94325,-118.403342,20,0,Non-Networked
28007,Los Angeles International Airport (LAX) - Lot 1,Los Angeles,,CA,33.944761,-118.399767,20,0,Non-Networked
7184,Los Angeles International Airport (LAX) - Lot 6,Los Angeles,,CA,33.94325,-118.403342,20,0,Non-Networked
28007,Los Angeles International Airport (LAX) - Lot 1,Los Angeles,,CA,33.944761,-118.399767,20,0,Non-Networked
7184,Los Angeles International Airport (LAX) - Lot 6,Los Angeles,,CA,33.94325,-118.403342,20,0,Non-Networked
28007,Los Angeles International Airport (LAX) - Lot 1,Los Angeles,,CA,33.944761,-118.399767,20,0,Non-Networked
28007,Los Angeles International Airport (LAX) - Lot 1,Los Angeles,,CA,33.944761,-118.399767,20,0,Non-Networked
28007,Los Angeles International Airport (LAX) - Lot 1,Los Angeles,,CA,33.944761,-118.399767,20,0,Non-Networked
7184,Los Angeles International Airport (LAX) - Lot 6,Los Angeles,,CA,33.94325,-118.403342,20,0,Non-Networked
7184,Los Angeles International Airport (LAX) - Lot 6,Los Angeles,,CA,33.94325,-118.403342,20,0,Non-Networked
7184,Los Angeles International Airport (LAX) - Lot 6,Los Angeles,,CA,33.94325,-118.403342,20,0,Non-Networked
28007,Los Angeles International Airport (LAX) - Lot 1,Los Angeles,,CA,33.944761,-118.399767,20,0,Non-Networked
7184,Los Angeles International Airport (LAX) - Lot 6,Los Angeles,,CA,33.94325,-118.403342,20,0,Non-Networked
28007,Los Angeles International Airport (LAX) - Lot 1,Los Angeles,,CA,33.944761,-118.399767,20,0,Non-Networked
28007,Los Angeles International Airport (LAX) - Lot 1,Los Angeles,,CA,33.944761,-118.399767,20,0,Non-Networked
7184,Los Angeles International Airport (LAX) - Lot 6,Los Angeles,,CA,33.94325,-118.403342,20,0,Non-Networked
7184,Los Angeles International Airport (LAX) - Lot 6,Los Angeles,,CA,33.94325,-118.403342,20,0,Non-Networked
7184,Los Angeles International Airport (LAX) - Lot 6,Los Angeles,,CA,33.94325,-118.403342,20,0,Non-Networked
28007,Los Angeles International Airport (LAX) - Lot 1,Los Angeles,,CA,33.944761,-118.399767,20,0,Non-Networked
7184,Los Angeles International Airport (LAX) - Lot 6,Los Angeles,,CA,33.94325,-118.403342,20,0,Non-Networked
28007,Los Angeles International Airport (LAX) - Lot 1,Los Angeles,,CA,33.944761,-118.399767,20,0,Non-Networked
28007,Los Angeles International Airport (LAX) - Lot 1,Los Angeles,,CA,33.944761,-118.399767,20,0,Non-Networked
7184,Los Angeles International Airport (LAX) - Lot 6,Los Angeles,,CA,33.94325,-118.403342,20,0,Non-Networked
28007,Los Angeles International Airport (LAX) - Lot 1,Los Angeles,,CA,33.944761,-118.399767,20,0,Non-Networked
7184,Los Angeles International Airport (LAX) - Lot 6,Los Angeles,,CA,33.94325,-118.403342,20,0,Non-Networked
28007,Los Angeles International Airport (LAX) - Lot 1,Los Angeles,,CA,33.944761,-118.399767,20,0,Non-Networked
7184,Los Angeles International Airport (LAX) - Lot 6,Los Angeles,,CA,33.94325,-118.403342,20,0,Non-Networked
33178,LADWP - Central District,Los Angeles,,CA,34.033898,-118.256673,19,0,Non-Networked
33178,LADWP - Central District,Los Angeles,,CA,34.033898,-118.256673,19,0,Non-Networked
33178,LADWP - Central District,Los Angeles,,CA,34.033898,-118.256673,19,0,Non-Networked
33178,LADWP - Central District,Los Angeles,,CA,34.033898,-118.256673,19,0,Non-Networked
33178,LADWP - Central District,Los Angeles,,CA,34.033898,-118.256673,19,0,Non-Networked
33178,LADWP - Central District,Los Angeles,,CA,34.033898,-118.256673,19,0,Non-Networked
33178,LADWP - Central District,Los Angeles,,CA,34.033898,-118.256673,19,0,Non-Networked
33178,LADWP - Central District,Los Angeles,,CA,34.033898,-118.256673,19,0,Non-Networked
33178,LADWP - Central District,Los Angeles,,CA,34.033898,-118.256673,19,0,Non-Networked
33178,LADWP - Central District,Los Angeles,,CA,34.033898,-118.256673,19,0,Non-Networked
33178,LADWP - Central District,Los Angeles,,CA,34.033898,-118.256673,19,0,Non-Networked
33178,LADWP - Central District,Los Angeles,,CA,34.033898,-118.256673,19,0,Non-Networked
33178,LADWP - Central District,Los Angeles,,CA,34.033898,-118.256673,19,0,Non-Networked
33178,LADWP - Central District,Los Angeles,,CA,34.033898,-118.256673,19,0,Non-Networked
33178,LADWP - Central District,Los Angeles,,CA,34.033898,-118.256673,19,0,Non-Networked
33178,LADWP - Central District,Los Angeles,,CA,34.033898,-118.256673,19,0,Non-Networked
33178,LADWP - Central District,Los Angeles,,CA,34.033898,-118.256673,19,0,Non-Networked
33178,LADWP - Central District,Los Angeles,,CA,34.033898,-118.256673,19,0,Non-Networked
33178,LADWP - Central District,Los Angeles,,CA,34.033898,-118.256673,19,0,Non-Networked
33178,LADWP - Central District,Los Angeles,,CA,34.033898,-118.256673,19,0,Non-Networked
33178,LADWP - Central District,Los Angeles,,CA,34.033898,-118.256673,19,0,Non-Networked
33178,LADWP - Central District,Los Angeles,,CA,34.033898,-118.256673,19,0,Non-Networked
33178,LADWP - Central District,Los Angeles,,CA,34.033898,-118.256673,19,0,Non-Networked
33178,LADWP - Central District,Los Angeles,,CA,34.033898,-118.256673,19,0,Non-Networked
33178,LADWP - Central District,Los Angeles,,CA,34.033898,-118.256673,19,0,Non-Networked
33178,LADWP - Central District,Los Angeles,,CA,34.033898,-118.256673,19,0,Non-Networked
33178,LADWP - Central District,Los Angeles,,CA,34.033898,-118.256673,19,0,Non-Networked
33178,LADWP - Central District,Los Angeles,,CA,34.033898,-118.256673,19,0,Non-Networked
33178,LADWP - Central District,Los Angeles,,CA,34.033898,-118.256673,19,0,Non-Networked
33178,LADWP - Central District,Los Angeles,,CA,34.033898,-118.256673,19,0,Non-Networked
33178,LADWP - Central District,Los Angeles,,CA,34.033898,-118.256673,19,0,Non-Networked
33178,LADWP - Central District,Los Angeles,,CA,34.033898,-118.256673,19,0,Non-Networked
33178,LADWP - Central District,Los Angeles,,CA,34.033898,-118.256673,19,0,Non-Networked
33178,LADWP - Central District,Los Angeles,,CA,34.033898,-118.256673,19,0,Non-Networked
33178,LADWP - Central District,Los Angeles,,CA,34.033898,-118.256673,19,0,Non-Networked
33178,LADWP - Central District,Los Angeles,,CA,34.033898,-118.256673,19,0,Non-Networked
33178,LADWP - Central District,Los Angeles,,CA,34.033898,-118.256673,19,0,Non-Networked
33178,LADWP - Central District,Los Angeles,,CA,34.033898,-118.256673,19,0,Non-Networked
33178,LADWP - Central District,Los Angeles,,CA,34.033898,-118.256673,19,0,Non-Networked
33178,LADWP - Central District,Los Angeles,,CA,34.033898,-118.256673,19,0,Non-Networked
33178,LADWP - Central District,Los Angeles,,CA,34.033898,-118.256673,19,0,Non-Networked
33178,LADWP - Central District,Los Angeles,,CA,34.033898,-118.256673,19,0,Non-Networked
33178,LADWP - Central District,Los Angeles,,CA,34.033898,-118.256673,19,0,Non-Networked
33178,LADWP - Central District,Los Angeles,,CA,34.033898,-118.256673,19,0,Non-Networked
33178,LADWP - Central District,Los Angeles,,CA,34.033898,-118.256673,19,0,Non-Networked
33178,LADWP - Central District,Los Angeles,,CA,34.033898,-118.256673,19,0,Non-Networked
33178,LADWP - Central District,Los Angeles,,CA,34.033898,-118.256673,19,0,Non-Networked
33178,LADWP - Central District,Los Angeles,,CA,34.033898,-118.256673,19,0,Non-Networked
33178,LADWP - Central District,Los Angeles,,CA,34.033898,-118.256673,19,0,Non-Networked
33178,LADWP - Central District,Los Angeles,,CA,34.033898,-118.256673,19,0,Non-Networked
33178,LADWP - Central District,Los Angeles,,CA,34.033898,-118.256673,19,0,Non-Networked
33178,LADWP - Central District,Los Angeles,,CA,34.033898,-118.256673,19,0,Non-Networked
33178,LADWP - Central District,Los Angeles,,CA,34.033898,-118.256673,19,0,Non-Networked
33178,LADWP - Central District,Los Angeles,,CA,34.033898,-118.256673,19,0,Non-Networked
33178,LADWP - Central District,Los Angeles,,CA,34.033898,-118.256673,19,0,Non-Networked
33178,LADWP - Central District,Los Angeles,,CA,34.033898,-118.256673,19,0,Non-Networked
33178,LADWP - Central District,Los Angeles,,CA,34.033898,-118.256673,19,0,Non-Networked
33178,LADWP - Central District,Los Angeles,,CA,34.033898,-118.256673,19,0,Non-Networked
33178,LADWP - Central District,Los Angeles,,CA,34.033898,-118.256673,19,0,Non-Networked
33178,LADWP - Central District,Los Angeles,,CA,34.033898,-118.256673,19,0,Non-Networked
33178,LADWP - Central District,Los Angeles,,CA,34.033898,-118.256673,19,0,Non-Networked
33178,LADWP - Central District,Los Angeles,,CA,34.033898,-118.256673,19,0,Non-Networked
33178,LADWP - Central District,Los Angeles,,CA,34.033898,-118.256673,19,0,Non-Networked
33178,LADWP - Central District,Los Angeles,,CA,34.033898,-118.256673,19,0,Non-Networked
33178,LADWP - Central District,Los Angeles,,CA,34.033898,-118.256673,19,0,Non-Networked
33178,LADWP - Central District,Los Angeles,,CA,34.033898,-118.256673,19,0,Non-Networked
33178,LADWP - Central District,Los Angeles,,CA,34.033898,-118.256673,19,0,Non-Networked
33178,LADWP - Central District,Los Angeles,,CA,34.033898,-118.256673,19,0,Non-Networked
33178,LADWP - Central District,Los Angeles,,CA,34.033898,-118.256673,19,0,Non-Networked
33178,LADWP - Central District,Los Angeles,,CA,34.033898,-118.256673,19,0,Non-Networked
33178,LADWP - Central District,Los Angeles,,CA,34.033898,-118.256673,19,0,Non-Networked
33178,LADWP - Central District,Los Angeles,,CA,34.033898,-118.256673,19,0,Non-Networked
33178,LADWP - Central District,Los Angeles,,CA,34.033898,-118.256673,19,0,Non-Networked
33178,LADWP - Central District,Los Angeles,,CA,34.033898,-118.256673,19,0,Non-Networked
33178,LADWP - Central District,Los Angeles,,CA,34.033898,-118.256673,19,0,Non-Networked
33178,LADWP - Central District,Los Angeles,,CA,34.033898,-118.256673,19,0,Non-Networked
33178,LADWP - Central District,Los Angeles,,CA,34.033898,-118.256673,19,0,Non-Networked
33178,LADWP - Central District,Los Angeles,,CA,34.033898,-118.256673,19,0,Non-Networked
33178,LADWP - Central District,Los Angeles,,CA,34.033898,-118.256673,19,0,Non-Networked
33178,LADWP - Central District,Los Angeles,,CA,34.033898,-118.256673,19,0,Non-Networked
33178,LADWP - Central District,Los Angeles,,CA,34.033898,-118.256673,19,0,Non-Networked
33178,LADWP - Central District,Los Angeles,,CA,34.033898,-118.256673,19,0,Non-Networked
33178,LADWP - Central District,Los Angeles,,CA,34.033898,-118.256673,19,0,Non-Networked
33178,LADWP - Central District,Los Angeles,,CA,34.033898,-118.256673,19,0,Non-Networked
33178,LADWP - Central District,Los Angeles,,CA,34.033898,-118.256673,19,0,Non-Networked
33178,LADWP - Central District,Los Angeles,,CA,34.033898,-118.256673,19,0,Non-Networked
33178,LADWP - Central District,Los Angeles,,CA,34.033898,-118.256673,19,0,Non-Networked
33178,LADWP - Central District,Los Angeles,,CA,34.033898,-118.256673,19,0,Non-Networked
33178,LADWP - Central District,Los Angeles,,CA,34.033898,-118.256673,19,0,Non-Networked
33178,LADWP - Central District,Los Angeles,,CA,34.033898,-118.256673,19,0,Non-Networked
33178,LADWP - Central District,Los Angeles,,CA,34.033898,-118.256673,19,0,Non-Networked
33178,LADWP - Central District,Los Angeles,,CA,34.033898,-118.256673,19,0,Non-Networked
33178,LADWP - Central District,Los Angeles,,CA,34.033898,-118.256673,19,0,Non-Networked
33178,LADWP - Central District,Los Angeles,,CA,34.033898,-118.256673,19,0,Non-Networked
33178,LADWP - Central District,Los Angeles,,CA,34.033898,-118.256673,19,0,Non-Networked
33178,LADWP - Central District,Los Angeles,,CA,34.033898,-118.256673,19,0,Non-Networked
33178,LADWP - Central District,Los Angeles,,CA,34.033898,-118.256673,19,0,Non-Networked
33178,LADWP - Central District,Los Angeles,,CA,34.033898,-118.256673,19,0,Non-Networked
33178,LADWP - Central District,Los Angeles,,CA,34.033898,-118.256673,19,0,Non-Networked
33183,LADWP - Valley Generating Station,Sun Valley,,CA,34.241928,-118.390147,17,0,Non-Networked
33177,LADWP - Boylston,Los Angeles,,CA,34.059047,-118.256812,17,0,Non-Networked
33177,LADWP - Boylston,Los Angeles,,CA,34.059047,-118.256812,17,0,Non-Networked
33177,LADWP - Boylston,Los Angeles,,CA,34.059047,-118.256812,17,0,Non-Networked
33183,LADWP - Valley Generating Station,Sun Valley,,CA,34.241928,-118.390147,17,0,Non-Networked
33177,LADWP - Boylston,Los Angeles,,CA,34.059047,-118.256812,17,0,Non-Networked
33177,LADWP - Boylston,Los Angeles,,CA,34.059047,-118.256812,17,0,Non-Networked
33183,LADWP - Valley Generating Station,Sun Valley,,CA,34.241928,-118.390147,17,0,Non-Networked
33177,LADWP - Boylston,Los Angeles,,CA,34.059047,-118.256812,17,0,Non-Networked
33183,LADWP - Valley Generating Station,Sun Valley,,CA,34.241928,-118.390147,17,0,Non-Networked
33177,LADWP - Boylston,Los Angeles,,CA,34.059047,-118.256812,17,0,Non-Networked
33183,LADWP - Valley Generating Station,Sun Valley,,CA,34.241928,-118.390147,17,0,Non-Networked
33177,LADWP - Boylston,Los Angeles,,CA,34.059047,-118.256812,17,0,Non-Networked
33183,LADWP - Valley Generating Station,Sun Valley,,CA,34.241928,-118.390147,17,0,Non-Networked
33177,LADWP - Boylston,Los Angeles,,CA,34.059047,-118.256812,17,0,Non-Networked
33183,LADWP - Valley Generating Station,Sun Valley,,CA,34.241928,-118.390147,17,0,Non-Networked
33183,LADWP - Valley Generating Station,Sun Valley,,CA,34.241928,-118.390147,17,0,Non-Networked
33177,LADWP - Boylston,Los Angeles,,CA,34.059047,-118.256812,17,0,Non-Networked
33183,LADWP - Valley Generating Station,Sun Valley,,CA,34.241928,-118.390147,17,0,Non-Networked
33177,LADWP - Boylston,Los Angeles,,CA,34.059047,-118.256812,17,0,Non-Networked
33183,LADWP - Valley Generating Station,Sun Valley,,CA,34.241928,-118.390147,17,0,Non-Networked
33183,LADWP - Valley Generating Station,Sun Valley,,CA,34.241928,-118.390147,17,0,Non-Networked
33183,LADWP - Valley Generating Station,Sun Valley,,CA,34.241928,-118.390147,17,0,Non-Networked
33177,LADWP - Boylston,Los Angeles,,CA,34.059047,-118.256812,17,0,Non-Networked
33183,LADWP - Valley Generating Station,Sun Valley,,CA,34.241928,-118.390147,17,0,Non-Networked
33183,LADWP - Valley Generating Station,Sun Valley,,CA,34.241928,-118.390147,17,0,Non-Networked
33177,LADWP - Boylston,Los Angeles,,CA,34.059047,-118.256812,17,0,Non-Networked
33177,LADWP - Boylston,Los Angeles,,CA,34.059047,-118.256812,17,0,Non-Networked
33183,LADWP - Valley Generating Station,Sun Valley,,CA,34.241928,-118.390147,17,0,Non-Networked
33177,LADWP - Boylston,Los Angeles,,CA,34.059047,-118.256812,17,0,Non-Networked
33177,LADWP - Boylston,Los Angeles,,CA,34.059047,-118.256812,17,0,Non-Networked
33177,LADWP - Boylston,Los Angeles,,CA,34.059047,-118.256812,17,0,Non-Networked
33183,LADWP - Valley Generating Station,Sun Valley,,CA,34.241928,-118.390147,17,0,Non-Networked
33177,LADWP - Boylston,Los Angeles,,CA,34.059047,-118.256812,17,0,Non-Networked
33183,LADWP - Valley Generating Station,Sun Valley,,CA,34.241928,-118.390147,17,0,Non-Networked
33177,LADWP - Boylston,Los Angeles,,CA,34.059047,-118.256812,17,0,Non-Networked
33183,LADWP - Valley Generating Station,Sun Valley,,CA,34.241928,-118.390147,17,0,Non-Networked
33177,LADWP - Boylston,Los Angeles,,CA,34.059047,-118.256812,17,0,Non-Networked
33177,LADWP - Boylston,Los Angeles,,CA,34.059047,-118.256812,17,0,Non-Networked
33183,LADWP - Valley Generating Station,Sun Valley,,CA,34.241928,-118.390147,17,0,Non-Networked
33177,LADWP - Boylston,Los Angeles,,CA,34.059047,-118.256812,17,0,Non-Networked
33177,LADWP - Boylston,Los Angeles,,CA,34.059047,-118.256812,17,0,Non-Networked
33183,LADWP - Valley Generating Station,Sun Valley,,CA,34.241928,-118.390147,17,0,Non-Networked
33183,LADWP - Valley Generating Station,Sun Valley,,CA,34.241928,-118.390147,17,0,Non-Networked
33177,LADWP - Boylston,Los Angeles,,CA,34.059047,-118.256812,17,0,Non-Networked
33183,LADWP - Valley Generating Station,Sun Valley,,CA,34.241928,-118.390147,17,0,Non-Networked
33177,LADWP - Boylston,Los Angeles,,CA,34.059047,-118.256812,17,0,Non-Networked
33183,LADWP - Valley Generating Station,Sun Valley,,CA,34.241928,-118.390147,17,0,Non-Networked
33177,LADWP - Boylston,Los Angeles,,CA,34.059047,-118.256812,17,0,Non-Networked
33177,LADWP - Boylston,Los Angeles,,CA,34.059047,-118.256812,17,0,Non-Networked
33183,LADWP - Valley Generating Station,Sun Valley,,CA,34.241928,-118.390147,17,0,Non-Networked
33177,LADWP - Boylston,Los Angeles,,CA,34.059047,-118.256812,17,0,Non-Networked
33183,LADWP - Valley Generating Station,Sun Valley,,CA,34.241928,-118.390147,17,0,Non-Networked
33177,LADWP - Boylston,Los Angeles,,CA,34.059047,-118.256812,17,0,Non-Networked
33183,LADWP - Valley Generating Station,Sun Valley,,CA,34.241928,-118.390147,17,0,Non-Networked
33177,LADWP - Boylston,Los Angeles,,CA,34.059047,-118.256812,17,0,Non-Networked
33183,LADWP - Valley Generating Station,Sun Valley,,CA,34.241928,-118.390147,17,0,Non-Networked
33183,LADWP - Valley Generating Station,Sun Valley,,CA,34.241928,-118.390147,17,0,Non-Networked
33177,LADWP - Boylston,Los Angeles,,CA,34.059047,-118.256812,17,0,Non-Networked
33183,LADWP - Valley Generating Station,Sun Valley,,CA,34.241928,-118.390147,17,0,Non-Networked
33183,LADWP - Valley Generating Station,Sun Valley,,CA,34.241928,-118.390147,17,0,Non-Networked
33183,LADWP - Valley Generating Station,Sun Valley,,CA,34.241928,-118.390147,17,0,Non-Networked
33177,LADWP - Boylston,Los Angeles,,CA,34.059047,-118.256812,17,0,Non-Networked
33183,LADWP - Valley Generating Station,Sun Valley,,CA,34.241928,-118.390147,17,0,Non-Networked
33183,LADWP - Valley Generating Station,Sun Valley,,CA,34.241928,-118.390147,17,0,Non-Networked
33177,LADWP - Boylston,Los Angeles,,CA,34.059047,-118.256812,17,0,Non-Networked
33177,LADWP - Boylston,Los Angeles,,CA,34.059047,-118.256812,17,0,Non-Networked
33183,LADWP - Valley Generating Station,Sun Valley,,CA,34.241928,-118.390147,17,0,Non-Networked
33177,LADWP - Boylston,Los Angeles,,CA,34.059047,-118.256812,17,0,Non-Networked
33177,LADWP - Boylston,Los Angeles,,CA,34.059047,-118.256812,17,0,Non-Networked
33183,LADWP - Valley Generating Station,Sun Valley,,CA,34.241928,-118.390147,17,0,Non-Networked
33177,LADWP - Boylston,Los Angeles,,CA,34.059047,-118.256812,17,0,Non-Networked
33177,LADWP - Boylston,Los Angeles,,CA,34.059047,-118.256812,17,0,Non-Networked
33183,LADWP - Valley Generating Station,Sun Valley,,CA,34.241928,-118.390147,17,0,Non-Networked
33177,LADWP - Boylston,Los Angeles,,CA,34.059047,-118.256812,17,0,Non-Networked
33183,LADWP - Valley Generating Station,Sun Valley,,CA,34.241928,-118.390147,17,0,Non-Networked
33177,LADWP - Boylston,Los Angeles,,CA,34.059047,-118.256812,17,0,Non-Networked
33177,LADWP - Boylston,Los Angeles,,CA,34.059047,-118.256812,17,0,Non-Networked
33183,LADWP - Valley Generating Station,Sun Valley,,CA,34.241928,-118.390147,17,0,Non-Networked
33177,LADWP - Boylston,Los Angeles,,CA,34.059047,-118.256812,17,0,Non-Networked
33183,LADWP - Valley Generating Station,Sun Valley,,CA,34.241928,-118.390147,17,0,Non-Networked
33177,LADWP - Boylston,Los Angeles,,CA,34.059047,-118.256812,17,0,Non-Networked
33177,LADWP - Boylston,Los Angeles,,CA,34.059047,-118.256812,17,0,Non-Networked
33177,LADWP - Boylston,Los Angeles,,CA,34.059047,-118.256812,17,0,Non-Networked
33183,LADWP - Valley Generating Station,Sun Valley,,CA,34.241928,-118.390147,17,0,Non-Networked
33183,LADWP - Valley Generating Station,Sun Valley,,CA,34.241928,-118.390147,17,0,Non-Networked
33177,LADWP - Boylston,Los Angeles,,CA,34.059047,-118.256812,17,0,Non-Networked
33177,LADWP - Boylston,Los Angeles,,CA,34.059047,-118.256812,17,0,Non-Networked
33183,LADWP - Valley Generating Station,Sun Valley,,CA,34.241928,-118.390147,17,0,Non-Networked
33177,LADWP - Boylston,Los Angeles,,CA,34.059047,-118.256812,17,0,Non-Networked
33183,LADWP - Valley Generating Station,Sun Valley,,CA,34.241928,-118.390147,17,0,Non-Networked
33177,LADWP - Boylston,Los Angeles,,CA,34.059047,-118.256812,17,0,Non-Networked
33183,LADWP - Valley Generating Station,Sun Valley,,CA,34.241928,-118.390147,17,0,Non-Networked
33177,LADWP - Boylston,Los Angeles,,CA,34.059047,-118.256812,17,0,Non-Networked
33183,LADWP - Valley Generating Station,Sun Valley,,CA,34.241928,-118.390147,17,0,Non-Networked
33183,LADWP - Valley Generating Station,Sun Valley,,CA,34.241928,-118.390147,17,0,Non-Networked
33183,LADWP - Valley Generating Station,Sun Valley,,CA,34.241928,-118.390147,17,0,Non-Networked
33177,LADWP - Boylston,Los Angeles,,CA,34.059047,-118.256812,17,0,Non-Networked
33183,LADWP - Valley Generating Station,Sun Valley,,CA,34.241928,-118.390147,17,0,Non-Networked
33183,LADWP - Valley Generating Station,Sun Valley,,CA,34.241928,-118.390147,17,0,Non-Networked
33177,LADWP - Boylston,Los Angeles,,CA,34.059047,-118.256812,17,0,Non-Networked
33183,LADWP - Valley Generating Station,Sun Valley,,CA,34.241928,-118.390147,17,0,Non-Networked
33183,LADWP - Valley Generating Station,Sun Valley,,CA,34.241928,-118.390147,17,0,Non-Networked
33183,LADWP - Valley Generating Station,Sun Valley,,CA,34.241928,-118.390147,17,0,Non-Networked
33177,LADWP - Boylston,Los Angeles,,CA,34.059047,-118.256812,17,0,Non-Networked
33183,LADWP - Valley Generating Station,Sun Valley,,CA,34.241928,-118.390147,17,0,Non-Networked
33183,LADWP - Valley Generating Station,Sun Valley,,CA,34.241928,-118.390147,17,0,Non-Networked
33177,LADWP - Boylston,Los Angeles,,CA,34.059047,-118.256812,17,0,Non-Networked
33177,LADWP - Boylston,Los Angeles,,CA,34.059047,-118.256812,17,0,Non-Networked
33183,LADWP - Valley Generating Station,Sun Valley,,CA,34.241928,-118.390147,17,0,Non-Networked
33177,LADWP - Boylston,Los Angeles,,CA,34.059047,-118.256812,17,0,Non-Networked
33177,LADWP - Boylston,Los Angeles,,CA,34.059047,-118.256812,17,0,Non-Networked
33183,LADWP - Valley Generating Station,Sun Valley,,CA,34.241928,-118.390147,17,0,Non-Networked
33177,LADWP - Boylston,Los Angeles,,CA,34.059047,-118.256812,17,0,Non-Networked
33183,LADWP - Valley Generating Station,Sun Valley,,CA,34.241928,-118.390147,17,0,Non-Networked
33183,LADWP - Valley Generating Station,Sun Valley,,CA,34.241928,-118.390147,17,0,Non-Networked
33177,LADWP - Boylston,Los Angeles,,CA,34.059047,-118.256812,17,0,Non-Networked
33183,LADWP - Valley Generating Station,Sun Valley,,CA,34.241928,-118.390147,17,0,Non-Networked
33177,LADWP - Boylston,Los Angeles,,CA,34.059047,-118.256812,17,0,Non-Networked
33177,LADWP - Boylston,Los Angeles,,CA,34.059047,-118.256812,17,0,Non-Networked
33183,LADWP - Valley Generating Station,Sun Valley,,CA,34.241928,-118.390147,17,0,Non-Networked
33177,LADWP - Boylston,Los Angeles,,CA,34.059047,-118.256812,17,0,Non-Networked
33177,LADWP - Boylston,Los Angeles,,CA,34.059047,-118.256812,17,0,Non-Networked
33183,LADWP - Valley Generating Station,Sun Valley,,CA,34.241928,-118.390147,17,0,Non-Networked
33183,LADWP - Valley Generating Station,Sun Valley,,CA,34.241928,-118.390147,17,0,Non-Networked
33177,LADWP - Boylston,Los Angeles,,CA,34.059047,-118.256812,17,0,Non-Networked
33177,LADWP - Boylston,Los Angeles,,CA,34.059047,-118.256812,17,0,Non-Networked
33183,LADWP - Valley Generating Station,Sun Valley,,CA,34.241928,-118.390147,17,0,Non-Networked
33177,LADWP - Boylston,Los Angeles,,CA,34.059047,-118.256812,17,0,Non-Networked
33183,LADWP - Valley Generating Station,Sun Valley,,CA,34.241928,-118.390147,17,0,Non-Networked
33177,LADWP - Boylston,Los Angeles,,CA,34.059047,-118.256812,17,0,Non-Networked
33183,LADWP - Valley Generating Station,Sun Valley,,CA,34.241928,-118.390147,17,0,Non-Networked
33177,LADWP - Boylston,Los Angeles,,CA,34.059047,-118.256812,17,0,Non-Networked
33183,LADWP - Valley Generating Station,Sun Valley,,CA,34.241928,-118.390147,17,0,Non-Networked
33177,LADWP - Boylston,Los Angeles,,CA,34.059047,-118.256812,17,0,Non-Networked
33183,LADWP - Valley Generating Station,Sun Valley,,CA,34.241928,-118.390147,17,0,Non-Networked
33177,LADWP - Boylston,Los Angeles,,CA,34.059047,-118.256812,17,0,Non-Networked
33183,LADWP - Valley Generating Station,Sun Valley,,CA,34.241928,-118.390147,17,0,Non-Networked
33183,LADWP - Valley Generating Station,Sun Valley,,CA,34.241928,-118.390147,17,0,Non-Networked
33177,LADWP - Boylston,Los Angeles,,CA,34.059047,-118.256812,17,0,Non-Networked
33183,LADWP - Valley Generating Station,Sun Valley,,CA,34.241928,-118.390147,17,0,Non-Networked
33177,LADWP - Boylston,Los Angeles,,CA,34.059047,-118.256812,17,0,Non-Networked
33183,LADWP - Valley Generating Station,Sun Valley,,CA,34.241928,-118.390147,17,0,Non-Networked
33177,LADWP - Boylston,Los Angeles,,CA,34.059047,-118.256812,17,0,Non-Networked
33183,LADWP - Valley Generating Station,Sun Valley,,CA,34.241928,-118.390147,17,0,Non-Networked
33183,LADWP - Valley Generating Station,Sun Valley,,CA,34.241928,-118.390147,17,0,Non-Networked
33183,LADWP - Valley Generating Station,Sun Valley,,CA,34.241928,-118.390147,17,0,Non-Networked
33177,LADWP - Boylston,Los Angeles,,CA,34.059047,-118.256812,17,0,Non-Networked
33183,LADWP - Valley Generating Station,Sun Valley,,CA,34.241928,-118.390147,17,0,Non-Networked
33183,LADWP - Valley Generating Station,Sun Valley,,CA,34.241928,-118.390147,17,0,Non-Networked
33177,LADWP - Boylston,Los Angeles,,CA,34.059047,-118.256812,17,0,Non-Networked
33177,LADWP - Boylston,Los Angeles,,CA,34.059047,-118.256812,17,0,Non-Networked
33183,LADWP - Valley Generating Station,Sun Valley,,CA,34.241928,-118.390147,17,0,Non-Networked
33177,LADWP - Boylston,Los Angeles,,CA,34.059047,-118.256812,17,0,Non-Networked
33177,LADWP - Boylston,Los Angeles,,CA,34.059047,-118.256812,17,0,Non-Networked
33183,LADWP - Valley Generating Station,Sun Valley,,CA,34.241928,-118.390147,17,0,Non-Networked
33177,LADWP - Boylston,Los Angeles,,CA,34.059047,-118.256812,17,0,Non-Networked
33183,LADWP - Valley Generating Station,Sun Valley,,CA,34.241928,-118.390147,17,0,Non-Networked
33177,LADWP - Boylston,Los Angeles,,CA,34.059047,-118.256812,17,0,Non-Networked
33177,LADWP - Boylston,Los Angeles,,CA,34.059047,-118.256812,17,0,Non-Networked
33183,LADWP - Valley Generating Station,Sun Valley,,CA,34.241928,-118.390147,17,0,Non-Networked
33183,LADWP - Valley Generating Station,Sun Valley,,CA,34.241928,-118.390147,17,0,Non-Networked
33177,LADWP - Boylston,Los Angeles,,CA,34.059047,-118.256812,17,0,Non-Networked
33177,LADWP - Boylston,Los Angeles,,CA,34.059047,-118.256812,17,0,Non-Networked
33183,LADWP - Valley Generating Station,Sun Valley,,CA,34.241928,-118.390147,17,0,Non-Networked
33177,LADWP - Boylston,Los Angeles,,CA,34.059047,-118.256812,17,0,Non-Networked
33177,LADWP - Boylston,Los Angeles,,CA,34.059047,-118.256812,17,0,Non-Networked
33183,LADWP - Valley Generating Station,Sun Valley,,CA,34.241928,-118.390147,17,0,Non-Networked
33183,LADWP - Valley Generating Station,Sun Valley,,CA,34.241928,-118.390147,17,0,Non-Networked
33177,LADWP - Boylston,Los Angeles,,CA,34.059047,-118.256812,17,0,Non-Networked
33177,LADWP - Boylston,Los Angeles,,CA,34.059047,-118.256812,17,0,Non-Networked
33183,LADWP - Valley Generating Station,Sun Valley,,CA,34.241928,-118.390147,17,0,Non-Networked
33177,LADWP - Boylston,Los Angeles,,CA,34.059047,-118.256812,17,0,Non-Networked
33183,LADWP - Valley Generating Station,Sun Valley,,CA,34.241928,-118.390147,17,0,Non-Networked
33177,LADWP - Boylston,Los Angeles,,CA,34.059047,-118.256812,17,0,Non-Networked
33183,LADWP - Valley Generating Station,Sun Valley,,CA,34.241928,-118.390147,17,0,Non-Networked
33177,LADWP - Boylston,Los Angeles,,CA,34.059047,-118.256812,17,0,Non-Networked
33177,LADWP - Boylston,Los Angeles,,CA,34.059047,-118.256812,17,0,Non-Networked
33183,LADWP - Valley Generating Station,Sun Valley,,CA,34.241928,-118.390147,17,0,Non-Networked
33177,LADWP - Boylston,Los Angeles,,CA,34.059047,-118.256812,17,0,Non-Networked
33183,LADWP - Valley Generating Station,Sun Valley,,CA,34.241928,-118.390147,17,0,Non-Networked
33183,LADWP - Valley Generating Station,Sun Valley,,CA,34.241928,-118.390147,17,0,Non-Networked
33177,LADWP - Boylston,Los Angeles,,CA,34.059047,-118.256812,17,0,Non-Networked
33183,LADWP - Valley Generating Station,Sun Valley,,CA,34.241928,-118.390147,17,0,Non-Networked
33183,LADWP - Valley Generating Station,Sun Valley,,CA,34.241928,-118.390147,17,0,Non-Networked
33183,LADWP - Valley Generating Station,Sun Valley,,CA,34.241928,-118.390147,17,0,Non-Networked
33177,LADWP - Boylston,Los Angeles,,CA,34.059047,-118.256812,17,0,Non-Networked
33183,LADWP - Valley Generating Station,Sun Valley,,CA,34.241928,-118.390147,17,0,Non-Networked
33183,LADWP - Valley Generating Station,Sun Valley,,CA,34.241928,-118.390147,17,0,Non-Networked
33177,LADWP - Boylston,Los Angeles,,CA,34.059047,-118.256812,17,0,Non-Networked
33177,LADWP - Boylston,Los Angeles,,CA,34.059047,-118.256812,17,0,Non-Networked
33183,LADWP - Valley Generating Station,Sun Valley,,CA,34.241928,-118.390147,17,0,Non-Networked
33177,LADWP - Boylston,Los Angeles,,CA,34.059047,-118.256812,17,0,Non-Networked
33183,LADWP - Valley Generating Station,Sun Valley,,CA,34.241928,-118.390147,17,0,Non-Networked
33177,LADWP - Boylston,Los Angeles,,CA,34.059047,-118.256812,17,0,Non-Networked
33177,LADWP - Boylston,Los Angeles,,CA,34.059047,-118.256812,17,0,Non-Networked
33183,LADWP - Valley Generating Station,Sun Valley,,CA,34.241928,-118.390147,17,0,Non-Networked
33183,LADWP - Valley Generating Station,Sun Valley,,CA,34.241928,-118.390147,17,0,Non-Networked
21419,Getty Center,Los Angeles,,CA,34.077588,-118.474585,15,0,Non-Networked
46733,LA County Museum of Art,Los Angeles,,CA,34.063383,-118.35808,15,0,POWERFLEX
21419,Getty Center,Los Angeles,,CA,34.077588,-118.474585,15,0,Non-Networked
46733,LA County Museum of Art,Los Angeles,,CA,34.063383,-118.35808,15,0,POWERFLEX
21419,Getty Center,Los Angeles,,CA,34.077588,-118.474585,15,0,Non-Networked
21419,Getty Center,Los Angeles,,CA,34.077588,-118.474585,15,0,Non-Networked
46733,LA County Museum of Art,Los Angeles,,CA,34.063383,-118.35808,15,0,POWERFLEX
21419,Getty Center,Los Angeles,,CA,34.077588,-118.474585,15,0,Non-Networked
21419,Getty Center,Los Angeles,,CA,34.077588,-118.474585,15,0,Non-Networked
21419,Getty Center,Los Angeles,,CA,34.077588,-118.474585,15,0,Non-Networked
21419,Getty Center,Los Angeles,,CA,34.077588,-118.474585,15,0,Non-Networked
46733,LA County Museum of Art,Los Angeles,,CA,34.063383,-118.35808,15,0,POWERFLEX
21419,Getty Center,Los Angeles,,CA,34.077588,-118.474585,15,0,Non-Networked
21419,Getty Center,Los Angeles,,CA,34.077588,-118.474585,15,0,Non-Networked
46733,LA County Museum of Art,Los Angeles,,CA,34.063383,-118.35808,15,0,POWERFLEX
46733,LA County Museum of Art,Los Angeles,,CA,34.063383,-118.35808,15,0,POWERFLEX
46733,LA County Museum of Art,Los Angeles,,CA,34.063383,-118.35808,15,0,POWERFLEX
21419,Getty Center,Los Angeles,,CA,34.077588,-118.474585,15,0,Non-Networked
46733,LA County Museum of Art,Los Angeles,,CA,34.063383,-118.35808,15,0,POWERFLEX
46733,LA County Museum of Art,Los Angeles,,CA,34.063383,-118.35808,15,0,POWERFLEX
46733,LA County Museum of Art,Los Angeles,,CA,34.063383,-118.35808,15,0,POWERFLEX
46733,LA County Museum of Art,Los Angeles,,CA,34.063383,-118.35808,15,0,POWERFLEX
46733,LA County Museum of Art,Los Angeles,,CA,34.063383,-118.35808,15,0,POWERFLEX
46733,LA County Museum of Art,Los Angeles,,CA,34.063383,-118.35808,15,0,POWERFLEX
21419,Getty Center,Los Angeles,,CA,34.077588,-118.474585,15,0,Non-Networked
21419,Getty Center,Los Angeles,,CA,34.077588,-118.474585,15,0,Non-Networked
21419,Getty Center,Los Angeles,,CA,34.077588,-118.474585,15,0,Non-Networked
21419,Getty Center,Los Angeles,,CA,34.077588,-118.474585,15,0,Non-Networked
21419,Getty Center,Los Angeles,,CA,34.077588,-118.474585,15,0,Non-Networked
46733,LA County Museum of Art,Los Angeles,,CA,34.063383,-118.35808,15,0,POWERFLEX
46733,LA County Museum of Art,Los Angeles,,CA,34.063383,-118.35808,15,0,POWERFLEX
46733,LA County Museum of Art,Los Angeles,,CA,34.063383,-118.35808,15,0,POWERFLEX
21419,Getty Center,Los Angeles,,CA,34.077588,-118.474585,15,0,Non-Networked
21419,Getty Center,Los Angeles,,CA,34.077588,-118.474585,15,0,Non-Networked
21419,Getty Center,Los Angeles,,CA,34.077588,-118.474585,15,0,Non-Networked
46733,LA County Museum of Art,Los Angeles,,CA,34.063383,-118.35808,15,0,POWERFLEX
21419,Getty Center,Los Angeles,,CA,34.077588,-118.474585,15,0,Non-Networked
46733,LA County Museum of Art,Los Angeles,,CA,34.063383,-118.35808,15,0,POWERFLEX
46733,LA County Museum of Art,Los Angeles,,CA,34.063383,-118.35808,15,0,POWERFLEX
21419,Getty Center,Los Angeles,,CA,34.077588,-118.474585,15,0,Non-Networked
46733,LA County Museum of Art,Los Angeles,,CA,34.063383,-118.35808,15,0,POWERFLEX
21419,Getty Center,Los Angeles,,CA,34.077588,-118.474585,15,0,Non-Networked
46733,LA County Museum of Art,Los Angeles,,CA,34.063383,-118.35808,15,0,POWERFLEX
21419,Getty Center,Los Angeles,,CA,34.077588,-118.474585,15,0,Non-Networked
46733,LA County Museum of Art,Los Angeles,,CA,34.063383,-118.35808,15,0,POWERFLEX
21419,Getty Center,Los Angeles,,CA,34.077588,-118.474585,15,0,Non-Networked
46733,LA County Museum of Art,Los Angeles,,CA,34.063383,-118.35808,15,0,POWERFLEX
21419,Getty Center,Los Angeles,,CA,34.077588,-118.474585,15,0,Non-Networked
46733,LA County Museum of Art,Los Angeles,,CA,34.063383,-118.35808,15,0,POWERFLEX
46733,LA County Museum of Art,Los Angeles,,CA,34.063383,-118.35808,15,0,POWERFLEX
46733,LA County Museum of Art,Los Angeles,,CA,34.063383,-118.35808,15,0,POWERFLEX
21419,Getty Center,Los Angeles,,CA,34.077588,-118.474585,15,0,Non-Networked
46733,LA County Museum of Art,Los Angeles,,CA,34.063383,-118.35808,15,0,POWERFLEX
21419,Getty Center,Los Angeles,,CA,34.077588,-118.474585,15,0,Non-Networked
46733,LA County Museum of Art,Los Angeles,,CA,34.063383,-118.35808,15,0,POWERFLEX
46733,LA County Museum of Art,Los Angeles,,CA,34.063383,-118.35808,15,0,POWERFLEX
46733,LA County Museum of Art,Los Angeles,,CA,34.063383,-118.35808,15,0,POWERFLEX
21419,Getty Center,Los Angeles,,CA,34.077588,-118.474585,15,0,Non-Networked
46733,LA County Museum of Art,Los Angeles,,CA,34.063383,-118.35808,15,0,POWERFLEX
46733,LA County Museum of Art,Los Angeles,,CA,34.063383,-118.35808,15,0,POWERFLEX
21419,Getty Center,Los Angeles,,CA,34.077588,-118.474585,15,0,Non-Networked
46733,LA County Museum of Art,Los Angeles,,CA,34.063383,-118.35808,15,0,POWERFLEX
46733,LA County Museum of Art,Los Angeles,,CA,34.063383,-118.35808,15,0,POWERFLEX
21419,Getty Center,Los Angeles,,CA,34.077588,-118.474585,15,0,Non-Networked
21419,Getty Center,Los Angeles,,CA,34.077588,-118.474585,15,0,Non-Networked
21419,Getty Center,Los Angeles,,CA,34.077588,-118.474585,15,0,Non-Networked
21419,Getty Center,Los Angeles,,CA,34.077588,-118.474585,15,0,Non-Networked
46733,LA County Museum of Art,Los Angeles,,CA,34.063383,-118.35808,15,0,POWERFLEX
46733,LA County Museum of Art,Los Angeles,,CA,34.063383,-118.35808,15,0,POWERFLEX
46733,LA County Museum of Art,Los Angeles,,CA,34.063383,-118.35808,15,0,POWERFLEX
21419,Getty Center,Los Angeles,,CA,34.077588,-118.474585,15,0,Non-Networked
46733,LA County Museum of Art,Los Angeles,,CA,34.063383,-118.35808,15,0,POWERFLEX
21419,Getty Center,Los Angeles,,CA,34.077588,-118.474585,15,0,Non-Networked
21419,Getty Center,Los Angeles,,CA,34.077588,-118.474585,15,0,Non-Networked
21419,Getty Center,Los Angeles,,CA,34.077588,-118.474585,15,0,Non-Networked
21419,Getty Center,Los Angeles,,CA,34.077588,-118.474585,15,0,Non-Networked
21419,Getty Center,Los Angeles,,CA,34.077588,-118.474585,15,0,Non-Networked
21419,Getty Center,Los Angeles,,CA,34.077588,-118.474585,15,0,Non-Networked
46733,LA County Museum of Art,Los Angeles,,CA,34.063383,-118.35808,15,0,POWERFLEX
46733,LA County Museum of Art,Los Angeles,,CA,34.063383,-118.35808,15,0,POWERFLEX
21419,Getty Center,Los Angeles,,CA,34.077588,-118.474585,15,0,Non-Networked
46733,LA County Museum of Art,Los Angeles,,CA,34.063383,-118.35808,15,0,POWERFLEX
46733,LA County Museum of Art,Los Angeles,,CA,34.063383,-118.35808,15,0,POWERFLEX
46733,LA County Museum of Art,Los Angeles,,CA,34.063383,-118.35808,15,0,POWERFLEX
21419,Getty Center,Los Angeles,,CA,34.077588,-118.474585,15,0,Non-Networked
46733,LA County Museum of Art,Los Angeles,,CA,34.063383,-118.35808,15,0,POWERFLEX
46733,LA County Museum of Art,Los Angeles,,CA,34.063383,-118.35808,15,0,POWERFLEX
21419,Getty Center,Los Angeles,,CA,34.077588,-118.474585,15,0,Non-Networked
21419,Getty Center,Los Angeles,,CA,34.077588,-118.474585,15,0,Non-Networked
21419,Getty Center,Los Angeles,,CA,34.077588,-118.474585,15,0,Non-Networked
46733,LA County Museum of Art,Los Angeles,,CA,34.063383,-118.35808,15,0,POWERFLEX
21419,Getty Center,Los Angeles,,CA,34.077588,-118.474585,15,0,Non-Networked
46733,LA County Museum of Art,Los Angeles,,CA,34.063383,-118.35808,15,0,POWERFLEX
46733,LA County Museum of Art,Los Angeles,,CA,34.063383,-118.35808,15,0,POWERFLEX
46733,LA County Museum of Art,Los Angeles,,CA,34.063383,-118.35808,15,0,POWERFLEX
21419,Getty Center,Los Angeles,,CA,34.077588,-118.474585,15,0,Non-Networked
21419,Getty Center,Los Angeles,,CA,34.077588,-118.474585,15,0,Non-Networked
46733,LA County Museum of Art,Los Angeles,,CA,34.063383,-118.35808,15,0,POWERFLEX
46733,LA County Museum of Art,Los Angeles,,CA,34.063383,-118.35808,15,0,POWERFLEX
46733,LA County Museum of Art,Los Angeles,,CA,34.063383,-118.35808,15,0,POWERFLEX
21419,Getty Center,Los Angeles,,CA,34.077588,-118.474585,15,0,Non-Networked
21419,Getty Center,Los Angeles,,CA,34.077588,-118.474585,15,0,Non-Networked
21419,Getty Center,Los Angeles,,CA,34.077588,-118.474585,15,0,Non-Networked
21419,Getty Center,Los Angeles,,CA,34.077588,-118.474585,15,0,Non-Networked
21419,Getty Center,Los Angeles,,CA,34.077588,-118.474585,15,0,Non-Networked
46733,LA County Museum of Art,Los Angeles,,CA,34.063383,-118.35808,15,0,POWERFLEX
46733,LA County Museum of Art,Los Angeles,,CA,34.063383,-118.35808,15,0,POWERFLEX
21419,Getty Center,Los Angeles,,CA,34.077588,-118.474585,15,0,Non-Networked
46733,LA County Museum of Art,Los Angeles,,CA,34.063383,-118.35808,15,0,POWERFLEX
46733,LA County Museum of Art,Los Angeles,,CA,34.063383,-118.35808,15,0,POWERFLEX
46733,LA County Museum of Art,Los Angeles,,CA,34.063383,-118.35808,15,0,POWERFLEX
21419,Getty Center,Los Angeles,,CA,34.077588,-118.474585,15,0,Non-Networked
46733,LA County Museum of Art,Los Angeles,,CA,34.063383,-118.35808,15,0,POWERFLEX
21419,Getty Center,Los Angeles,,CA,34.077588,-118.474585,15,0,Non-Networked
21419,Getty Center,Los Angeles,,CA,34.077588,-118.474585,15,0,Non-Networked
46733,LA County Museum of Art,Los Angeles,,CA,34.063383,-118.35808,15,0,POWERFLEX
21419,Getty Center,Los Angeles,,CA,34.077588,-118.474585,15,0,Non-Networked
21419,Getty Center,Los Angeles,,CA,34.077588,-118.474585,15,0,Non-Networked
21419,Getty Center,Los Angeles,,CA,34.077588,-118.474585,15,0,Non-Networked
21419,Getty Center,Los Angeles,,CA,34.077588,-118.474585,15,0,Non-Networked
46733,LA County Museum of Art,Los Angeles,,CA,34.063383,-118.35808,15,0,POWERFLEX
21419,Getty Center,Los Angeles,,CA,34.077588,-118.474585,15,0,Non-Networked
21419,Getty Center,Los Angeles,,CA,34.077588,-118.474585,15,0,Non-Networked
21419,Getty Center,Los Angeles,,CA,34.077588,-118.474585,15,0,Non-Networked
46733,LA County Museum of Art,Los Angeles,,CA,34.063383,-118.35808,15,0,POWERFLEX
46733,LA County Museum of Art,Los Angeles,,CA,34.063383,-118.35808,15,0,POWERFLEX
21419,Getty Center,Los Angeles,,CA,34.077588,-118.474585,15,0,Non-Networked
21419,Getty Center,Los Angeles,,CA,34.077588,-118.474585,15,0,Non-Networked
46733,LA County Museum of Art,Los Angeles,,CA,34.063383,-118.35808,15,0,POWERFLEX
21419,Getty Center,Los Angeles,,CA,34.077588,-118.474585,15,0,Non-Networked
46733,LA County Museum of Art,Los Angeles,,CA,34.063383,-118.35808,15,0,POWERFLEX
46733,LA County Museum of Art,Los Angeles,,CA,34.063383,-118.35808,15,0,POWERFLEX
21419,Getty Center,Los Angeles,,CA,34.077588,-118.474585,15,0,Non-Networked
46733,LA County Museum of Art,Los Angeles,,CA,34.063383,-118.35808,15,0,POWERFLEX
46733,LA County Museum of Art,Los Angeles,,CA,34.063383,-118.35808,15,0,POWERFLEX
46733,LA County Museum of Art,Los Angeles,,CA,34.063383,-118.35808,15,0,POWERFLEX
46733,LA County Museum of Art,Los Angeles,,CA,34.063383,-118.35808,15,0,POWERFLEX
46733,LA County Museum of Art,Los Angeles,,CA,34.063383,-118.35808,15,0,POWERFLEX
21419,Getty Center,Los Angeles,,CA,34.077588,-118.474585,15,0,Non-Networked
46733,LA County Museum of Art,Los Angeles,,CA,34.063383,-118.35808,15,0,POWERFLEX
21419,Getty Center,Los Angeles,,CA,34.077588,-118.474585,15,0,Non-Networked
21419,Getty Center,Los Angeles,,CA,34.077588,-118.474585,15,0,Non-Networked
46733,LA County Museum of Art,Los Angeles,,CA,34.063383,-118.35808,15,0,POWERFLEX
21419,Getty Center,Los Angeles,,CA,34.077588,-118.474585,15,0,Non-Networked
46733,LA County Museum of Art,Los Angeles,,CA,34.063383,-118.35808,15,0,POWERFLEX
21419,Getty Center,Los Angeles,,CA,34.077588,-118.474585,15,0,Non-Networked
21419,Getty Center,Los Angeles,,CA,34.077588,-118.474585,15,0,Non-Networked
46733,LA County Museum of Art,Los Angeles,,CA,34.063383,-118.35808,15,0,POWERFLEX
46733,LA County Museum of Art,Los Angeles,,CA,34.063383,-118.35808,15,0,POWERFLEX
21419,Getty Center,Los Angeles,,CA,34.077588,-118.474585,15,0,Non-Networked
46733,LA County Museum of Art,Los Angeles,,CA,34.063383,-118.35808,15,0,POWERFLEX
21419,Getty Center,Los Angeles,,CA,34.077588,-118.474585,15,0,Non-Networked
46733,LA County Museum of Art,Los Angeles,,CA,34.063383,-118.35808,15,0,POWERFLEX
21419,Getty Center,Los Angeles,,CA,34.077588,-118.474585,15,0,Non-Networked
46733,LA County Museum of Art,Los Angeles,,CA,34.063383,-118.35808,15,0,POWERFLEX
21419,Getty Center,Los Angeles,,CA,34.077588,-118.474585,15,0,Non-Networked
21419,Getty Center,Los Angeles,,CA,34.077588,-118.474585,15,0,Non-Networked
46733,LA County Museum of Art,Los Angeles,,CA,34.063383,-118.35808,15,0,POWERFLEX
21419,Getty Center,Los Angeles,,CA,34.077588,-118.474585,15,0,Non-Networked
21419,Getty Center,Los Angeles,,CA,34.077588,-118.474585,15,0,Non-Networked
21419,Getty Center,Los Angeles,,CA,34.077588,-118.474585,15,0,Non-Networked
21419,Getty Center,Los Angeles,,CA,34.077588,-118.474585,15,0,Non-Networked
21419,Getty Center,Los Angeles,,CA,34.077588,-118.474585,15,0,Non-Networked
21419,Getty Center,Los Angeles,,CA,34.077588,-118.474585,15,0,Non-Networked
46733,LA County Museum of Art,Los Angeles,,CA,34.063383,-118.35808,15,0,POWERFLEX
46733,LA County Museum of Art,Los Angeles,,CA,34.063383,-118.35808,15,0,POWERFLEX
21419,Getty Center,Los Angeles,,CA,34.077588,-118.474585,15,0,Non-Networked
46733,LA County Museum of Art,Los Angeles,,CA,34.063383,-118.35808,15,0,POWERFLEX
46733,LA County Museum of Art,Los Angeles,,CA,34.063383,-118.35808,15,0,POWERFLEX
21419,Getty Center,Los Angeles,,CA,34.077588,-118.474585,15,0,Non-Networked
21419,Getty Center,Los Angeles,,CA,34.077588,-118.474585,15,0,Non-Networked
46733,LA County Museum of Art,Los Angeles,,CA,34.063383,-118.35808,15,0,POWERFLEX
46733,LA County Museum of Art,Los Angeles,,CA,34.063383,-118.35808,15,0,POWERFLEX
21419,Getty Center,Los Angeles,,CA,34.077588,-118.474585,15,0,Non-Networked
46733,LA County Museum of Art,Los Angeles,,CA,34.063383,-118.35808,15,0,POWERFLEX
21419,Getty Center,Los Angeles,,CA,34.077588,-118.474585,15,0,Non-Networked
46733,LA County Museum of Art,Los Angeles,,CA,34.063383,-118.35808,15,0,POWERFLEX
46733,LA County Museum of Art,Los Angeles,,CA,34.063383,-118.35808,15,0,POWERFLEX
46733,LA County Museum of Art,Los Angeles,,CA,34.063383,-118.35808,15,0,POWERFLEX
21419,Getty Center,Los Angeles,,CA,34.077588,-118.474585,15,0,Non-Networked
46733,LA County Museum of Art,Los Angeles,,CA,34.063383,-118.35808,15,0,POWERFLEX
46733,LA County Museum of Art,Los Angeles,,CA,34.063383,-118.35808,15,0,POWERFLEX
46733,LA County Museum of Art,Los Angeles,,CA,34.063383,-118.35808,15,0,POWERFLEX
21419,Getty Center,Los Angeles,,CA,34.077588,-118.474585,15,0,Non-Networked
46733,LA County Museum of Art,Los Angeles,,CA,34.063383,-118.35808,15,0,POWERFLEX
21419,Getty Center,Los Angeles,,CA,34.077588,-118.474585,15,0,Non-Networked
21419,Getty Center,Los Angeles,,CA,34.077588,-118.474585,15,0,Non-Networked
46733,LA County Museum of Art,Los Angeles,,CA,34.063383,-118.35808,15,0,POWERFLEX
46733,LA County Museum of Art,Los Angeles,,CA,34.063383,-118.35808,15,0,POWERFLEX
21419,Getty Center,Los Angeles,,CA,34.077588,-118.474585,15,0,Non-Networked
46733,LA County Museum of Art,Los Angeles,,CA,34.063383,-118.35808,15,0,POWERFLEX
21419,Getty Center,Los Angeles,,CA,34.077588,-118.474585,15,0,Non-Networked
46733,LA County Museum of Art,Los Angeles,,CA,34.063383,-118.35808,15,0,POWERFLEX
21419,Getty Center,Los Angeles,,CA,34.077588,-118.474585,15,0,Non-Networked
21419,Getty Center,Los Angeles,,CA,34.077588,-118.474585,15,0,Non-Networked
46733,LA County Museum of Art,Los Angeles,,CA,34.063383,-118.35808,15,0,POWERFLEX
21419,Getty Center,Los Angeles,,CA,34.077588,-118.474585,15,0,Non-Networked
46733,LA County Museum of Art,Los Angeles,,CA,34.063383,-118.35808,15,0,POWERFLEX
41352,Advanced Micro Devices Inc,Santa Clara,,CA,37.38237,-121.970806,14,0,Non-Networked
41352,Advanced Micro Devices Inc,Santa Clara,,CA,37.38237,-121.970806,14,0,Non-Networked
41352,Advanced Micro Devices Inc,Santa Clara,,CA,37.38237,-121.970806,14,0,Non-Networked
41352,Advanced Micro Devices Inc,Santa Clara,,CA,37.38237,-121.970806,14,0,Non-Networked
41352,Advanced Micro Devices Inc,Santa Clara,,CA,37.38237,-121.970806,14,0,Non-Networked
41352,Advanced Micro Devices Inc,Santa Clara,,CA,37.38237,-121.970806,14,0,Non-Networked
41352,Advanced Micro Devices Inc,Santa Clara,,CA,37.38237,-121.970806,14,0,Non-Networked
41352,Advanced Micro Devices Inc,Santa Clara,,CA,37.38237,-121.970806,14,0,Non-Networked
41352,Advanced Micro Devices Inc,Santa Clara,,CA,37.38237,-121.970806,14,0,Non-Networked
41352,Advanced Micro Devices Inc,Santa Clara,,CA,37.38237,-121.970806,14,0,Non-Networked
41352,Advanced Micro Devices Inc,Santa Clara,,CA,37.38237,-121.970806,14,0,Non-Networked
41352,Advanced Micro Devices Inc,Santa Clara,,CA,37.38237,-121.970806,14,0,Non-Networked
41352,Advanced Micro Devices Inc,Santa Clara,,CA,37.38237,-121.970806,14,0,Non-Networked
41352,Advanced Micro Devices Inc,Santa Clara,,CA,37.38237,-121.970806,14,0,Non-Networked
41352,Advanced Micro Devices Inc,Santa Clara,,CA,37.38237,-121.970806,14,0,Non-Networked
41352,Advanced Micro Devices Inc,Santa Clara,,CA,37.38237,-121.970806,14,0,Non-Networked
41352,Advanced Micro Devices Inc,Santa Clara,,CA,37.38237,-121.970806,14,0,Non-Networked
41352,Advanced Micro Devices Inc,Santa Clara,,CA,37.38237,-121.970806,14,0,Non-Networked
41352,Advanced Micro Devices Inc,Santa Clara,,CA,37.38237,-121.970806,14,0,Non-Networked
41352,Advanced Micro Devices Inc,Santa Clara,,CA,37.38237,-121.970806,14,0,Non-Networked
41352,Advanced Micro Devices Inc,Santa Clara,,CA,37.38237,-121.970806,14,0,Non-Networked
41352,Advanced Micro Devices Inc,Santa Clara,,CA,37.38237,-121.970806,14,0,Non-Networked
41352,Advanced Micro Devices Inc,Santa Clara,,CA,37.38237,-121.970806,14,0,Non-Networked
41352,Advanced Micro Devices Inc,Santa Clara,,CA,37.38237,-121.970806,14,0,Non-Networked
41352,Advanced Micro Devices Inc,Santa Clara,,CA,37.38237,-121.970806,14,0,Non-Networked
41352,Advanced Micro Devices Inc,Santa Clara,,CA,37.38237,-121.970806,14,0,Non-Networked
41352,Advanced Micro Devices Inc,Santa Clara,,CA,37.38237,-121.970806,14,0,Non-Networked
41352,Advanced Micro Devices Inc,Santa Clara,,CA,37.38237,-121.970806,14,0,Non-Networked
41352,Advanced Micro Devices Inc,Santa Clara,,CA,37.38237,-121.970806,14,0,Non-Networked
41352,Advanced Micro Devices Inc,Santa Clara,,CA,37.38237,-121.970806,14,0,Non-Networked
41352,Advanced Micro Devices Inc,Santa Clara,,CA,37.38237,-121.970806,14,0,Non-Networked
41352,Advanced Micro Devices Inc,Santa Clara,,CA,37.38237,-121.970806,14,0,Non-Networked
41352,Advanced Micro Devices Inc,Santa Clara,,CA,37.38237,-121.970806,14,0,Non-Networked
41352,Advanced Micro Devices Inc,Santa Clara,,CA,37.38237,-121.970806,14,0,Non-Networked
41352,Advanced Micro Devices Inc,Santa Clara,,CA,37.38237,-121.970806,14,0,Non-Networked
41352,Advanced Micro Devices Inc,Santa Clara,,CA,37.38237,-121.970806,14,0,Non-Networked
41352,Advanced Micro Devices Inc,Santa Clara,,CA,37.38237,-121.970806,14,0,Non-Networked
41352,Advanced Micro Devices Inc,Santa Clara,,CA,37.38237,-121.970806,14,0,Non-Networked
41352,Advanced Micro Devices Inc,Santa Clara,,CA,37.38237,-121.970806,14,0,Non-Networked
41352,Advanced Micro Devices Inc,Santa Clara,,CA,37.38237,-121.970806,14,0,Non-Networked
41352,Advanced Micro Devices Inc,Santa Clara,,CA,37.38237,-121.970806,14,0,Non-Networked
41352,Advanced Micro Devices Inc,Santa Clara,,CA,37.38237,-121.970806,14,0,Non-Networked
41352,Advanced Micro Devices Inc,Santa Clara,,CA,37.38237,-121.970806,14,0,Non-Networked
41352,Advanced Micro Devices Inc,Santa Clara,,CA,37.38237,-121.970806,14,0,Non-Networked
41352,Advanced Micro Devices Inc,Santa Clara,,CA,37.38237,-121.970806,14,0,Non-Networked
41352,Advanced Micro Devices Inc,Santa Clara,,CA,37.38237,-121.970806,14,0,Non-Networked
41352,Advanced Micro Devices Inc,Santa Clara,,CA,37.38237,-121.970806,14,0,Non-Networked
41352,Advanced Micro Devices Inc,Santa Clara,,CA,37.38237,-121.970806,14,0,Non-Networked
41352,Advanced Micro Devices Inc,Santa Clara,,CA,37.38237,-121.970806,14,0,Non-Networked
41352,Advanced Micro Devices Inc,Santa Clara,,CA,37.38237,-121.970806,14,0,Non-Networked
41352,Advanced Micro Devices Inc,Santa Clara,,CA,37.38237,-121.970806,14,0,Non-Networked
41352,Advanced Micro Devices Inc,Santa Clara,,CA,37.38237,-121.970806,14,0,Non-Networked
41352,Advanced Micro Devices Inc,Santa Clara,,CA,37.38237,-121.970806,14,0,Non-Networked
41352,Advanced Micro Devices Inc,Santa Clara,,CA,37.38237,-121.970806,14,0,Non-Networked
41352,Advanced Micro Devices Inc,Santa Clara,,CA,37.38237,-121.970806,14,0,Non-Networked
41352,Advanced Micro Devices Inc,Santa Clara,,CA,37.38237,-121.970806,14,0,Non-Networked
41352,Advanced Micro Devices Inc,Santa Clara,,CA,37.38237,-121.970806,14,0,Non-Networked
41352,Advanced Micro Devices Inc,Santa Clara,,CA,37.38237,-121.970806,14,0,Non-Networked
41352,Advanced Micro Devices Inc,Santa Clara,,CA,37.38237,-121.970806,14,0,Non-Networked
41352,Advanced Micro Devices Inc,Santa Clara,,CA,37.38237,-121.970806,14,0,Non-Networked
41352,Advanced Micro Devices Inc,Santa Clara,,CA,37.38237,-121.970806,14,0,Non-Networked
41352,Advanced Micro Devices Inc,Santa Clara,,CA,37.38237,-121.970806,14,0,Non-Networked
41352,Advanced Micro Devices Inc,Santa Clara,,CA,37.38237,-121.970806,14,0,Non-Networked
41352,Advanced Micro Devices Inc,Santa Clara,,CA,37.38237,-121.970806,14,0,Non-Networked
41352,Advanced Micro Devices Inc,Santa Clara,,CA,37.38237,-121.970806,14,0,Non-Networked
41352,Advanced Micro Devices Inc,Santa Clara,,CA,37.38237,-121.970806,14,0,Non-Networked
41352,Advanced Micro Devices Inc,Santa Clara,,CA,37.38237,-121.970806,14,0,Non-Networked
41352,Advanced Micro Devices Inc,Santa Clara,,CA,37.38237,-121.970806,14,0,Non-Networked
41352,Advanced Micro Devices Inc,Santa Clara,,CA,37.38237,-121.970806,14,0,Non-Networked
41352,Advanced Micro Devices Inc,Santa Clara,,CA,37.38237,-121.970806,14,0,Non-Networked
41352,Advanced Micro Devices Inc,Santa Clara,,CA,37.38237,-121.970806,14,0,Non-Networked
41352,Advanced Micro Devices Inc,Santa Clara,,CA,37.38237,-121.970806,14,0,Non-Networked
41352,Advanced Micro Devices Inc,Santa Clara,,CA,37.38237,-121.970806,14,0,Non-Networked
41352,Advanced Micro Devices Inc,Santa Clara,,CA,37.38237,-121.970806,14,0,Non-Networked
41352,Advanced Micro Devices Inc,Santa Clara,,CA,37.38237,-121.970806,14,0,Non-Networked
41352,Advanced Micro Devices Inc,Santa Clara,,CA,37.38237,-121.970806,14,0,Non-Networked
41352,Advanced Micro Devices Inc,Santa Clara,,CA,37.38237,-121.970806,14,0,Non-Networked
41352,Advanced Micro Devices Inc,Santa Clara,,CA,37.38237,-121.970806,14,0,Non-Networked
41352,Advanced Micro Devices Inc,Santa Clara,,CA,37.38237,-121.970806,14,0,Non-Networked
41352,Advanced Micro Devices Inc,Santa Clara,,CA,37.38237,-121.970806,14,0,Non-Networked
41352,Advanced Micro Devices Inc,Santa Clara,,CA,37.38237,-121.970806,14,0,Non-Networked
41352,Advanced Micro Devices Inc,Santa Clara,,CA,37.38237,-121.970806,14,0,Non-Networked
41352,Advanced Micro Devices Inc,Santa Clara,,CA,37.38237,-121.970806,14,0,Non-Networked
41352,Advanced Micro Devices Inc,Santa Clara,,CA,37.38237,-121.970806,14,0,Non-Networked
41352,Advanced Micro Devices Inc,Santa Clara,,CA,37.38237,-121.970806,14,0,Non-Networked
41352,Advanced Micro Devices Inc,Santa Clara,,CA,37.38237,-121.970806,14,0,Non-Networked
41352,Advanced Micro Devices Inc,Santa Clara,,CA,37.38237,-121.970806,14,0,Non-Networked
41352,Advanced Micro Devices Inc,Santa Clara,,CA,37.38237,-121.970806,14,0,Non-Networked
41352,Advanced Micro Devices Inc,Santa Clara,,CA,37.38237,-121.970806,14,0,Non-Networked
41352,Advanced Micro Devices Inc,Santa Clara,,CA,37.38237,-121.970806,14,0,Non-Networked
41352,Advanced Micro Devices Inc,Santa Clara,,CA,37.38237,-121.970806,14,0,Non-Networked
41352,Advanced Micro Devices Inc,Santa Clara,,CA,37.38237,-121.970806,14,0,Non-Networked
41352,Advanced Micro Devices Inc,Santa Clara,,CA,37.38237,-121.970806,14,0,Non-Networked
41352,Advanced Micro Devices Inc,Santa Clara,,CA,37.38237,-121.970806,14,0,Non-Networked
41352,Advanced Micro Devices Inc,Santa Clara,,CA,37.38237,-121.970806,14,0,Non-Networked
41352,Advanced Micro Devices Inc,Santa Clara,,CA,37.38237,-121.970806,14,0,Non-Networked
41352,Advanced Micro Devices Inc,Santa Clara,,CA,37.38237,-121.970806,14,0,Non-Networked
41352,Advanced Micro Devices Inc,Santa Clara,,CA,37.38237,-121.970806,14,0,Non-Networked
41352,Advanced Micro Devices Inc,Santa Clara,,CA,37.38237,-121.970806,14,0,Non-Networked
1573,LADWP - Fairfax Center,Los Angeles,,CA,34.036777,-118.368841,13,0,Non-Networked
1573,LADWP - Fairfax Center,Los Angeles,,CA,34.036777,-118.368841,13,0,Non-Networked
1573,LADWP - Fairfax Center,Los Angeles,,CA,34.036777,-118.368841,13,0,Non-Networked
1573,LADWP - Fairfax Center,Los Angeles,,CA,34.036777,-118.368841,13,0,Non-Networked
1573,LADWP - Fairfax Center,Los Angeles,,CA,34.036777,-118.368841,13,0,Non-Networked
1573,LADWP - Fairfax Center,Los Angeles,,CA,34.036777,-118.368841,13,0,Non-Networked
1573,LADWP - Fairfax Center,Los Angeles,,CA,34.036777,-118.368841,13,0,Non-Networked
1573,LADWP - Fairfax Center,Los Angeles,,CA,34.036777,-118.368841,13,0,Non-Networked
1573,LADWP - Fairfax Center,Los Angeles,,CA,34.036777,-118.368841,13,0,Non-Networked
1573,LADWP - Fairfax Center,Los Angeles,,CA,34.036777,-118.368841,13,0,Non-Networked
1573,LADWP - Fairfax Center,Los Angeles,,CA,34.036777,-118.368841,13,0,Non-Networked
1573,LADWP - Fairfax Center,Los Angeles,,CA,34.036777,-118.368841,13,0,Non-Networked
1573,LADWP - Fairfax Center,Los Angeles,,CA,34.036777,-118.368841,13,0,Non-Networked
1573,LADWP - Fairfax Center,Los Angeles,,CA,34.036777,-118.368841,13,0,Non-Networked
1573,LADWP - Fairfax Center,Los Angeles,,CA,34.036777,-118.368841,13,0,Non-Networked
1573,LADWP - Fairfax Center,Los Angeles,,CA,34.036777,-118.368841,13,0,Non-Networked
1573,LADWP - Fairfax Center,Los Angeles,,CA,34.036777,-118.368841,13,0,Non-Networked
1573,LADWP - Fairfax Center,Los Angeles,,CA,34.036777,-118.368841,13,0,Non-Networked
1573,LADWP - Fairfax Center,Los Angeles,,CA,34.036777,-118.368841,13,0,Non-Networked
1573,LADWP - Fairfax Center,Los Angeles,,CA,34.036777,-118.368841,13,0,Non-Networked
1573,LADWP - Fairfax Center,Los Angeles,,CA,34.036777,-118.368841,13,0,Non-Networked
1573,LADWP - Fairfax Center,Los Angeles,,CA,34.036777,-118.368841,13,0,Non-Networked
1573,LADWP - Fairfax Center,Los Angeles,,CA,34.036777,-118.368841,13,0,Non-Networked
1573,LADWP - Fairfax Center,Los Angeles,,CA,34.036777,-118.368841,13,0,Non-Networked
1573,LADWP - Fairfax Center,Los Angeles,,CA,34.036777,-118.368841,13,0,Non-Networked
1573,LADWP - Fairfax Center,Los Angeles,,CA,34.036777,-118.368841,13,0,Non-Networked
1573,LADWP - Fairfax Center,Los Angeles,,CA,34.036777,-118.368841,13,0,Non-Networked
1573,LADWP - Fairfax Center,Los Angeles,,CA,34.036777,-118.368841,13,0,Non-Networked
1573,LADWP - Fairfax Center,Los Angeles,,CA,34.036777,-118.368841,13,0,Non-Networked
1573,LADWP - Fairfax Center,Los Angeles,,CA,34.036777,-118.368841,13,0,Non-Networked
1573,LADWP - Fairfax Center,Los Angeles,,CA,34.036777,-118.368841,13,0,Non-Networked
1573,LADWP - Fairfax Center,Los Angeles,,CA,34.036777,-118.368841,13,0,Non-Networked
1573,LADWP - Fairfax Center,Los Angeles,,CA,34.036777,-118.368841,13,0,Non-Networked
1573,LADWP - Fairfax Center,Los Angeles,,CA,34.036777,-118.368841,13,0,Non-Networked
1573,LADWP - Fairfax Center,Los Angeles,,CA,34.036777,-118.368841,13,0,Non-Networked
1573,LADWP - Fairfax Center,Los Angeles,,CA,34.036777,-118.368841,13,0,Non-Networked
1573,LADWP - Fairfax Center,Los Angeles,,CA,34.036777,-118.368841,13,0,Non-Networked
1573,LADWP - Fairfax Center,Los Angeles,,CA,34.036777,-118.368841,13,0,Non-Networked
1573,LADWP - Fairfax Center,Los Angeles,,CA,34.036777,-118.368841,13,0,Non-Networked
1573,LADWP - Fairfax Center,Los Angeles,,CA,34.036777,-118.368841,13,0,Non-Networked
1573,LADWP - Fairfax Center,Los Angeles,,CA,34.036777,-118.368841,13,0,Non-Networked
1573,LADWP - Fairfax Center,Los Angeles,,CA,34.036777,-118.368841,13,0,Non-Networked
1573,LADWP - Fairfax Center,Los Angeles,,CA,34.036777,-118.368841,13,0,Non-Networked
1573,LADWP - Fairfax Center,Los Angeles,,CA,34.036777,-118.368841,13,0,Non-Networked
1573,LADWP - Fairfax Center,Los Angeles,,CA,34.036777,-118.368841,13,0,Non-Networked
1573,LADWP - Fairfax Center,Los Angeles,,CA,34.036777,-118.368841,13,0,Non-Networked
1573,LADWP - Fairfax Center,Los Angeles,,CA,34.036777,-118.368841,13,0,Non-Networked
1573,LADWP - Fairfax Center,Los Angeles,,CA,34.036777,-118.368841,13,0,Non-Networked
1573,LADWP - Fairfax Center,Los Angeles,,CA,34.036777,-118.368841,13,0,Non-Networked
1573,LADWP - Fairfax Center,Los Angeles,,CA,34.036777,-118.368841,13,0,Non-Networked
1573,LADWP - Fairfax Center,Los Angeles,,CA,34.036777,-118.368841,13,0,Non-Networked
1573,LADWP - Fairfax Center,Los Angeles,,CA,34.036777,-118.368841,13,0,Non-Networked
1573,LADWP - Fairfax Center,Los Angeles,,CA,34.036777,-118.368841,13,0,Non-Networked
1573,LADWP - Fairfax Center,Los Angeles,,CA,34.036777,-118.368841,13,0,Non-Networked
1573,LADWP - Fairfax Center,Los Angeles,,CA,34.036777,-118.368841,13,0,Non-Networked
1573,LADWP - Fairfax Center,Los Angeles,,CA,34.036777,-118.368841,13,0,Non-Networked
1573,LADWP - Fairfax Center,Los Angeles,,CA,34.036777,-118.368841,13,0,Non-Networked
1573,LADWP - Fairfax Center,Los Angeles,,CA,34.036777,-118.368841,13,0,Non-Networked
1573,LADWP - Fairfax Center,Los Angeles,,CA,34.036777,-118.368841,13,0,Non-Networked
1573,LADWP - Fairfax Center,Los Angeles,,CA,34.036777,-118.368841,13,0,Non-Networked
1573,LADWP - Fairfax Center,Los Angeles,,CA,34.036777,-118.368841,13,0,Non-Networked
1573,LADWP - Fairfax Center,Los Angeles,,CA,34.036777,-118.368841,13,0,Non-Networked
1573,LADWP - Fairfax Center,Los Angeles,,CA,34.036777,-118.368841,13,0,Non-Networked
1573,LADWP - Fairfax Center,Los Angeles,,CA,34.036777,-118.368841,13,0,Non-Networked
1573,LADWP - Fairfax Center,Los Angeles,,CA,34.036777,-118.368841,13,0,Non-Networked
1573,LADWP - Fairfax Center,Los Angeles,,CA,34.036777,-118.368841,13,0,Non-Networked
1573,LADWP - Fairfax Center,Los Angeles,,CA,34.036777,-118.368841,13,0,Non-Networked
1573,LADWP - Fairfax Center,Los Angeles,,CA,34.036777,-118.368841,13,0,Non-Networked
1573,LADWP - Fairfax Center,Los Angeles,,CA,34.036777,-118.368841,13,0,Non-Networked
1573,LADWP - Fairfax Center,Los Angeles,,CA,34.036777,-118.368841,13,0,Non-Networked
1573,LADWP - Fairfax Center,Los Angeles,,CA,34.036777,-118.368841,13,0,Non-Networked
1573,LADWP - Fairfax Center,Los Angeles,,CA,34.036777,-118.368841,13,0,Non-Networked
1573,LADWP - Fairfax Center,Los Angeles,,CA,34.036777,-118.368841,13,0,Non-Networked
1573,LADWP - Fairfax Center,Los Angeles,,CA,34.036777,-118.368841,13,0,Non-Networked
1573,LADWP - Fairfax Center,Los Angeles,,CA,34.036777,-118.368841,13,0,Non-Networked
1573,LADWP - Fairfax Center,Los Angeles,,CA,34.036777,-118.368841,13,0,Non-Networked
1573,LADWP - Fairfax Center,Los Angeles,,CA,34.036777,-118.368841,13,0,Non-Networked
1573,LADWP - Fairfax Center,Los Angeles,,CA,34.036777,-118.368841,13,0,Non-Networked
1573,LADWP - Fairfax Center,Los Angeles,,CA,34.036777,-118.368841,13,0,Non-Networked
1573,LADWP - Fairfax Center,Los Angeles,,CA,34.036777,-118.368841,13,0,Non-Networked
1573,LADWP - Fairfax Center,Los Angeles,,CA,34.036777,-118.368841,13,0,Non-Networked
1573,LADWP - Fairfax Center,Los Angeles,,CA,34.036777,-118.368841,13,0,Non-Networked
1573,LADWP - Fairfax Center,Los Angeles,,CA,34.036777,-118.368841,13,0,Non-Networked
1573,LADWP - Fairfax Center,Los Angeles,,CA,34.036777,-118.368841,13,0,Non-Networked
1573,LADWP - Fairfax Center,Los Angeles,,CA,34.036777,-118.368841,13,0,Non-Networked
1573,LADWP - Fairfax Center,Los Angeles,,CA,34.036777,-118.368841,13,0,Non-Networked
1573,LADWP - Fairfax Center,Los Angeles,,CA,34.036777,-118.368841,13,0,Non-Networked
1573,LADWP - Fairfax Center,Los Angeles,,CA,34.036777,-118.368841,13,0,Non-Networked
1573,LADWP - Fairfax Center,Los Angeles,,CA,34.036777,-118.368841,13,0,Non-Networked
1573,LADWP - Fairfax Center,Los Angeles,,CA,34.036777,-118.368841,13,0,Non-Networked
1573,LADWP - Fairfax Center,Los Angeles,,CA,34.036777,-118.368841,13,0,Non-Networked
1573,LADWP - Fairfax Center,Los Angeles,,CA,34.036777,-118.368841,13,0,Non-Networked
1573,LADWP - Fairfax Center,Los Angeles,,CA,34.036777,-118.368841,13,0,Non-Networked
1573,LADWP - Fairfax Center,Los Angeles,,CA,34.036777,-118.368841,13,0,Non-Networked
1573,LADWP - Fairfax Center,Los Angeles,,CA,34.036777,-118.368841,13,0,Non-Networked
1573,LADWP - Fairfax Center,Los Angeles,,CA,34.036777,-118.368841,13,0,Non-Networked
1573,LADWP - Fairfax Center,Los Angeles,,CA,34.036777,-118.368841,13,0,Non-Networked
1573,LADWP - Fairfax Center,Los Angeles,,CA,34.036777,-118.368841,13,0,Non-Networked
1573,LADWP - Fairfax Center,Los Angeles,,CA,34.036777,-118.368841,13,0,Non-Networked
46482,Cupertino Electric,San Jose,,CA,37.36217972612609,-121.8995386415253,12,0,Non-Networked
46482,Cupertino Electric,San Jose,,CA,37.36217972612609,-121.8995386415253,12,0,Non-Networked
46482,Cupertino Electric,San Jose,,CA,37.36217972612609,-121.8995386415253,12,0,Non-Networked
46482,Cupertino Electric,San Jose,,CA,37.36217972612609,-121.8995386415253,12,0,Non-Networked
46482,Cupertino Electric,San Jose,,CA,37.36217972612609,-121.8995386415253,12,0,Non-Networked
46482,Cupertino Electric,San Jose,,CA,37.36217972612609,-121.8995386415253,12,0,Non-Networked
46482,Cupertino Electric,San Jose,,CA,37.36217972612609,-121.8995386415253,12,0,Non-Networked
46482,Cupertino Electric,San Jose,,CA,37.36217972612609,-121.8995386415253,12,0,Non-Networked
46482,Cupertino Electric,San Jose,,CA,37.36217972612609,-121.8995386415253,12,0,Non-Networked
46482,Cupertino Electric,San Jose,,CA,37.36217972612609,-121.8995386415253,12,0,Non-Networked
46482,Cupertino Electric,San Jose,,CA,37.36217972612609,-121.8995386415253,12,0,Non-Networked
46482,Cupertino Electric,San Jose,,CA,37.36217972612609,-121.8995386415253,12,0,Non-Networked
46482,Cupertino Electric,San Jose,,CA,37.36217972612609,-121.8995386415253,12,0,Non-Networked
46482,Cupertino Electric,San Jose,,CA,37.36217972612609,-121.8995386415253,12,0,Non-Networked
46482,Cupertino Electric,San Jose,,CA,37.36217972612609,-121.8995386415253,12,0,Non-Networked
46482,Cupertino Electric,San Jose,,CA,37.36217972612609,-121.8995386415253,12,0,Non-Networked
46482,Cupertino Electric,San Jose,,CA,37.36217972612609,-121.8995386415253,12,0,Non-Networked
46482,Cupertino Electric,San Jose,,CA,37.36217972612609,-121.8995386415253,12,0,Non-Networked
46482,Cupertino Electric,San Jose,,CA,37.36217972612609,-121.8995386415253,12,0,Non-Networked
46482,Cupertino Electric,San Jose,,CA,37.36217972612609,-121.8995386415253,12,0,Non-Networked
46482,Cupertino Electric,San Jose,,CA,37.36217972612609,-121.8995386415253,12,0,Non-Networked
46482,Cupertino Electric,San Jose,,CA,37.36217972612609,-121.8995386415253,12,0,Non-Networked
46482,Cupertino Electric,San Jose,,CA,37.36217972612609,-121.8995386415253,12,0,Non-Networked
46482,Cupertino Electric,San Jose,,CA,37.36217972612609,-121.8995386415253,12,0,Non-Networked
46482,Cupertino Electric,San Jose,,CA,37.36217972612609,-121.8995386415253,12,0,Non-Networked
46482,Cupertino Electric,San Jose,,CA,37.36217972612609,-121.8995386415253,12,0,Non-Networked
46482,Cupertino Electric,San Jose,,CA,37.36217972612609,-121.8995386415253,12,0,Non-Networked
46482,Cupertino Electric,San Jose,,CA,37.36217972612609,-121.8995386415253,12,0,Non-Networked
46482,Cupertino Electric,San Jose,,CA,37.36217972612609,-121.8995386415253,12,0,Non-Networked
46482,Cupertino Electric,San Jose,,CA,37.36217972612609,-121.8995386415253,12,0,Non-Networked
46482,Cupertino Electric,San Jose,,CA,37.36217972612609,-121.8995386415253,12,0,Non-Networked
46482,Cupertino Electric,San Jose,,CA,37.36217972612609,-121.8995386415253,12,0,Non-Networked
46482,Cupertino Electric,San Jose,,CA,37.36217972612609,-121.8995386415253,12,0,Non-Networked
46482,Cupertino Electric,San Jose,,CA,37.36217972612609,-121.8995386415253,12,0,Non-Networked
46482,Cupertino Electric,San Jose,,CA,37.36217972612609,-121.8995386415253,12,0,Non-Networked
46482,Cupertino Electric,San Jose,,CA,37.36217972612609,-121.8995386415253,12,0,Non-Networked
46482,Cupertino Electric,San Jose,,CA,37.36217972612609,-121.8995386415253,12,0,Non-Networked
46482,Cupertino Electric,San Jose,,CA,37.36217972612609,-121.8995386415253,12,0,Non-Networked
46482,Cupertino Electric,San Jose,,CA,37.36217972612609,-121.8995386415253,12,0,Non-Networked
46482,Cupertino Electric,San Jose,,CA,37.36217972612609,-121.8995386415253,12,0,Non-Networked
46482,Cupertino Electric,San Jose,,CA,37.36217972612609,-121.8995386415253,12,0,Non-Networked
46482,Cupertino Electric,San Jose,,CA,37.36217972612609,-121.8995386415253,12,0,Non-Networked
46482,Cupertino Electric,San Jose,,CA,37.36217972612609,-121.8995386415253,12,0,Non-Networked
46482,Cupertino Electric,San Jose,,CA,37.36217972612609,-121.8995386415253,12,0,Non-Networked
46482,Cupertino Electric,San Jose,,CA,37.36217972612609,-121.8995386415253,12,0,Non-Networked
46482,Cupertino Electric,San Jose,,CA,37.36217972612609,-121.8995386415253,12,0,Non-Networked
46482,Cupertino Electric,San Jose,,CA,37.36217972612609,-121.8995386415253,12,0,Non-Networked
46482,Cupertino Electric,San Jose,,CA,37.36217972612609,-121.8995386415253,12,0,Non-Networked
46482,Cupertino Electric,San Jose,,CA,37.36217972612609,-121.8995386415253,12,0,Non-Networked
46482,Cupertino Electric,San Jose,,CA,37.36217972612609,-121.8995386415253,12,0,Non-Networked
46482,Cupertino Electric,San Jose,,CA,37.36217972612609,-121.8995386415253,12,0,Non-Networked
46482,Cupertino Electric,San Jose,,CA,37.36217972612609,-121.8995386415253,12,0,Non-Networked
46482,Cupertino Electric,San Jose,,CA,37.36217972612609,-121.8995386415253,12,0,Non-Networked
46482,Cupertino Electric,San Jose,,CA,37.36217972612609,-121.8995386415253,12,0,Non-Networked
46482,Cupertino Electric,San Jose,,CA,37.36217972612609,-121.8995386415253,12,0,Non-Networked
46482,Cupertino Electric,San Jose,,CA,37.36217972612609,-121.8995386415253,12,0,Non-Networked
46482,Cupertino Electric,San Jose,,CA,37.36217972612609,-121.8995386415253,12,0,Non-Networked
46482,Cupertino Electric,San Jose,,CA,37.36217972612609,-121.8995386415253,12,0,Non-Networked
46482,Cupertino Electric,San Jose,,CA,37.36217972612609,-121.8995386415253,12,0,Non-Networked
46482,Cupertino Electric,San Jose,,CA,37.36217972612609,-121.8995386415253,12,0,Non-Networked
46482,Cupertino Electric,San Jose,,CA,37.36217972612609,-121.8995386415253,12,0,Non-Networked
46482,Cupertino Electric,San Jose,,CA,37.36217972612609,-121.8995386415253,12,0,Non-Networked
46482,Cupertino Electric,San Jose,,CA,37.36217972612609,-121.8995386415253,12,0,Non-Networked
46482,Cupertino Electric,San Jose,,CA,37.36217972612609,-121.8995386415253,12,0,Non-Networked
46482,Cupertino Electric,San Jose,,CA,37.36217972612609,-121.8995386415253,12,0,Non-Networked
46482,Cupertino Electric,San Jose,,CA,37.36217972612609,-121.8995386415253,12,0,Non-Networked
46482,Cupertino Electric,San Jose,,CA,37.36217972612609,-121.8995386415253,12,0,Non-Networked
46482,Cupertino Electric,San Jose,,CA,37.36217972612609,-121.8995386415253,12,0,Non-Networked
46482,Cupertino Electric,San Jose,,CA,37.36217972612609,-121.8995386415253,12,0,Non-Networked
46482,Cupertino Electric,San Jose,,CA,37.36217972612609,-121.8995386415253,12,0,Non-Networked
46482,Cupertino Electric,San Jose,,CA,37.36217972612609,-121.8995386415253,12,0,Non-Networked
46482,Cupertino Electric,San Jose,,CA,37.36217972612609,-121.8995386415253,12,0,Non-Networked
46482,Cupertino Electric,San Jose,,CA,37.36217972612609,-121.8995386415253,12,0,Non-Networked
46482,Cupertino Electric,San Jose,,CA,37.36217972612609,-121.8995386415253,12,0,Non-Networked
46482,Cupertino Electric,San Jose,,CA,37.36217972612609,-121.8995386415253,12,0,Non-Networked
46482,Cupertino Electric,San Jose,,CA,37.36217972612609,-121.8995386415253,12,0,Non-Networked
46482,Cupertino Electric,San Jose,,CA,37.36217972612609,-121.8995386415253,12,0,Non-Networked
46482,Cupertino Electric,San Jose,,CA,37.36217972612609,-121.8995386415253,12,0,Non-Networked
46482,Cupertino Electric,San Jose,,CA,37.36217972612609,-121.8995386415253,12,0,Non-Networked
46482,Cupertino Electric,San Jose,,CA,37.36217972612609,-121.8995386415253,12,0,Non-Networked
46482,Cupertino Electric,San Jose,,CA,37.36217972612609,-121.8995386415253,12,0,Non-Networked
46482,Cupertino Electric,San Jose,,CA,37.36217972612609,-121.8995386415253,12,0,Non-Networked
46482,Cupertino Electric,San Jose,,CA,37.36217972612609,-121.8995386415253,12,0,Non-Networked
46482,Cupertino Electric,San Jose,,CA,37.36217972612609,-121.8995386415253,12,0,Non-Networked
46482,Cupertino Electric,San Jose,,CA,37.36217972612609,-121.8995386415253,12,0,Non-Networked
46482,Cupertino Electric,San Jose,,CA,37.36217972612609,-121.8995386415253,12,0,Non-Networked
46482,Cupertino Electric,San Jose,,CA,37.36217972612609,-121.8995386415253,12,0,Non-Networked
46482,Cupertino Electric,San Jose,,CA,37.36217972612609,-121.8995386415253,12,0,Non-Networked
46482,Cupertino Electric,San Jose,,CA,37.36217972612609,-121.8995386415253,12,0,Non-Networked
46482,Cupertino Electric,San Jose,,CA,37.36217972612609,-121.8995386415253,12,0,Non-Networked
46482,Cupertino Electric,San Jose,,CA,37.36217972612609,-121.8995386415253,12,0,Non-Networked
46482,Cupertino Electric,San Jose,,CA,37.36217972612609,-121.8995386415253,12,0,Non-Networked
46482,Cupertino Electric,San Jose,,CA,37.36217972612609,-121.8995386415253,12,0,Non-Networked
46482,Cupertino Electric,San Jose,,CA,37.36217972612609,-121.8995386415253,12,0,Non-Networked
46482,Cupertino Electric,San Jose,,CA,37.36217972612609,-121.8995386415253,12,0,Non-Networked
46482,Cupertino Electric,San Jose,,CA,37.36217972612609,-121.8995386415253,12,0,Non-Networked
46482,Cupertino Electric,San Jose,,CA,37.36217972612609,-121.8995386415253,12,0,Non-Networked
46482,Cupertino Electric,San Jose,,CA,37.36217972612609,-121.8995386415253,12,0,Non-Networked
46482,Cupertino Electric,San Jose,,CA,37.36217972612609,-121.8995386415253,12,0,Non-Networked
1552,LADWP - Harbor Generating Station,Wilmington,,CA,33.770508,-118.265628,10,0,Non-Networked
7242,Universal City Hilton,Universal City,,CA,34.13722,-118.35835,10,0,Non-Networked
1552,LADWP - Harbor Generating Station,Wilmington,,CA,33.770508,-118.265628,10,0,Non-Networked
7242,Universal City Hilton,Universal City,,CA,34.13722,-118.35835,10,0,Non-Networked
7242,Universal City Hilton,Universal City,,CA,34.13722,-118.35835,10,0,Non-Networked
1552,LADWP - Harbor Generating Station,Wilmington,,CA,33.770508,-118.265628,10,0,Non-Networked
7242,Universal City Hilton,Universal City,,CA,34.13722,-118.35835,10,0,Non-Networked
1552,LADWP - Harbor Generating Station,Wilmington,,CA,33.770508,-118.265628,10,0,Non-Networked
1552,LADWP - Harbor Generating Station,Wilmington,,CA,33.770508,-118.265628,10,0,Non-Networked
1552,LADWP - Harbor Generating Station,Wilmington,,CA,33.770508,-118.265628,10,0,Non-Networked
7242,Universal City Hilton,Universal City,,CA,34.13722,-118.35835,10,0,Non-Networked
7242,Universal City Hilton,Universal City,,CA,34.13722,-118.35835,10,0,Non-Networked
1552,LADWP - Harbor Generating Station,Wilmington,,CA,33.770508,-118.265628,10,0,Non-Networked
7242,Universal City Hilton,Universal City,,CA,34.13722,-118.35835,10,0,Non-Networked
7242,Universal City Hilton,Universal City,,CA,34.13722,-118.35835,10,0,Non-Networked
1552,LADWP - Harbor Generating Station,Wilmington,,CA,33.770508,-118.265628,10,0,Non-Networked
1552,LADWP - Harbor Generating Station,Wilmington,,CA,33.770508,-118.265628,10,0,Non-Networked
7242,Universal City Hilton,Universal City,,CA,34.13722,-118.35835,10,0,Non-Networked
1552,LADWP - Harbor Generating Station,Wilmington,,CA,33.770508,-118.265628,10,0,Non-Networked
7242,Universal City Hilton,Universal City,,CA,34.13722,-118.35835,10,0,Non-Networked
1552,LADWP - Harbor Generating Station,Wilmington,,CA,33.770508,-118.265628,10,0,Non-Networked
7242,Universal City Hilton,Universal City,,CA,34.13722,-118.35835,10,0,Non-Networked
7242,Universal City Hilton,Universal City,,CA,34.13722,-118.35835,10,0,Non-Networked
1552,LADWP - Harbor Generating Station,Wilmington,,CA,33.770508,-118.265628,10,0,Non-Networked
7242,Universal City Hilton,Universal City,,CA,34.13722,-118.35835,10,0,Non-Networked
1552,LADWP - Harbor Generating Station,Wilmington,,CA,33.770508,-118.265628,10,0,Non-Networked
7242,Universal City Hilton,Universal City,,CA,34.13722,-118.35835,10,0,Non-Networked
1552,LADWP - Harbor Generating Station,Wilmington,,CA,33.770508,-118.265628,10,0,Non-Networked
7242,Universal City Hilton,Universal City,,CA,34.13722,-118.35835,10,0,Non-Networked
1552,LADWP - Harbor Generating Station,Wilmington,,CA,33.770508,-118.265628,10,0,Non-Networked
7242,Universal City Hilton,Universal City,,CA,34.13722,-118.35835,10,0,Non-Networked
1552,LADWP - Harbor Generating Station,Wilmington,,CA,33.770508,-118.265628,10,0,Non-Networked
7242,Universal City Hilton,Universal City,,CA,34.13722,-118.35835,10,0,Non-Networked
1552,LADWP - Harbor Generating Station,Wilmington,,CA,33.770508,-118.265628,10,0,Non-Networked
7242,Universal City Hilton,Universal City,,CA,34.13722,-118.35835,10,0,Non-Networked
7242,Universal City Hilton,Universal City,,CA,34.13722,-118.35835,10,0,Non-Networked
1552,LADWP - Harbor Generating Station,Wilmington,,CA,33.770508,-118.265628,10,0,Non-Networked
1552,LADWP - Harbor Generating Station,Wilmington,,CA,33.770508,-118.265628,10,0,Non-Networked
7242,Universal City Hilton,Universal City,,CA,34.13722,-118.35835,10,0,Non-Networked
1552,LADWP - Harbor Generating Station,Wilmington,,CA,33.770508,-118.265628,10,0,Non-Networked
7242,Universal City Hilton,Universal City,,CA,34.13722,-118.35835,10,0,Non-Networked
7242,Universal City Hilton,Universal City,,CA,34.13722,-118.35835,10,0,Non-Networked
1552,LADWP - Harbor Generating Station,Wilmington,,CA,33.770508,-118.265628,10,0,Non-Networked
7242,Universal City Hilton,Universal City,,CA,34.13722,-118.35835,10,0,Non-Networked
1552,LADWP - Harbor Generating Station,Wilmington,,CA,33.770508,-118.265628,10,0,Non-Networked
1552,LADWP - Harbor Generating Station,Wilmington,,CA,33.770508,-118.265628,10,0,Non-Networked
7242,Universal City Hilton,Universal City,,CA,34.13722,-118.35835,10,0,Non-Networked
1552,LADWP - Harbor Generating Station,Wilmington,,CA,33.770508,-118.265628,10,0,Non-Networked
7242,Universal City Hilton,Universal City,,CA,34.13722,-118.35835,10,0,Non-Networked
1552,LADWP - Harbor Generating Station,Wilmington,,CA,33.770508,-118.265628,10,0,Non-Networked
1552,LADWP - Harbor Generating Station,Wilmington,,CA,33.770508,-118.265628,10,0,Non-Networked
7242,Universal City Hilton,Universal City,,CA,34.13722,-118.35835,10,0,Non-Networked
1552,LADWP - Harbor Generating Station,Wilmington,,CA,33.770508,-118.265628,10,0,Non-Networked
7242,Universal City Hilton,Universal City,,CA,34.13722,-118.35835,10,0,Non-Networked
1552,LADWP - Harbor Generating Station,Wilmington,,CA,33.770508,-118.265628,10,0,Non-Networked
1552,LADWP - Harbor Generating Station,Wilmington,,CA,33.770508,-118.265628,10,0,Non-Networked
7242,Universal City Hilton,Universal City,,CA,34.13722,-118.35835,10,0,Non-Networked
1552,LADWP - Harbor Generating Station,Wilmington,,CA,33.770508,-118.265628,10,0,Non-Networked
7242,Universal City Hilton,Universal City,,CA,34.13722,-118.35835,10,0,Non-Networked
7242,Universal City Hilton,Universal City,,CA,34.13722,-118.35835,10,0,Non-Networked
7242,Universal City Hilton,Universal City,,CA,34.13722,-118.35835,10,0,Non-Networked
1552,LADWP - Harbor Generating Station,Wilmington,,CA,33.770508,-118.265628,10,0,Non-Networked
1552,LADWP - Harbor Generating Station,Wilmington,,CA,33.770508,-118.265628,10,0,Non-Networked
7242,Universal City Hilton,Universal City,,CA,34.13722,-118.35835,10,0,Non-Networked
7242,Universal City Hilton,Universal City,,CA,34.13722,-118.35835,10,0,Non-Networked
1552,LADWP - Harbor Generating Station,Wilmington,,CA,33.770508,-118.265628,10,0,Non-Networked
7242,Universal City Hilton,Universal City,,CA,34.13722,-118.35835,10,0,Non-Networked
1552,LADWP - Harbor Generating Station,Wilmington,,CA,33.770508,-118.265628,10,0,Non-Networked
1552,LADWP - Harbor Generating Station,Wilmington,,CA,33.770508,-118.265628,10,0,Non-Networked
1552,LADWP - Harbor Generating Station,Wilmington,,CA,33.770508,-118.265628,10,0,Non-Networked
7242,Universal City Hilton,Universal City,,CA,34.13722,-118.35835,10,0,Non-Networked
1552,LADWP - Harbor Generating Station,Wilmington,,CA,33.770508,-118.265628,10,0,Non-Networked
7242,Universal City Hilton,Universal City,,CA,34.13722,-118.35835,10,0,Non-Networked
7242,Universal City Hilton,Universal City,,CA,34.13722,-118.35835,10,0,Non-Networked
7242,Universal City Hilton,Universal City,,CA,34.13722,-118.35835,10,0,Non-Networked
1552,LADWP - Harbor Generating Station,Wilmington,,CA,33.770508,-118.265628,10,0,Non-Networked
7242,Universal City Hilton,Universal City,,CA,34.13722,-118.35835,10,0,Non-Networked
1552,LADWP - Harbor Generating Station,Wilmington,,CA,33.770508,-118.265628,10,0,Non-Networked
1552,LADWP - Harbor Generating Station,Wilmington,,CA,33.770508,-118.265628,10,0,Non-Networked
7242,Universal City Hilton,Universal City,,CA,34.13722,-118.35835,10,0,Non-Networked
7242,Universal City Hilton,Universal City,,CA,34.13722,-118.35835,10,0,Non-Networked
1552,LADWP - Harbor Generating Station,Wilmington,,CA,33.770508,-118.265628,10,0,Non-Networked
1552,LADWP - Harbor Generating Station,Wilmington,,CA,33.770508,-118.265628,10,0,Non-Networked
1552,LADWP - Harbor Generating Station,Wilmington,,CA,33.770508,-118.265628,10,0,Non-Networked
7242,Universal City Hilton,Universal City,,CA,34.13722,-118.35835,10,0,Non-Networked
1552,LADWP - Harbor Generating Station,Wilmington,,CA,33.770508,-118.265628,10,0,Non-Networked
1552,LADWP - Harbor Generating Station,Wilmington,,CA,33.770508,-118.265628,10,0,Non-Networked
7242,Universal City Hilton,Universal City,,CA,34.13722,-118.35835,10,0,Non-Networked
1552,LADWP - Harbor Generating Station,Wilmington,,CA,33.770508,-118.265628,10,0,Non-Networked
1552,LADWP - Harbor Generating Station,Wilmington,,CA,33.770508,-118.265628,10,0,Non-Networked
7242,Universal City Hilton,Universal City,,CA,34.13722,-118.35835,10,0,Non-Networked
7242,Universal City Hilton,Universal City,,CA,34.13722,-118.35835,10,0,Non-Networked
1552,LADWP - Harbor Generating Station,Wilmington,,CA,33.770508,-118.265628,10,0,Non-Networked
7242,Universal City Hilton,Universal City,,CA,34.13722,-118.35835,10,0,Non-Networked
1552,LADWP - Harbor Generating Station,Wilmington,,CA,33.770508,-118.265628,10,0,Non-Networked
1552,LADWP - Harbor Generating Station,Wilmington,,CA,33.770508,-118.265628,10,0,Non-Networked
7242,Universal City Hilton,Universal City,,CA,34.13722,-118.35835,10,0,Non-Networked
7242,Universal City Hilton,Universal City,,CA,34.13722,-118.35835,10,0,Non-Networked
7242,Universal City Hilton,Universal City,,CA,34.13722,-118.35835,10,0,Non-Networked
1552,LADWP - Harbor Generating Station,Wilmington,,CA,33.770508,-118.265628,10,0,Non-Networked
7242,Universal City Hilton,Universal City,,CA,34.13722,-118.35835,10,0,Non-Networked
1552,LADWP - Harbor Generating Station,Wilmington,,CA,33.770508,-118.265628,10,0,Non-Networked
7242,Universal City Hilton,Universal City,,CA,34.13722,-118.35835,10,0,Non-Networked
1552,LADWP - Harbor Generating Station,Wilmington,,CA,33.770508,-118.265628,10,0,Non-Networked
7242,Universal City Hilton,Universal City,,CA,34.13722,-118.35835,10,0,Non-Networked
1552,LADWP - Harbor Generating Station,Wilmington,,CA,33.770508,-118.265628,10,0,Non-Networked
7242,Universal City Hilton,Universal City,,CA,34.13722,-118.35835,10,0,Non-Networked
7242,Universal City Hilton,Universal City,,CA,34.13722,-118.35835,10,0,Non-Networked
1552,LADWP - Harbor Generating Station,Wilmington,,CA,33.770508,-118.265628,10,0,Non-Networked
1552,LADWP - Harbor Generating Station,Wilmington,,CA,33.770508,-118.265628,10,0,Non-Networked
1552,LADWP - Harbor Generating Station,Wilmington,,CA,33.770508,-118.265628,10,0,Non-Networked
7242,Universal City Hilton,Universal City,,CA,34.13722,-118.35835,10,0,Non-Networked
7242,Universal City Hilton,Universal City,,CA,34.13722,-118.35835,10,0,Non-Networked
1552,LADWP - Harbor Generating Station,Wilmington,,CA,33.770508,-118.265628,10,0,Non-Networked
1552,LADWP - Harbor Generating Station,Wilmington,,CA,33.770508,-118.265628,10,0,Non-Networked
7242,Universal City Hilton,Universal City,,CA,34.13722,-118.35835,10,0,Non-Networked
1552,LADWP - Harbor Generating Station,Wilmington,,CA,33.770508,-118.265628,10,0,Non-Networked
7242,Universal City Hilton,Universal City,,CA,34.13722,-118.35835,10,0,Non-Networked
1552,LADWP - Harbor Generating Station,Wilmington,,CA,33.770508,-118.265628,10,0,Non-Networked
7242,Universal City Hilton,Universal City,,CA,34.13722,-118.35835,10,0,Non-Networked
1552,LADWP - Harbor Generating Station,Wilmington,,CA,33.770508,-118.265628,10,0,Non-Networked
7242,Universal City Hilton,Universal City,,CA,34.13722,-118.35835,10,0,Non-Networked
1552,LADWP - Harbor Generating Station,Wilmington,,CA,33.770508,-118.265628,10,0,Non-Networked
7242,Universal City Hilton,Universal City,,CA,34.13722,-118.35835,10,0,Non-Networked
1552,LADWP - Harbor Generating Station,Wilmington,,CA,33.770508,-118.265628,10,0,Non-Networked
7242,Universal City Hilton,Universal City,,CA,34.13722,-118.35835,10,0,Non-Networked
1552,LADWP - Harbor Generating Station,Wilmington,,CA,33.770508,-118.265628,10,0,Non-Networked
7242,Universal City Hilton,Universal City,,CA,34.13722,-118.35835,10,0,Non-Networked
1552,LADWP - Harbor Generating Station,Wilmington,,CA,33.770508,-118.265628,10,0,Non-Networked
7242,Universal City Hilton,Universal City,,CA,34.13722,-118.35835,10,0,Non-Networked
7242,Universal City Hilton,Universal City,,CA,34.13722,-118.35835,10,0,Non-Networked
1552,LADWP - Harbor Generating Station,Wilmington,,CA,33.770508,-118.265628,10,0,Non-Networked
7242,Universal City Hilton,Universal City,,CA,34.13722,-118.35835,10,0,Non-Networked
7242,Universal City Hilton,Universal City,,CA,34.13722,-118.35835,10,0,Non-Networked
1552,LADWP - Harbor Generating Station,Wilmington,,CA,33.770508,-118.265628,10,0,Non-Networked
1552,LADWP - Harbor Generating Station,Wilmington,,CA,33.770508,-118.265628,10,0,Non-Networked
7242,Universal City Hilton,Universal City,,CA,34.13722,-118.35835,10,0,Non-Networked
7242,Universal City Hilton,Universal City,,CA,34.13722,-118.35835,10,0,Non-Networked
1552,LADWP - Harbor Generating Station,Wilmington,,CA,33.770508,-118.265628,10,0,Non-Networked
7242,Universal City Hilton,Universal City,,CA,34.13722,-118.35835,10,0,Non-Networked
1552,LADWP - Harbor Generating Station,Wilmington,,CA,33.770508,-118.265628,10,0,Non-Networked
7242,Universal City Hilton,Universal City,,CA,34.13722,-118.35835,10,0,Non-Networked
1552,LADWP - Harbor Generating Station,Wilmington,,CA,33.770508,-118.265628,10,0,Non-Networked
1552,LADWP - Harbor Generating Station,Wilmington,,CA,33.770508,-118.265628,10,0,Non-Networked
7242,Universal City Hilton,Universal City,,CA,34.13722,-118.35835,10,0,Non-Networked
7242,Universal City Hilton,Universal City,,CA,34.13722,-118.35835,10,0,Non-Networked
1552,LADWP - Harbor Generating Station,Wilmington,,CA,33.770508,-118.265628,10,0,Non-Networked
1552,LADWP - Harbor Generating Station,Wilmington,,CA,33.770508,-118.265628,10,0,Non-Networked
7242,Universal City Hilton,Universal City,,CA,34.13722,-118.35835,10,0,Non-Networked
7242,Universal City Hilton,Universal City,,CA,34.13722,-118.35835,10,0,Non-Networked
1552,LADWP - Harbor Generating Station,Wilmington,,CA,33.770508,-118.265628,10,0,Non-Networked
1552,LADWP - Harbor Generating Station,Wilmington,,CA,33.770508,-118.265628,10,0,Non-Networked
7242,Universal City Hilton,Universal City,,CA,34.13722,-118.35835,10,0,Non-Networked
7242,Universal City Hilton,Universal City,,CA,34.13722,-118.35835,10,0,Non-Networked
1552,LADWP - Harbor Generating Station,Wilmington,,CA,33.770508,-118.265628,10,0,Non-Networked
7242,Universal City Hilton,Universal City,,CA,34.13722,-118.35835,10,0,Non-Networked
7242,Universal City Hilton,Universal City,,CA,34.13722,-118.35835,10,0,Non-Networked
1552,LADWP - Harbor Generating Station,Wilmington,,CA,33.770508,-118.265628,10,0,Non-Networked
7242,Universal City Hilton,Universal City,,CA,34.13722,-118.35835,10,0,Non-Networked
1552,LADWP - Harbor Generating Station,Wilmington,,CA,33.770508,-118.265628,10,0,Non-Networked
7242,Universal City Hilton,Universal City,,CA,34.13722,-118.35835,10,0,Non-Networked
7242,Universal City Hilton,Universal City,,CA,34.13722,-118.35835,10,0,Non-Networked
1552,LADWP - Harbor Generating Station,Wilmington,,CA,33.770508,-118.265628,10,0,Non-Networked
7242,Universal City Hilton,Universal City,,CA,34.13722,-118.35835,10,0,Non-Networked
1552,LADWP - Harbor Generating Station,Wilmington,,CA,33.770508,-118.265628,10,0,Non-Networked
1552,LADWP - Harbor Generating Station,Wilmington,,CA,33.770508,-118.265628,10,0,Non-Networked
1552,LADWP - Harbor Generating Station,Wilmington,,CA,33.770508,-118.265628,10,0,Non-Networked
7242,Universal City Hilton,Universal City,,CA,34.13722,-118.35835,10,0,Non-Networked
1552,LADWP - Harbor Generating Station,Wilmington,,CA,33.770508,-118.265628,10,0,Non-Networked
7242,Universal City Hilton,Universal City,,CA,34.13722,-118.35835,10,0,Non-Networked
7242,Universal City Hilton,Universal City,,CA,34.13722,-118.35835,10,0,Non-Networked
1552,LADWP - Harbor Generating Station,Wilmington,,CA,33.770508,-118.265628,10,0,Non-Networked
1552,LADWP - Harbor Generating Station,Wilmington,,CA,33.770508,-118.265628,10,0,Non-Networked
7242,Universal City Hilton,Universal City,,CA,34.13722,-118.35835,10,0,Non-Networked
7242,Universal City Hilton,Universal City,,CA,34.13722,-118.35835,10,0,Non-Networked
1552,LADWP - Harbor Generating Station,Wilmington,,CA,33.770508,-118.265628,10,0,Non-Networked
1552,LADWP - Harbor Generating Station,Wilmington,,CA,33.770508,-118.265628,10,0,Non-Networked
7242,Universal City Hilton,Universal City,,CA,34.13722,-118.35835,10,0,Non-Networked
1552,LADWP - Harbor Generating Station,Wilmington,,CA,33.770508,-118.265628,10,0,Non-Networked
7242,Universal City Hilton,Universal City,,CA,34.13722,-118.35835,10,0,Non-Networked
7242,Universal City Hilton,Universal City,,CA,34.13722,-118.35835,10,0,Non-Networked
1552,LADWP - Harbor Generating Station,Wilmington,,CA,33.770508,-118.265628,10,0,Non-Networked
7242,Universal City Hilton,Universal City,,CA,34.13722,-118.35835,10,0,Non-Networked
1552,LADWP - Harbor Generating Station,Wilmington,,CA,33.770508,-118.265628,10,0,Non-Networked
1552,LADWP - Harbor Generating Station,Wilmington,,CA,33.770508,-118.265628,10,0,Non-Networked
1552,LADWP - Harbor Generating Station,Wilmington,,CA,33.770508,-118.265628,10,0,Non-Networked
1552,LADWP - Harbor Generating Station,Wilmington,,CA,33.770508,-118.265628,10,0,Non-Networked
7242,Universal City Hilton,Universal City,,CA,34.13722,-118.35835,10,0,Non-Networked
1552,LADWP - Harbor Generating Station,Wilmington,,CA,33.770508,-118.265628,10,0,Non-Networked
7242,Universal City Hilton,Universal City,,CA,34.13722,-118.35835,10,0,Non-Networked
1552,LADWP - Harbor Generating Station,Wilmington,,CA,33.770508,-118.265628,10,0,Non-Networked
7242,Universal City Hilton,Universal City,,CA,34.13722,-118.35835,10,0,Non-Networked
1552,LADWP - Harbor Generating Station,Wilmington,,CA,33.770508,-118.265628,10,0,Non-Networked
7242,Universal City Hilton,Universal City,,CA,34.13722,-118.35835,10,0,Non-Networked
1552,LADWP - Harbor Generating Station,Wilmington,,CA,33.770508,-118.265628,10,0,Non-Networked
7242,Universal City Hilton,Universal City,,CA,34.13722,-118.35835,10,0,Non-Networked
7242,Universal City Hilton,Universal City,,CA,34.13722,-118.35835,10,0,Non-Networked
7242,Universal City Hilton,Universal City,,CA,34.13722,-118.35835,10,0,Non-Networked
25171,LADWP - Wilmington District Yard,Wilmington,,CA,33.773005,-118.265821,8,0,Non-Networked
21535,Westfield MainPlace Mall,Santa Ana,,CA,33.777054,-117.870566,8,0,Non-Networked
25171,LADWP - Wilmington District Yard,Wilmington,,CA,33.773005,-118.265821,8,0,Non-Networked
21535,Westfield MainPlace Mall,Santa Ana,,CA,33.777054,-117.870566,8,0,Non-Networked
25171,LADWP - Wilmington District Yard,Wilmington,,CA,33.773005,-118.265821,8,0,Non-Networked
21535,Westfield MainPlace Mall,Santa Ana,,CA,33.777054,-117.870566,8,0,Non-Networked
25171,LADWP - Wilmington District Yard,Wilmington,,CA,33.773005,-118.265821,8,0,Non-Networked
21535,Westfield MainPlace Mall,Santa Ana,,CA,33.777054,-117.870566,8,0,Non-Networked
25171,LADWP - Wilmington District Yard,Wilmington,,CA,33.773005,-118.265821,8,0,Non-Networked
21535,Westfield MainPlace Mall,Santa Ana,,CA,33.777054,-117.870566,8,0,Non-Networked
25171,LADWP - Wilmington District Yard,Wilmington,,CA,33.773005,-118.265821,8,0,Non-Networked
21535,Westfield MainPlace Mall,Santa Ana,,CA,33.777054,-117.870566,8,0,Non-Networked
25171,LADWP - Wilmington District Yard,Wilmington,,CA,33.773005,-118.265821,8,0,Non-Networked
21535,Westfield MainPlace Mall,Santa Ana,,CA,33.777054,-117.870566,8,0,Non-Networked
21535,Westfield MainPlace Mall,Santa Ana,,CA,33.777054,-117.870566,8,0,Non-Networked
25171,LADWP - Wilmington District Yard,Wilmington,,CA,33.773005,-118.265821,8,0,Non-Networked
21535,Westfield MainPlace Mall,Santa Ana,,CA,33.777054,-117.870566,8,0,Non-Networked
25171,LADWP - Wilmington District Yard,Wilmington,,CA,33.773005,-118.265821,8,0,Non-Networked
21535,Westfield MainPlace Mall,Santa Ana,,CA,33.777054,-117.870566,8,0,Non-Networked
25171,LADWP - Wilmington District Yard,Wilmington,,CA,33.773005,-118.265821,8,0,Non-Networked
21535,Westfield MainPlace Mall,Santa Ana,,CA,33.777054,-117.870566,8,0,Non-Networked
25171,LADWP - Wilmington District Yard,Wilmington,,CA,33.773005,-118.265821,8,0,Non-Networked
21535,Westfield MainPlace Mall,Santa Ana,,CA,33.777054,-117.870566,8,0,Non-Networked
25171,LADWP - Wilmington District Yard,Wilmington,,CA,33.773005,-118.265821,8,0,Non-Networked
21535,Westfield MainPlace Mall,Santa Ana,,CA,33.777054,-117.870566,8,0,Non-Networked
25171,LADWP - Wilmington District Yard,Wilmington,,CA,33.773005,-118.265821,8,0,Non-Networked
21535,Westfield MainPlace Mall,Santa Ana,,CA,33.777054,-117.870566,8,0,Non-Networked
25171,LADWP - Wilmington District Yard,Wilmington,,CA,33.773005,-118.265821,8,0,Non-Networked
21535,Westfield MainPlace Mall,Santa Ana,,CA,33.777054,-117.870566,8,0,Non-Networked
25171,LADWP - Wilmington District Yard,Wilmington,,CA,33.773005,-118.265821,8,0,Non-Networked
21535,Westfield MainPlace Mall,Santa Ana,,CA,33.777054,-117.870566,8,0,Non-Networked
25171,LADWP - Wilmington District Yard,Wilmington,,CA,33.773005,-118.265821,8,0,Non-Networked
21535,Westfield MainPlace Mall,Santa Ana,,CA,33.777054,-117.870566,8,0,Non-Networked
25171,LADWP - Wilmington District Yard,Wilmington,,CA,33.773005,-118.265821,8,0,Non-Networked
21535,Westfield MainPlace Mall,Santa Ana,,CA,33.777054,-117.870566,8,0,Non-Networked
25171,LADWP - Wilmington District Yard,Wilmington,,CA,33.773005,-118.265821,8,0,Non-Networked
21535,Westfield MainPlace Mall,Santa Ana,,CA,33.777054,-117.870566,8,0,Non-Networked
25171,LADWP - Wilmington District Yard,Wilmington,,CA,33.773005,-118.265821,8,0,Non-Networked
25171,LADWP - Wilmington District Yard,Wilmington,,CA,33.773005,-118.265821,8,0,Non-Networked
21535,Westfield MainPlace Mall,Santa Ana,,CA,33.777054,-117.870566,8,0,Non-Networked
25171,LADWP - Wilmington District Yard,Wilmington,,CA,33.773005,-118.265821,8,0,Non-Networked
21535,Westfield MainPlace Mall,Santa Ana,,CA,33.777054,-117.870566,8,0,Non-Networked
21535,Westfield MainPlace Mall,Santa Ana,,CA,33.777054,-117.870566,8,0,Non-Networked
25171,LADWP - Wilmington District Yard,Wilmington,,CA,33.773005,-118.265821,8,0,Non-Networked
21535,Westfield MainPlace Mall,Santa Ana,,CA,33.777054,-117.870566,8,0,Non-Networked
25171,LADWP - Wilmington District Yard,Wilmington,,CA,33.773005,-118.265821,8,0,Non-Networked
25171,LADWP - Wilmington District Yard,Wilmington,,CA,33.773005,-118.265821,8,0,Non-Networked
21535,Westfield MainPlace Mall,Santa Ana,,CA,33.777054,-117.870566,8,0,Non-Networked
25171,LADWP - Wilmington District Yard,Wilmington,,CA,33.773005,-118.265821,8,0,Non-Networked
21535,Westfield MainPlace Mall,Santa Ana,,CA,33.777054,-117.870566,8,0,Non-Networked
25171,LADWP - Wilmington District Yard,Wilmington,,CA,33.773005,-118.265821,8,0,Non-Networked
21535,Westfield MainPlace Mall,Santa Ana,,CA,33.777054,-117.870566,8,0,Non-Networked
25171,LADWP - Wilmington District Yard,Wilmington,,CA,33.773005,-118.265821,8,0,Non-Networked
21535,Westfield MainPlace Mall,Santa Ana,,CA,33.777054,-117.870566,8,0,Non-Networked
25171,LADWP - Wilmington District Yard,Wilmington,,CA,33.773005,-118.265821,8,0,Non-Networked
21535,Westfield MainPlace Mall,Santa Ana,,CA,33.777054,-117.870566,8,0,Non-Networked
25171,LADWP - Wilmington District Yard,Wilmington,,CA,33.773005,-118.265821,8,0,Non-Networked
21535,Westfield MainPlace Mall,Santa Ana,,CA,33.777054,-117.870566,8,0,Non-Networked
25171,LADWP - Wilmington District Yard,Wilmington,,CA,33.773005,-118.265821,8,0,Non-Networked
21535,Westfield MainPlace Mall,Santa Ana,,CA,33.777054,-117.870566,8,0,Non-Networked
25171,LADWP - Wilmington District Yard,Wilmington,,CA,33.773005,-118.265821,8,0,Non-Networked
21535,Westfield MainPlace Mall,Santa Ana,,CA,33.777054,-117.870566,8,0,Non-Networked
25171,LADWP - Wilmington District Yard,Wilmington,,CA,33.773005,-118.265821,8,0,Non-Networked
21535,Westfield MainPlace Mall,Santa Ana,,CA,33.777054,-117.870566,8,0,Non-Networked
25171,LADWP - Wilmington District Yard,Wilmington,,CA,33.773005,-118.265821,8,0,Non-Networked
21535,Westfield MainPlace Mall,Santa Ana,,CA,33.777054,-117.870566,8,0,Non-Networked
25171,LADWP - Wilmington District Yard,Wilmington,,CA,33.773005,-118.265821,8,0,Non-Networked
21535,Westfield MainPlace Mall,Santa Ana,,CA,33.777054,-117.870566,8,0,Non-Networked
25171,LADWP - Wilmington District Yard,Wilmington,,CA,33.773005,-118.265821,8,0,Non-Networked
21535,Westfield MainPlace Mall,Santa Ana,,CA,33.777054,-117.870566,8,0,Non-Networked
25171,LADWP - Wilmington District Yard,Wilmington,,CA,33.773005,-118.265821,8,0,Non-Networked
21535,Westfield MainPlace Mall,Santa Ana,,CA,33.777054,-117.870566,8,0,Non-Networked
25171,LADWP - Wilmington District Yard,Wilmington,,CA,33.773005,-118.265821,8,0,Non-Networked
21535,Westfield MainPlace Mall,Santa Ana,,CA,33.777054,-117.870566,8,0,Non-Networked
25171,LADWP - Wilmington District Yard,Wilmington,,CA,33.773005,-118.265821,8,0,Non-Networked
21535,Westfield MainPlace Mall,Santa Ana,,CA,33.777054,-117.870566,8,0,Non-Networked
25171,LADWP - Wilmington District Yard,Wilmington,,CA,33.773005,-118.265821,8,0,Non-Networked
21535,Westfield MainPlace Mall,Santa Ana,,CA,33.777054,-117.870566,8,0,Non-Networked
25171,LADWP - Wilmington District Yard,Wilmington,,CA,33.773005,-118.265821,8,0,Non-Networked
21535,Westfield MainPlace Mall,Santa Ana,,CA,33.777054,-117.870566,8,0,Non-Networked
25171,LADWP - Wilmington District Yard,Wilmington,,CA,33.773005,-118.265821,8,0,Non-Networked
21535,Westfield MainPlace Mall,Santa Ana,,CA,33.777054,-117.870566,8,0,Non-Networked
25171,LADWP - Wilmington District Yard,Wilmington,,CA,33.773005,-118.265821,8,0,Non-Networked
25171,LADWP - Wilmington District Yard,Wilmington,,CA,33.773005,-118.265821,8,0,Non-Networked
21535,Westfield MainPlace Mall,Santa Ana,,CA,33.777054,-117.870566,8,0,Non-Networked
25171,LADWP - Wilmington District Yard,Wilmington,,CA,33.773005,-118.265821,8,0,Non-Networked
21535,Westfield MainPlace Mall,Santa Ana,,CA,33.777054,-117.870566,8,0,Non-Networked
21535,Westfield MainPlace Mall,Santa Ana,,CA,33.777054,-117.870566,8,0,Non-Networked
25171,LADWP - Wilmington District Yard,Wilmington,,CA,33.773005,-118.265821,8,0,Non-Networked
21535,Westfield MainPlace Mall,Santa Ana,,CA,33.777054,-117.870566,8,0,Non-Networked
25171,LADWP - Wilmington District Yard,Wilmington,,CA,33.773005,-118.265821,8,0,Non-Networked
21535,Westfield MainPlace Mall,Santa Ana,,CA,33.777054,-117.870566,8,0,Non-Networked
25171,LADWP - Wilmington District Yard,Wilmington,,CA,33.773005,-118.265821,8,0,Non-Networked
21535,Westfield MainPlace Mall,Santa Ana,,CA,33.777054,-117.870566,8,0,Non-Networked
25171,LADWP - Wilmington District Yard,Wilmington,,CA,33.773005,-118.265821,8,0,Non-Networked
21535,Westfield MainPlace Mall,Santa Ana,,CA,33.777054,-117.870566,8,0,Non-Networked
25171,LADWP - Wilmington District Yard,Wilmington,,CA,33.773005,-118.265821,8,0,Non-Networked
21535,Westfield MainPlace Mall,Santa Ana,,CA,33.777054,-117.870566,8,0,Non-Networked
25171,LADWP - Wilmington District Yard,Wilmington,,CA,33.773005,-118.265821,8,0,Non-Networked
21535,Westfield MainPlace Mall,Santa Ana,,CA,33.777054,-117.870566,8,0,Non-Networked
25171,LADWP - Wilmington District Yard,Wilmington,,CA,33.773005,-118.265821,8,0,Non-Networked
21535,Westfield MainPlace Mall,Santa Ana,,CA,33.777054,-117.870566,8,0,Non-Networked
25171,LADWP - Wilmington District Yard,Wilmington,,CA,33.773005,-118.265821,8,0,Non-Networked
21535,Westfield MainPlace Mall,Santa Ana,,CA,33.777054,-117.870566,8,0,Non-Networked
25171,LADWP - Wilmington District Yard,Wilmington,,CA,33.773005,-118.265821,8,0,Non-Networked
21535,Westfield MainPlace Mall,Santa Ana,,CA,33.777054,-117.870566,8,0,Non-Networked
25171,LADWP - Wilmington District Yard,Wilmington,,CA,33.773005,-118.265821,8,0,Non-Networked
21535,Westfield MainPlace Mall,Santa Ana,,CA,33.777054,-117.870566,8,0,Non-Networked
25171,LADWP - Wilmington District Yard,Wilmington,,CA,33.773005,-118.265821,8,0,Non-Networked
21535,Westfield MainPlace Mall,Santa Ana,,CA,33.777054,-117.870566,8,0,Non-Networked
25171,LADWP - Wilmington District Yard,Wilmington,,CA,33.773005,-118.265821,8,0,Non-Networked
21535,Westfield MainPlace Mall,Santa Ana,,CA,33.777054,-117.870566,8,0,Non-Networked
25171,LADWP - Wilmington District Yard,Wilmington,,CA,33.773005,-118.265821,8,0,Non-Networked
21535,Westfield MainPlace Mall,Santa Ana,,CA,33.777054,-117.870566,8,0,Non-Networked
25171,LADWP - Wilmington District Yard,Wilmington,,CA,33.773005,-118.265821,8,0,Non-Networked
21535,Westfield MainPlace Mall,Santa Ana,,CA,33.777054,-117.870566,8,0,Non-Networked
25171,LADWP - Wilmington District Yard,Wilmington,,CA,33.773005,-118.265821,8,0,Non-Networked
21535,Westfield MainPlace Mall,Santa Ana,,CA,33.777054,-117.870566,8,0,Non-Networked
25171,LADWP - Wilmington District Yard,Wilmington,,CA,33.773005,-118.265821,8,0,Non-Networked
21535,Westfield MainPlace Mall,Santa Ana,,CA,33.777054,-117.870566,8,0,Non-Networked
25171,LADWP - Wilmington District Yard,Wilmington,,CA,33.773005,-118.265821,8,0,Non-Networked
21535,Westfield MainPlace Mall,Santa Ana,,CA,33.777054,-117.870566,8,0,Non-Networked
25171,LADWP - Wilmington District Yard,Wilmington,,CA,33.773005,-118.265821,8,0,Non-Networked
25171,LADWP - Wilmington District Yard,Wilmington,,CA,33.773005,-118.265821,8,0,Non-Networked
21535,Westfield MainPlace Mall,Santa Ana,,CA,33.777054,-117.870566,8,0,Non-Networked
25171,LADWP - Wilmington District Yard,Wilmington,,CA,33.773005,-118.265821,8,0,Non-Networked
21535,Westfield MainPlace Mall,Santa Ana,,CA,33.777054,-117.870566,8,0,Non-Networked
25171,LADWP - Wilmington District Yard,Wilmington,,CA,33.773005,-118.265821,8,0,Non-Networked
21535,Westfield MainPlace Mall,Santa Ana,,CA,33.777054,-117.870566,8,0,Non-Networked
21535,Westfield MainPlace Mall,Santa Ana,,CA,33.777054,-117.870566,8,0,Non-Networked
25171,LADWP - Wilmington District Yard,Wilmington,,CA,33.773005,-118.265821,8,0,Non-Networked
21535,Westfield MainPlace Mall,Santa Ana,,CA,33.777054,-117.870566,8,0,Non-Networked
25171,LADWP - Wilmington District Yard,Wilmington,,CA,33.773005,-118.265821,8,0,Non-Networked
21535,Westfield MainPlace Mall,Santa Ana,,CA,33.777054,-117.870566,8,0,Non-Networked
25171,LADWP - Wilmington District Yard,Wilmington,,CA,33.773005,-118.265821,8,0,Non-Networked
21535,Westfield MainPlace Mall,Santa Ana,,CA,33.777054,-117.870566,8,0,Non-Networked
25171,LADWP - Wilmington District Yard,Wilmington,,CA,33.773005,-118.265821,8,0,Non-Networked
21535,Westfield MainPlace Mall,Santa Ana,,CA,33.777054,-117.870566,8,0,Non-Networked
25171,LADWP - Wilmington District Yard,Wilmington,,CA,33.773005,-118.265821,8,0,Non-Networked
21535,Westfield MainPlace Mall,Santa Ana,,CA,33.777054,-117.870566,8,0,Non-Networked
25171,LADWP - Wilmington District Yard,Wilmington,,CA,33.773005,-118.265821,8,0,Non-Networked
21535,Westfield MainPlace Mall,Santa Ana,,CA,33.777054,-117.870566,8,0,Non-Networked
25171,LADWP - Wilmington District Yard,Wilmington,,CA,33.773005,-118.265821,8,0,Non-Networked
21535,Westfield MainPlace Mall,Santa Ana,,CA,33.777054,-117.870566,8,0,Non-Networked
25171,LADWP - Wilmington District Yard,Wilmington,,CA,33.773005,-118.265821,8,0,Non-Networked
21535,Westfield MainPlace Mall,Santa Ana,,CA,33.777054,-117.870566,8,0,Non-Networked
25171,LADWP - Wilmington District Yard,Wilmington,,CA,33.773005,-118.265821,8,0,Non-Networked
21535,Westfield MainPlace Mall,Santa Ana,,CA,33.777054,-117.870566,8,0,Non-Networked
25171,LADWP - Wilmington District Yard,Wilmington,,CA,33.773005,-118.265821,8,0,Non-Networked
21535,Westfield MainPlace Mall,Santa Ana,,CA,33.777054,-117.870566,8,0,Non-Networked
25171,LADWP - Wilmington District Yard,Wilmington,,CA,33.773005,-118.265821,8,0,Non-Networked
21535,Westfield MainPlace Mall,Santa Ana,,CA,33.777054,-117.870566,8,0,Non-Networked
25171,LADWP - Wilmington District Yard,Wilmington,,CA,33.773005,-118.265821,8,0,Non-Networked
21535,Westfield MainPlace Mall,Santa Ana,,CA,33.777054,-117.870566,8,0,Non-Networked
21535,Westfield MainPlace Mall,Santa Ana,,CA,33.777054,-117.870566,8,0,Non-Networked
25171,LADWP - Wilmington District Yard,Wilmington,,CA,33.773005,-118.265821,8,0,Non-Networked
21535,Westfield MainPlace Mall,Santa Ana,,CA,33.777054,-117.870566,8,0,Non-Networked
25171,LADWP - Wilmington District Yard,Wilmington,,CA,33.773005,-118.265821,8,0,Non-Networked
21535,Westfield MainPlace Mall,Santa Ana,,CA,33.777054,-117.870566,8,0,Non-Networked
25171,LADWP - Wilmington District Yard,Wilmington,,CA,33.773005,-118.265821,8,0,Non-Networked
21535,Westfield MainPlace Mall,Santa Ana,,CA,33.777054,-117.870566,8,0,Non-Networked
25171,LADWP - Wilmington District Yard,Wilmington,,CA,33.773005,-118.265821,8,0,Non-Networked
21535,Westfield MainPlace Mall,Santa Ana,,CA,33.777054,-117.870566,8,0,Non-Networked
25171,LADWP - Wilmington District Yard,Wilmington,,CA,33.773005,-118.265821,8,0,Non-Networked
25171,LADWP - Wilmington District Yard,Wilmington,,CA,33.773005,-118.265821,8,0,Non-Networked
21535,Westfield MainPlace Mall,Santa Ana,,CA,33.777054,-117.870566,8,0,Non-Networked
25171,LADWP - Wilmington District Yard,Wilmington,,CA,33.773005,-118.265821,8,0,Non-Networked
21535,Westfield MainPlace Mall,Santa Ana,,CA,33.777054,-117.870566,8,0,Non-Networked
21535,Westfield MainPlace Mall,Santa Ana,,CA,33.777054,-117.870566,8,0,Non-Networked
25171,LADWP - Wilmington District Yard,Wilmington,,CA,33.773005,-118.265821,8,0,Non-Networked
21535,Westfield MainPlace Mall,Santa Ana,,CA,33.777054,-117.870566,8,0,Non-Networked
25171,LADWP - Wilmington District Yard,Wilmington,,CA,33.773005,-118.265821,8,0,Non-Networked
21535,Westfield MainPlace Mall,Santa Ana,,CA,33.777054,-117.870566,8,0,Non-Networked
25171,LADWP - Wilmington District Yard,Wilmington,,CA,33.773005,-118.265821,8,0,Non-Networked
21535,Westfield MainPlace Mall,Santa Ana,,CA,33.777054,-117.870566,8,0,Non-Networked
25171,LADWP - Wilmington District Yard,Wilmington,,CA,33.773005,-118.265821,8,0,Non-Networked
21535,Westfield MainPlace Mall,Santa Ana,,CA,33.777054,-117.870566,8,0,Non-Networked
25171,LADWP - Wilmington District Yard,Wilmington,,CA,33.773005,-118.265821,8,0,Non-Networked
21535,Westfield MainPlace Mall,Santa Ana,,CA,33.777054,-117.870566,8,0,Non-Networked
25171,LADWP - Wilmington District Yard,Wilmington,,CA,33.773005,-118.265821,8,0,Non-Networked
21535,Westfield MainPlace Mall,Santa Ana,,CA,33.777054,-117.870566,8,0,Non-Networked
25171,LADWP - Wilmington District Yard,Wilmington,,CA,33.773005,-118.265821,8,0,Non-Networked
21535,Westfield MainPlace Mall,Santa Ana,,CA,33.777054,-117.870566,8,0,Non-Networked
25171,LADWP - Wilmington District Yard,Wilmington,,CA,33.773005,-118.265821,8,0,Non-Networked
21535,Westfield MainPlace Mall,Santa Ana,,CA,33.777054,-117.870566,8,0,Non-Networked
25171,LADWP - Wilmington District Yard,Wilmington,,CA,33.773005,-118.265821,8,0,Non-Networked
21535,Westfield MainPlace Mall,Santa Ana,,CA,33.777054,-117.870566,8,0,Non-Networked
25171,LADWP - Wilmington District Yard,Wilmington,,CA,33.773005,-118.265821,8,0,Non-Networked
21535,Westfield MainPlace Mall,Santa Ana,,CA,33.777054,-117.870566,8,0,Non-Networked
25171,LADWP - Wilmington District Yard,Wilmington,,CA,33.773005,-118.265821,8,0,Non-Networked
21535,Westfield MainPlace Mall,Santa Ana,,CA,33.777054,-117.870566,8,0,Non-Networked
25171,LADWP - Wilmington District Yard,Wilmington,,CA,33.773005,-118.265821,8,0,Non-Networked
25171,LADWP - Wilmington District Yard,Wilmington,,CA,33.773005,-118.265821,8,0,Non-Networked
21535,Westfield MainPlace Mall,Santa Ana,,CA,33.777054,-117.870566,8,0,Non-Networked
25171,LADWP - Wilmington District Yard,Wilmington,,CA,33.773005,-118.265821,8,0,Non-Networked
21535,Westfield MainPlace Mall,Santa Ana,,CA,33.777054,-117.870566,8,0,Non-Networked
25171,LADWP - Wilmington District Yard,Wilmington,,CA,33.773005,-118.265821,8,0,Non-Networked
21535,Westfield MainPlace Mall,Santa Ana,,CA,33.777054,-117.870566,8,0,Non-Networked
